{
"type": "FeatureCollection",
"name": "candidate-votes",
"crs": { "type": "name", "properties": { "name": "urn:ogc:def:crs:OGC:1.3:CRS84" } },
"features": [
{ "type": "Feature", "properties": { "ward": "City of Milwaukee Ward 122", "candidate": "write-in:", "votes": 1.0, "color": "#4DAF4A", "popup": "<div><strong>City of Milwaukee Ward 122</strong><div><strong>Representative to the Assembly, District 19</strong><table style='border-collapse:collapse;margin-top:4px;'><tr><th></th><th style='text-align:right;padding-right:8px;'>Votes</th><th style='text-align:right;'>Percent</th></tr><tr><td style='padding-right:8px;'>Ryan Clancy</td><td style='text-align:right;padding-right:8px;'>91</td><td style='text-align:right;'>4.3%</td></tr><tr><td style='padding-right:8px;'>Bridget Maniaci</td><td style='text-align:right;padding-right:8px;'>21</td><td style='text-align:right;'>1.0%</td></tr><tr><td style='padding-right:8px;'>write-in:</td><td style='text-align:right;padding-right:8px;'>1</td><td style='text-align:right;'>0.0%</td></tr></table></div>" }, "geometry": { "type": "Point", "coordinates": [ -87.89522171646594, 43.074203704562699 ] } },
{ "type": "Feature", "properties": { "ward": "City of Milwaukee Ward 123", "candidate": "write-in:", "votes": 1.0, "color": "#4DAF4A", "popup": "<div><strong>City of Milwaukee Ward 123</strong><div><strong>Representative to the Assembly, District 19</strong><table style='border-collapse:collapse;margin-top:4px;'><tr><th></th><th style='text-align:right;padding-right:8px;'>Votes</th><th style='text-align:right;'>Percent</th></tr><tr><td style='padding-right:8px;'>Ryan Clancy</td><td style='text-align:right;padding-right:8px;'>34</td><td style='text-align:right;'>1.6%</td></tr><tr><td style='padding-right:8px;'>Bridget Maniaci</td><td style='text-align:right;padding-right:8px;'>42</td><td style='text-align:right;'>2.0%</td></tr><tr><td style='padding-right:8px;'>write-in:</td><td style='text-align:right;padding-right:8px;'>1</td><td style='text-align:right;'>0.0%</td></tr></table></div>" }, "geometry": { "type": "Point", "coordinates": [ -87.888359621622612, 43.078090391152742 ] } },
{ "type": "Feature", "properties": { "ward": "City of Milwaukee Ward 124", "candidate": "write-in:", "votes": 1.0, "color": "#4DAF4A", "popup": "<div><strong>City of Milwaukee Ward 124</strong><div><strong>Representative to the Assembly, District 19</strong><table style='border-collapse:collapse;margin-top:4px;'><tr><th></th><th style='text-align:right;padding-right:8px;'>Votes</th><th style='text-align:right;'>Percent</th></tr><tr><td style='padding-right:8px;'>Ryan Clancy</td><td style='text-align:right;padding-right:8px;'>36</td><td style='text-align:right;'>1.7%</td></tr><tr><td style='padding-right:8px;'>Bridget Maniaci</td><td style='text-align:right;padding-right:8px;'>41</td><td style='text-align:right;'>2.0%</td></tr><tr><td style='padding-right:8px;'>write-in:</td><td style='text-align:right;padding-right:8px;'>1</td><td style='text-align:right;'>0.0%</td></tr></table></div>" }, "geometry": { "type": "Point", "coordinates": [ -87.889170629278212, 43.071914476353662 ] } },
{ "type": "Feature", "properties": { "ward": "City of Milwaukee Ward 125", "candidate": "Bridget Maniaci", "votes": 1.0, "color": "#377EB8", "popup": "<div><strong>City of Milwaukee Ward 125</strong><div><strong>Representative to the Assembly, District 19</strong><table style='border-collapse:collapse;margin-top:4px;'><tr><th></th><th style='text-align:right;padding-right:8px;'>Votes</th><th style='text-align:right;'>Percent</th></tr><tr><td style='padding-right:8px;'>Ryan Clancy</td><td style='text-align:right;padding-right:8px;'>9</td><td style='text-align:right;'>0.5%</td></tr><tr><td style='padding-right:8px;'>Bridget Maniaci</td><td style='text-align:right;padding-right:8px;'>1</td><td style='text-align:right;'>0.1%</td></tr><tr><td style='padding-right:8px;'>write-in:</td><td style='text-align:right;padding-right:8px;'>7</td><td style='text-align:right;'>0.4%</td></tr></table></div>" }, "geometry": { "type": "Point", "coordinates": [ -87.880452675140916, 43.072788776381209 ] } },
{ "type": "Feature", "properties": { "ward": "City of Milwaukee Ward 341", "candidate": "write-in:", "votes": 1.0, "color": "#4DAF4A", "popup": "<div><strong>City of Milwaukee Ward 341</strong><div><strong>Representative to the Assembly, District 19</strong><table style='border-collapse:collapse;margin-top:4px;'><tr><th></th><th style='text-align:right;padding-right:8px;'>Votes</th><th style='text-align:right;'>Percent</th></tr><tr><td style='padding-right:8px;'>Ryan Clancy</td><td style='text-align:right;padding-right:8px;'>4</td><td style='text-align:right;'>0.2%</td></tr><tr><td style='padding-right:8px;'>Bridget Maniaci</td><td style='text-align:right;padding-right:8px;'>36</td><td style='text-align:right;'>1.6%</td></tr><tr><td style='padding-right:8px;'>write-in:</td><td style='text-align:right;padding-right:8px;'>1</td><td style='text-align:right;'>0.0%</td></tr></table></div>" }, "geometry": { "type": "Point", "coordinates": [ -87.905288703408232, 43.021467792453699 ] } },
{ "type": "Feature", "properties": { "ward": "City of Milwaukee Ward 126", "candidate": "write-in:", "votes": 2.0, "color": "#4DAF4A", "popup": "<div><strong>City of Milwaukee Ward 126</strong><div><strong>Representative to the Assembly, District 19</strong><table style='border-collapse:collapse;margin-top:4px;'><tr><th></th><th style='text-align:right;padding-right:8px;'>Votes</th><th style='text-align:right;'>Percent</th></tr><tr><td style='padding-right:8px;'>Ryan Clancy</td><td style='text-align:right;padding-right:8px;'>46</td><td style='text-align:right;'>2.3%</td></tr><tr><td style='padding-right:8px;'>Bridget Maniaci</td><td style='text-align:right;padding-right:8px;'>12</td><td style='text-align:right;'>0.6%</td></tr><tr><td style='padding-right:8px;'>write-in:</td><td style='text-align:right;padding-right:8px;'>2</td><td style='text-align:right;'>0.1%</td></tr></table></div>" }, "geometry": { "type": "Point", "coordinates": [ -87.880343866354451, 43.080054331376417 ] } },
{ "type": "Feature", "properties": { "ward": "City of Milwaukee Ward 176", "candidate": "Bridget Maniaci", "votes": 2.0, "color": "#377EB8", "popup": "<div><strong>City of Milwaukee Ward 176</strong><div><strong>Representative to the Assembly, District 19</strong><table style='border-collapse:collapse;margin-top:4px;'><tr><th></th><th style='text-align:right;padding-right:8px;'>Votes</th><th style='text-align:right;'>Percent</th></tr><tr><td style='padding-right:8px;'>Ryan Clancy</td><td style='text-align:right;padding-right:8px;'>11</td><td style='text-align:right;'>0.6%</td></tr><tr><td style='padding-right:8px;'>Bridget Maniaci</td><td style='text-align:right;padding-right:8px;'>2</td><td style='text-align:right;'>0.1%</td></tr><tr><td style='padding-right:8px;'>write-in:</td><td style='text-align:right;padding-right:8px;'>27</td><td style='text-align:right;'>1.5%</td></tr></table></div>" }, "geometry": { "type": "Point", "coordinates": [ -87.880980434781691, 43.057741346988003 ] } },
{ "type": "Feature", "properties": { "ward": "City of Milwaukee Ward 180", "candidate": "Ryan Clancy", "votes": 2.0, "color": "#E41A1C", "popup": "<div><strong>City of Milwaukee Ward 180</strong><div><strong>Representative to the Assembly, District 19</strong><table style='border-collapse:collapse;margin-top:4px;'><tr><th></th><th style='text-align:right;padding-right:8px;'>Votes</th><th style='text-align:right;'>Percent</th></tr><tr><td style='padding-right:8px;'>Ryan Clancy</td><td style='text-align:right;padding-right:8px;'>2</td><td style='text-align:right;'>0.1%</td></tr><tr><td style='padding-right:8px;'>Bridget Maniaci</td><td style='text-align:right;padding-right:8px;'>16</td><td style='text-align:right;'>0.8%</td></tr><tr><td style='padding-right:8px;'>write-in:</td><td style='text-align:right;padding-right:8px;'>11</td><td style='text-align:right;'>0.6%</td></tr></table></div>" }, "geometry": { "type": "Point", "coordinates": [ -87.899810137925527, 43.046908679979808 ] } },
{ "type": "Feature", "properties": { "ward": "City of Milwaukee Ward 130", "candidate": "Bridget Maniaci", "votes": 3.0, "color": "#377EB8", "popup": "<div><strong>City of Milwaukee Ward 130</strong><div><strong>Representative to the Assembly, District 19</strong><table style='border-collapse:collapse;margin-top:4px;'><tr><th></th><th style='text-align:right;padding-right:8px;'>Votes</th><th style='text-align:right;'>Percent</th></tr><tr><td style='padding-right:8px;'>Ryan Clancy</td><td style='text-align:right;padding-right:8px;'>6</td><td style='text-align:right;'>0.4%</td></tr><tr><td style='padding-right:8px;'>Bridget Maniaci</td><td style='text-align:right;padding-right:8px;'>3</td><td style='text-align:right;'>0.2%</td></tr><tr><td style='padding-right:8px;'>write-in:</td><td style='text-align:right;padding-right:8px;'>5</td><td style='text-align:right;'>0.3%</td></tr></table></div>" }, "geometry": { "type": "Point", "coordinates": [ -87.88375761963168, 43.066084465063426 ] } },
{ "type": "Feature", "properties": { "ward": "City of Milwaukee Ward 237", "candidate": "write-in:", "votes": 3.0, "color": "#4DAF4A", "popup": "<div><strong>City of Milwaukee Ward 237</strong><div><strong>Representative to the Assembly, District 19</strong><table style='border-collapse:collapse;margin-top:4px;'><tr><th></th><th style='text-align:right;padding-right:8px;'>Votes</th><th style='text-align:right;'>Percent</th></tr><tr><td style='padding-right:8px;'>Ryan Clancy</td><td style='text-align:right;padding-right:8px;'>37</td><td style='text-align:right;'>1.5%</td></tr><tr><td style='padding-right:8px;'>Bridget Maniaci</td><td style='text-align:right;padding-right:8px;'>27</td><td style='text-align:right;'>1.1%</td></tr><tr><td style='padding-right:8px;'>write-in:</td><td style='text-align:right;padding-right:8px;'>3</td><td style='text-align:right;'>0.1%</td></tr></table></div>" }, "geometry": { "type": "Point", "coordinates": [ -87.89419138502214, 43.000228307767777 ] } },
{ "type": "Feature", "properties": { "ward": "City of Milwaukee Ward 131", "candidate": "Ryan Clancy", "votes": 4.0, "color": "#E41A1C", "popup": "<div><strong>City of Milwaukee Ward 131</strong><div><strong>Representative to the Assembly, District 19</strong><table style='border-collapse:collapse;margin-top:4px;'><tr><th></th><th style='text-align:right;padding-right:8px;'>Votes</th><th style='text-align:right;'>Percent</th></tr><tr><td style='padding-right:8px;'>Ryan Clancy</td><td style='text-align:right;padding-right:8px;'>4</td><td style='text-align:right;'>0.2%</td></tr><tr><td style='padding-right:8px;'>Bridget Maniaci</td><td style='text-align:right;padding-right:8px;'>5</td><td style='text-align:right;'>0.2%</td></tr><tr><td style='padding-right:8px;'>write-in:</td><td style='text-align:right;padding-right:8px;'>30</td><td style='text-align:right;'>1.4%</td></tr></table></div>" }, "geometry": { "type": "Point", "coordinates": [ -87.885926123313652, 43.061648169700547 ] } },
{ "type": "Feature", "properties": { "ward": "City of Milwaukee Ward 158", "candidate": "Ryan Clancy", "votes": 4.0, "color": "#E41A1C", "popup": "<div><strong>City of Milwaukee Ward 158</strong><div><strong>Representative to the Assembly, District 19</strong><table style='border-collapse:collapse;margin-top:4px;'><tr><th></th><th style='text-align:right;padding-right:8px;'>Votes</th><th style='text-align:right;'>Percent</th></tr><tr><td style='padding-right:8px;'>Ryan Clancy</td><td style='text-align:right;padding-right:8px;'>4</td><td style='text-align:right;'>0.2%</td></tr><tr><td style='padding-right:8px;'>Bridget Maniaci</td><td style='text-align:right;padding-right:8px;'>49</td><td style='text-align:right;'>2.4%</td></tr><tr><td style='padding-right:8px;'>write-in:</td><td style='text-align:right;padding-right:8px;'>5</td><td style='text-align:right;'>0.2%</td></tr></table></div>" }, "geometry": { "type": "Point", "coordinates": [ -87.910489597525427, 43.044273790874591 ] } },
{ "type": "Feature", "properties": { "ward": "City of Milwaukee Ward 341", "candidate": "Ryan Clancy", "votes": 4.0, "color": "#E41A1C", "popup": "<div><strong>City of Milwaukee Ward 341</strong><div><strong>Representative to the Assembly, District 19</strong><table style='border-collapse:collapse;margin-top:4px;'><tr><th></th><th style='text-align:right;padding-right:8px;'>Votes</th><th style='text-align:right;'>Percent</th></tr><tr><td style='padding-right:8px;'>Ryan Clancy</td><td style='text-align:right;padding-right:8px;'>4</td><td style='text-align:right;'>0.2%</td></tr><tr><td style='padding-right:8px;'>Bridget Maniaci</td><td style='text-align:right;padding-right:8px;'>36</td><td style='text-align:right;'>1.6%</td></tr><tr><td style='padding-right:8px;'>write-in:</td><td style='text-align:right;padding-right:8px;'>1</td><td style='text-align:right;'>0.0%</td></tr></table></div>" }, "geometry": { "type": "Point", "coordinates": [ -87.905288703408232, 43.021467792453699 ] } },
{ "type": "Feature", "properties": { "ward": "City of Milwaukee Ward 128", "candidate": "Bridget Maniaci", "votes": 5.0, "color": "#377EB8", "popup": "<div><strong>City of Milwaukee Ward 128</strong><div><strong>Representative to the Assembly, District 19</strong><table style='border-collapse:collapse;margin-top:4px;'><tr><th></th><th style='text-align:right;padding-right:8px;'>Votes</th><th style='text-align:right;'>Percent</th></tr><tr><td style='padding-right:8px;'>Ryan Clancy</td><td style='text-align:right;padding-right:8px;'>29</td><td style='text-align:right;'>1.2%</td></tr><tr><td style='padding-right:8px;'>Bridget Maniaci</td><td style='text-align:right;padding-right:8px;'>5</td><td style='text-align:right;'>0.2%</td></tr><tr><td style='padding-right:8px;'>write-in:</td><td style='text-align:right;padding-right:8px;'>37</td><td style='text-align:right;'>1.6%</td></tr></table></div>" }, "geometry": { "type": "Point", "coordinates": [ -87.872562971617683, 43.068750916440891 ] } },
{ "type": "Feature", "properties": { "ward": "City of Milwaukee Ward 130", "candidate": "write-in:", "votes": 5.0, "color": "#4DAF4A", "popup": "<div><strong>City of Milwaukee Ward 130</strong><div><strong>Representative to the Assembly, District 19</strong><table style='border-collapse:collapse;margin-top:4px;'><tr><th></th><th style='text-align:right;padding-right:8px;'>Votes</th><th style='text-align:right;'>Percent</th></tr><tr><td style='padding-right:8px;'>Ryan Clancy</td><td style='text-align:right;padding-right:8px;'>6</td><td style='text-align:right;'>0.4%</td></tr><tr><td style='padding-right:8px;'>Bridget Maniaci</td><td style='text-align:right;padding-right:8px;'>3</td><td style='text-align:right;'>0.2%</td></tr><tr><td style='padding-right:8px;'>write-in:</td><td style='text-align:right;padding-right:8px;'>5</td><td style='text-align:right;'>0.3%</td></tr></table></div>" }, "geometry": { "type": "Point", "coordinates": [ -87.88375761963168, 43.066084465063426 ] } },
{ "type": "Feature", "properties": { "ward": "City of Milwaukee Ward 131", "candidate": "Bridget Maniaci", "votes": 5.0, "color": "#377EB8", "popup": "<div><strong>City of Milwaukee Ward 131</strong><div><strong>Representative to the Assembly, District 19</strong><table style='border-collapse:collapse;margin-top:4px;'><tr><th></th><th style='text-align:right;padding-right:8px;'>Votes</th><th style='text-align:right;'>Percent</th></tr><tr><td style='padding-right:8px;'>Ryan Clancy</td><td style='text-align:right;padding-right:8px;'>4</td><td style='text-align:right;'>0.2%</td></tr><tr><td style='padding-right:8px;'>Bridget Maniaci</td><td style='text-align:right;padding-right:8px;'>5</td><td style='text-align:right;'>0.2%</td></tr><tr><td style='padding-right:8px;'>write-in:</td><td style='text-align:right;padding-right:8px;'>30</td><td style='text-align:right;'>1.4%</td></tr></table></div>" }, "geometry": { "type": "Point", "coordinates": [ -87.885926123313652, 43.061648169700547 ] } },
{ "type": "Feature", "properties": { "ward": "City of Milwaukee Ward 158", "candidate": "write-in:", "votes": 5.0, "color": "#4DAF4A", "popup": "<div><strong>City of Milwaukee Ward 158</strong><div><strong>Representative to the Assembly, District 19</strong><table style='border-collapse:collapse;margin-top:4px;'><tr><th></th><th style='text-align:right;padding-right:8px;'>Votes</th><th style='text-align:right;'>Percent</th></tr><tr><td style='padding-right:8px;'>Ryan Clancy</td><td style='text-align:right;padding-right:8px;'>4</td><td style='text-align:right;'>0.2%</td></tr><tr><td style='padding-right:8px;'>Bridget Maniaci</td><td style='text-align:right;padding-right:8px;'>49</td><td style='text-align:right;'>2.4%</td></tr><tr><td style='padding-right:8px;'>write-in:</td><td style='text-align:right;padding-right:8px;'>5</td><td style='text-align:right;'>0.2%</td></tr></table></div>" }, "geometry": { "type": "Point", "coordinates": [ -87.910489597525427, 43.044273790874591 ] } },
{ "type": "Feature", "properties": { "ward": "City of Milwaukee Ward 236", "candidate": "write-in:", "votes": 5.0, "color": "#4DAF4A", "popup": "<div><strong>City of Milwaukee Ward 236</strong><div><strong>Representative to the Assembly, District 19</strong><table style='border-collapse:collapse;margin-top:4px;'><tr><th></th><th style='text-align:right;padding-right:8px;'>Votes</th><th style='text-align:right;'>Percent</th></tr><tr><td style='padding-right:8px;'>Ryan Clancy</td><td style='text-align:right;padding-right:8px;'>93</td><td style='text-align:right;'>3.8%</td></tr><tr><td style='padding-right:8px;'>Bridget Maniaci</td><td style='text-align:right;padding-right:8px;'>6</td><td style='text-align:right;'>0.2%</td></tr><tr><td style='padding-right:8px;'>write-in:</td><td style='text-align:right;padding-right:8px;'>5</td><td style='text-align:right;'>0.2%</td></tr></table></div>" }, "geometry": { "type": "Point", "coordinates": [ -87.899486211503771, 43.008079908184577 ] } },
{ "type": "Feature", "properties": { "ward": "City of Milwaukee Ward 127", "candidate": "Ryan Clancy", "votes": 6.0, "color": "#E41A1C", "popup": "<div><strong>City of Milwaukee Ward 127</strong><div><strong>Representative to the Assembly, District 19</strong><table style='border-collapse:collapse;margin-top:4px;'><tr><th></th><th style='text-align:right;padding-right:8px;'>Votes</th><th style='text-align:right;'>Percent</th></tr><tr><td style='padding-right:8px;'>Ryan Clancy</td><td style='text-align:right;padding-right:8px;'>6</td><td style='text-align:right;'>0.3%</td></tr><tr><td style='padding-right:8px;'>Bridget Maniaci</td><td style='text-align:right;padding-right:8px;'>14</td><td style='text-align:right;'>0.8%</td></tr><tr><td style='padding-right:8px;'>write-in:</td><td style='text-align:right;padding-right:8px;'>12</td><td style='text-align:right;'>0.7%</td></tr></table></div>" }, "geometry": { "type": "Point", "coordinates": [ -87.873465684022364, 43.077645423176378 ] } },
{ "type": "Feature", "properties": { "ward": "City of Milwaukee Ward 130", "candidate": "Ryan Clancy", "votes": 6.0, "color": "#E41A1C", "popup": "<div><strong>City of Milwaukee Ward 130</strong><div><strong>Representative to the Assembly, District 19</strong><table style='border-collapse:collapse;margin-top:4px;'><tr><th></th><th style='text-align:right;padding-right:8px;'>Votes</th><th style='text-align:right;'>Percent</th></tr><tr><td style='padding-right:8px;'>Ryan Clancy</td><td style='text-align:right;padding-right:8px;'>6</td><td style='text-align:right;'>0.4%</td></tr><tr><td style='padding-right:8px;'>Bridget Maniaci</td><td style='text-align:right;padding-right:8px;'>3</td><td style='text-align:right;'>0.2%</td></tr><tr><td style='padding-right:8px;'>write-in:</td><td style='text-align:right;padding-right:8px;'>5</td><td style='text-align:right;'>0.3%</td></tr></table></div>" }, "geometry": { "type": "Point", "coordinates": [ -87.88375761963168, 43.066084465063426 ] } },
{ "type": "Feature", "properties": { "ward": "City of Milwaukee Ward 162", "candidate": "Bridget Maniaci", "votes": 6.0, "color": "#377EB8", "popup": "<div><strong>City of Milwaukee Ward 162</strong><div><strong>Representative to the Assembly, District 19</strong><table style='border-collapse:collapse;margin-top:4px;'><tr><th></th><th style='text-align:right;padding-right:8px;'>Votes</th><th style='text-align:right;'>Percent</th></tr><tr><td style='padding-right:8px;'>Ryan Clancy</td><td style='text-align:right;padding-right:8px;'>50</td><td style='text-align:right;'>2.3%</td></tr><tr><td style='padding-right:8px;'>Bridget Maniaci</td><td style='text-align:right;padding-right:8px;'>6</td><td style='text-align:right;'>0.3%</td></tr><tr><td style='padding-right:8px;'>write-in:</td><td style='text-align:right;padding-right:8px;'>112</td><td style='text-align:right;'>5.3%</td></tr></table></div>" }, "geometry": { "type": "Point", "coordinates": [ -87.90717671852552, 43.049569198077968 ] } },
{ "type": "Feature", "properties": { "ward": "City of Milwaukee Ward 179", "candidate": "Ryan Clancy", "votes": 6.0, "color": "#E41A1C", "popup": "<div><strong>City of Milwaukee Ward 179</strong><div><strong>Representative to the Assembly, District 19</strong><table style='border-collapse:collapse;margin-top:4px;'><tr><th></th><th style='text-align:right;padding-right:8px;'>Votes</th><th style='text-align:right;'>Percent</th></tr><tr><td style='padding-right:8px;'>Ryan Clancy</td><td style='text-align:right;padding-right:8px;'>6</td><td style='text-align:right;'>0.3%</td></tr><tr><td style='padding-right:8px;'>Bridget Maniaci</td><td style='text-align:right;padding-right:8px;'>100</td><td style='text-align:right;'>4.7%</td></tr><tr><td style='padding-right:8px;'>write-in:</td><td style='text-align:right;padding-right:8px;'>21</td><td style='text-align:right;'>1.0%</td></tr></table></div>" }, "geometry": { "type": "Point", "coordinates": [ -87.904750049116984, 43.051994454002063 ] } },
{ "type": "Feature", "properties": { "ward": "City of Milwaukee Ward 236", "candidate": "Bridget Maniaci", "votes": 6.0, "color": "#377EB8", "popup": "<div><strong>City of Milwaukee Ward 236</strong><div><strong>Representative to the Assembly, District 19</strong><table style='border-collapse:collapse;margin-top:4px;'><tr><th></th><th style='text-align:right;padding-right:8px;'>Votes</th><th style='text-align:right;'>Percent</th></tr><tr><td style='padding-right:8px;'>Ryan Clancy</td><td style='text-align:right;padding-right:8px;'>93</td><td style='text-align:right;'>3.8%</td></tr><tr><td style='padding-right:8px;'>Bridget Maniaci</td><td style='text-align:right;padding-right:8px;'>6</td><td style='text-align:right;'>0.2%</td></tr><tr><td style='padding-right:8px;'>write-in:</td><td style='text-align:right;padding-right:8px;'>5</td><td style='text-align:right;'>0.2%</td></tr></table></div>" }, "geometry": { "type": "Point", "coordinates": [ -87.899486211503771, 43.008079908184577 ] } },
{ "type": "Feature", "properties": { "ward": "City of Milwaukee Ward 239", "candidate": "Ryan Clancy", "votes": 6.0, "color": "#E41A1C", "popup": "<div><strong>City of Milwaukee Ward 239</strong><div><strong>Representative to the Assembly, District 19</strong><table style='border-collapse:collapse;margin-top:4px;'><tr><th></th><th style='text-align:right;padding-right:8px;'>Votes</th><th style='text-align:right;'>Percent</th></tr><tr><td style='padding-right:8px;'>Ryan Clancy</td><td style='text-align:right;padding-right:8px;'>6</td><td style='text-align:right;'>0.3%</td></tr><tr><td style='padding-right:8px;'>Bridget Maniaci</td><td style='text-align:right;padding-right:8px;'>8</td><td style='text-align:right;'>0.3%</td></tr><tr><td style='padding-right:8px;'>write-in:</td><td style='text-align:right;padding-right:8px;'>17</td><td style='text-align:right;'>0.7%</td></tr></table></div>" }, "geometry": { "type": "Point", "coordinates": [ -87.882540672140081, 42.991224070180579 ] } },
{ "type": "Feature", "properties": { "ward": "City of Milwaukee Ward 125", "candidate": "write-in:", "votes": 7.0, "color": "#4DAF4A", "popup": "<div><strong>City of Milwaukee Ward 125</strong><div><strong>Representative to the Assembly, District 19</strong><table style='border-collapse:collapse;margin-top:4px;'><tr><th></th><th style='text-align:right;padding-right:8px;'>Votes</th><th style='text-align:right;'>Percent</th></tr><tr><td style='padding-right:8px;'>Ryan Clancy</td><td style='text-align:right;padding-right:8px;'>9</td><td style='text-align:right;'>0.5%</td></tr><tr><td style='padding-right:8px;'>Bridget Maniaci</td><td style='text-align:right;padding-right:8px;'>1</td><td style='text-align:right;'>0.1%</td></tr><tr><td style='padding-right:8px;'>write-in:</td><td style='text-align:right;padding-right:8px;'>7</td><td style='text-align:right;'>0.4%</td></tr></table></div>" }, "geometry": { "type": "Point", "coordinates": [ -87.880452675140916, 43.072788776381209 ] } },
{ "type": "Feature", "properties": { "ward": "City of Milwaukee Ward 175", "candidate": "Bridget Maniaci", "votes": 7.0, "color": "#377EB8", "popup": "<div><strong>City of Milwaukee Ward 175</strong><div><strong>Representative to the Assembly, District 19</strong><table style='border-collapse:collapse;margin-top:4px;'><tr><th></th><th style='text-align:right;padding-right:8px;'>Votes</th><th style='text-align:right;'>Percent</th></tr><tr><td style='padding-right:8px;'>Ryan Clancy</td><td style='text-align:right;padding-right:8px;'>66</td><td style='text-align:right;'>3.4%</td></tr><tr><td style='padding-right:8px;'>Bridget Maniaci</td><td style='text-align:right;padding-right:8px;'>7</td><td style='text-align:right;'>0.4%</td></tr><tr><td style='padding-right:8px;'>write-in:</td><td style='text-align:right;padding-right:8px;'>11</td><td style='text-align:right;'>0.6%</td></tr></table></div>" }, "geometry": { "type": "Point", "coordinates": [ -87.890011633417785, 43.056619900824593 ] } },
{ "type": "Feature", "properties": { "ward": "City of Milwaukee Ward 238", "candidate": "Bridget Maniaci", "votes": 7.0, "color": "#377EB8", "popup": "<div><strong>City of Milwaukee Ward 238</strong><div><strong>Representative to the Assembly, District 19</strong><table style='border-collapse:collapse;margin-top:4px;'><tr><th></th><th style='text-align:right;padding-right:8px;'>Votes</th><th style='text-align:right;'>Percent</th></tr><tr><td style='padding-right:8px;'>Ryan Clancy</td><td style='text-align:right;padding-right:8px;'>11</td><td style='text-align:right;'>0.6%</td></tr><tr><td style='padding-right:8px;'>Bridget Maniaci</td><td style='text-align:right;padding-right:8px;'>7</td><td style='text-align:right;'>0.4%</td></tr><tr><td style='padding-right:8px;'>write-in:</td><td style='text-align:right;padding-right:8px;'>9</td><td style='text-align:right;'>0.5%</td></tr></table></div>" }, "geometry": { "type": "Point", "coordinates": [ -87.888142850520154, 42.996335994125737 ] } },
{ "type": "Feature", "properties": { "ward": "City of Milwaukee Ward 239", "candidate": "Bridget Maniaci", "votes": 8.0, "color": "#377EB8", "popup": "<div><strong>City of Milwaukee Ward 239</strong><div><strong>Representative to the Assembly, District 19</strong><table style='border-collapse:collapse;margin-top:4px;'><tr><th></th><th style='text-align:right;padding-right:8px;'>Votes</th><th style='text-align:right;'>Percent</th></tr><tr><td style='padding-right:8px;'>Ryan Clancy</td><td style='text-align:right;padding-right:8px;'>6</td><td style='text-align:right;'>0.3%</td></tr><tr><td style='padding-right:8px;'>Bridget Maniaci</td><td style='text-align:right;padding-right:8px;'>8</td><td style='text-align:right;'>0.3%</td></tr><tr><td style='padding-right:8px;'>write-in:</td><td style='text-align:right;padding-right:8px;'>17</td><td style='text-align:right;'>0.7%</td></tr></table></div>" }, "geometry": { "type": "Point", "coordinates": [ -87.882540672140081, 42.991224070180579 ] } },
{ "type": "Feature", "properties": { "ward": "City of Milwaukee Ward 125", "candidate": "Ryan Clancy", "votes": 9.0, "color": "#E41A1C", "popup": "<div><strong>City of Milwaukee Ward 125</strong><div><strong>Representative to the Assembly, District 19</strong><table style='border-collapse:collapse;margin-top:4px;'><tr><th></th><th style='text-align:right;padding-right:8px;'>Votes</th><th style='text-align:right;'>Percent</th></tr><tr><td style='padding-right:8px;'>Ryan Clancy</td><td style='text-align:right;padding-right:8px;'>9</td><td style='text-align:right;'>0.5%</td></tr><tr><td style='padding-right:8px;'>Bridget Maniaci</td><td style='text-align:right;padding-right:8px;'>1</td><td style='text-align:right;'>0.1%</td></tr><tr><td style='padding-right:8px;'>write-in:</td><td style='text-align:right;padding-right:8px;'>7</td><td style='text-align:right;'>0.4%</td></tr></table></div>" }, "geometry": { "type": "Point", "coordinates": [ -87.880452675140916, 43.072788776381209 ] } },
{ "type": "Feature", "properties": { "ward": "City of Milwaukee Ward 174", "candidate": "Ryan Clancy", "votes": 9.0, "color": "#E41A1C", "popup": "<div><strong>City of Milwaukee Ward 174</strong><div><strong>Representative to the Assembly, District 19</strong><table style='border-collapse:collapse;margin-top:4px;'><tr><th></th><th style='text-align:right;padding-right:8px;'>Votes</th><th style='text-align:right;'>Percent</th></tr><tr><td style='padding-right:8px;'>Ryan Clancy</td><td style='text-align:right;padding-right:8px;'>9</td><td style='text-align:right;'>0.4%</td></tr><tr><td style='padding-right:8px;'>Bridget Maniaci</td><td style='text-align:right;padding-right:8px;'>53</td><td style='text-align:right;'>2.4%</td></tr><tr><td style='padding-right:8px;'>write-in:</td><td style='text-align:right;padding-right:8px;'>54</td><td style='text-align:right;'>2.4%</td></tr></table></div>" }, "geometry": { "type": "Point", "coordinates": [ -87.899716604466917, 43.054794012001985 ] } },
{ "type": "Feature", "properties": { "ward": "City of Milwaukee Ward 238", "candidate": "write-in:", "votes": 9.0, "color": "#4DAF4A", "popup": "<div><strong>City of Milwaukee Ward 238</strong><div><strong>Representative to the Assembly, District 19</strong><table style='border-collapse:collapse;margin-top:4px;'><tr><th></th><th style='text-align:right;padding-right:8px;'>Votes</th><th style='text-align:right;'>Percent</th></tr><tr><td style='padding-right:8px;'>Ryan Clancy</td><td style='text-align:right;padding-right:8px;'>11</td><td style='text-align:right;'>0.6%</td></tr><tr><td style='padding-right:8px;'>Bridget Maniaci</td><td style='text-align:right;padding-right:8px;'>7</td><td style='text-align:right;'>0.4%</td></tr><tr><td style='padding-right:8px;'>write-in:</td><td style='text-align:right;padding-right:8px;'>9</td><td style='text-align:right;'>0.5%</td></tr></table></div>" }, "geometry": { "type": "Point", "coordinates": [ -87.888142850520154, 42.996335994125737 ] } },
{ "type": "Feature", "properties": { "ward": "City of Milwaukee Ward 178", "candidate": "Bridget Maniaci", "votes": 10.0, "color": "#377EB8", "popup": "<div><strong>City of Milwaukee Ward 178</strong><div><strong>Representative to the Assembly, District 19</strong><table style='border-collapse:collapse;margin-top:4px;'><tr><th></th><th style='text-align:right;padding-right:8px;'>Votes</th><th style='text-align:right;'>Percent</th></tr><tr><td style='padding-right:8px;'>Ryan Clancy</td><td style='text-align:right;padding-right:8px;'>49</td><td style='text-align:right;'>2.2%</td></tr><tr><td style='padding-right:8px;'>Bridget Maniaci</td><td style='text-align:right;padding-right:8px;'>10</td><td style='text-align:right;'>0.5%</td></tr><tr><td style='padding-right:8px;'>write-in:</td><td style='text-align:right;padding-right:8px;'>22</td><td style='text-align:right;'>1.0%</td></tr></table></div>" }, "geometry": { "type": "Point", "coordinates": [ -87.894739031103384, 43.051374648239538 ] } },
{ "type": "Feature", "properties": { "ward": "City of Milwaukee Ward 181", "candidate": "Ryan Clancy", "votes": 10.0, "color": "#E41A1C", "popup": "<div><strong>City of Milwaukee Ward 181</strong><div><strong>Representative to the Assembly, District 19</strong><table style='border-collapse:collapse;margin-top:4px;'><tr><th></th><th style='text-align:right;padding-right:8px;'>Votes</th><th style='text-align:right;'>Percent</th></tr><tr><td style='padding-right:8px;'>Ryan Clancy</td><td style='text-align:right;padding-right:8px;'>10</td><td style='text-align:right;'>0.5%</td></tr><tr><td style='padding-right:8px;'>Bridget Maniaci</td><td style='text-align:right;padding-right:8px;'>14</td><td style='text-align:right;'>0.7%</td></tr><tr><td style='padding-right:8px;'>write-in:</td><td style='text-align:right;padding-right:8px;'>20</td><td style='text-align:right;'>1.0%</td></tr></table></div>" }, "geometry": { "type": "Point", "coordinates": [ -87.901406734306519, 43.044303508875046 ] } },
{ "type": "Feature", "properties": { "ward": "City of Milwaukee Ward 175", "candidate": "write-in:", "votes": 11.0, "color": "#4DAF4A", "popup": "<div><strong>City of Milwaukee Ward 175</strong><div><strong>Representative to the Assembly, District 19</strong><table style='border-collapse:collapse;margin-top:4px;'><tr><th></th><th style='text-align:right;padding-right:8px;'>Votes</th><th style='text-align:right;'>Percent</th></tr><tr><td style='padding-right:8px;'>Ryan Clancy</td><td style='text-align:right;padding-right:8px;'>66</td><td style='text-align:right;'>3.4%</td></tr><tr><td style='padding-right:8px;'>Bridget Maniaci</td><td style='text-align:right;padding-right:8px;'>7</td><td style='text-align:right;'>0.4%</td></tr><tr><td style='padding-right:8px;'>write-in:</td><td style='text-align:right;padding-right:8px;'>11</td><td style='text-align:right;'>0.6%</td></tr></table></div>" }, "geometry": { "type": "Point", "coordinates": [ -87.890011633417785, 43.056619900824593 ] } },
{ "type": "Feature", "properties": { "ward": "City of Milwaukee Ward 176", "candidate": "Ryan Clancy", "votes": 11.0, "color": "#E41A1C", "popup": "<div><strong>City of Milwaukee Ward 176</strong><div><strong>Representative to the Assembly, District 19</strong><table style='border-collapse:collapse;margin-top:4px;'><tr><th></th><th style='text-align:right;padding-right:8px;'>Votes</th><th style='text-align:right;'>Percent</th></tr><tr><td style='padding-right:8px;'>Ryan Clancy</td><td style='text-align:right;padding-right:8px;'>11</td><td style='text-align:right;'>0.6%</td></tr><tr><td style='padding-right:8px;'>Bridget Maniaci</td><td style='text-align:right;padding-right:8px;'>2</td><td style='text-align:right;'>0.1%</td></tr><tr><td style='padding-right:8px;'>write-in:</td><td style='text-align:right;padding-right:8px;'>27</td><td style='text-align:right;'>1.5%</td></tr></table></div>" }, "geometry": { "type": "Point", "coordinates": [ -87.880980434781691, 43.057741346988003 ] } },
{ "type": "Feature", "properties": { "ward": "City of Milwaukee Ward 180", "candidate": "write-in:", "votes": 11.0, "color": "#4DAF4A", "popup": "<div><strong>City of Milwaukee Ward 180</strong><div><strong>Representative to the Assembly, District 19</strong><table style='border-collapse:collapse;margin-top:4px;'><tr><th></th><th style='text-align:right;padding-right:8px;'>Votes</th><th style='text-align:right;'>Percent</th></tr><tr><td style='padding-right:8px;'>Ryan Clancy</td><td style='text-align:right;padding-right:8px;'>2</td><td style='text-align:right;'>0.1%</td></tr><tr><td style='padding-right:8px;'>Bridget Maniaci</td><td style='text-align:right;padding-right:8px;'>16</td><td style='text-align:right;'>0.8%</td></tr><tr><td style='padding-right:8px;'>write-in:</td><td style='text-align:right;padding-right:8px;'>11</td><td style='text-align:right;'>0.6%</td></tr></table></div>" }, "geometry": { "type": "Point", "coordinates": [ -87.899810137925527, 43.046908679979808 ] } },
{ "type": "Feature", "properties": { "ward": "City of Milwaukee Ward 238", "candidate": "Ryan Clancy", "votes": 11.0, "color": "#E41A1C", "popup": "<div><strong>City of Milwaukee Ward 238</strong><div><strong>Representative to the Assembly, District 19</strong><table style='border-collapse:collapse;margin-top:4px;'><tr><th></th><th style='text-align:right;padding-right:8px;'>Votes</th><th style='text-align:right;'>Percent</th></tr><tr><td style='padding-right:8px;'>Ryan Clancy</td><td style='text-align:right;padding-right:8px;'>11</td><td style='text-align:right;'>0.6%</td></tr><tr><td style='padding-right:8px;'>Bridget Maniaci</td><td style='text-align:right;padding-right:8px;'>7</td><td style='text-align:right;'>0.4%</td></tr><tr><td style='padding-right:8px;'>write-in:</td><td style='text-align:right;padding-right:8px;'>9</td><td style='text-align:right;'>0.5%</td></tr></table></div>" }, "geometry": { "type": "Point", "coordinates": [ -87.888142850520154, 42.996335994125737 ] } },
{ "type": "Feature", "properties": { "ward": "City of Milwaukee Ward 126", "candidate": "Bridget Maniaci", "votes": 12.0, "color": "#377EB8", "popup": "<div><strong>City of Milwaukee Ward 126</strong><div><strong>Representative to the Assembly, District 19</strong><table style='border-collapse:collapse;margin-top:4px;'><tr><th></th><th style='text-align:right;padding-right:8px;'>Votes</th><th style='text-align:right;'>Percent</th></tr><tr><td style='padding-right:8px;'>Ryan Clancy</td><td style='text-align:right;padding-right:8px;'>46</td><td style='text-align:right;'>2.3%</td></tr><tr><td style='padding-right:8px;'>Bridget Maniaci</td><td style='text-align:right;padding-right:8px;'>12</td><td style='text-align:right;'>0.6%</td></tr><tr><td style='padding-right:8px;'>write-in:</td><td style='text-align:right;padding-right:8px;'>2</td><td style='text-align:right;'>0.1%</td></tr></table></div>" }, "geometry": { "type": "Point", "coordinates": [ -87.880343866354451, 43.080054331376417 ] } },
{ "type": "Feature", "properties": { "ward": "City of Milwaukee Ward 127", "candidate": "write-in:", "votes": 12.0, "color": "#4DAF4A", "popup": "<div><strong>City of Milwaukee Ward 127</strong><div><strong>Representative to the Assembly, District 19</strong><table style='border-collapse:collapse;margin-top:4px;'><tr><th></th><th style='text-align:right;padding-right:8px;'>Votes</th><th style='text-align:right;'>Percent</th></tr><tr><td style='padding-right:8px;'>Ryan Clancy</td><td style='text-align:right;padding-right:8px;'>6</td><td style='text-align:right;'>0.3%</td></tr><tr><td style='padding-right:8px;'>Bridget Maniaci</td><td style='text-align:right;padding-right:8px;'>14</td><td style='text-align:right;'>0.8%</td></tr><tr><td style='padding-right:8px;'>write-in:</td><td style='text-align:right;padding-right:8px;'>12</td><td style='text-align:right;'>0.7%</td></tr></table></div>" }, "geometry": { "type": "Point", "coordinates": [ -87.873465684022364, 43.077645423176378 ] } },
{ "type": "Feature", "properties": { "ward": "City of Milwaukee Ward 340", "candidate": "Ryan Clancy", "votes": 13.0, "color": "#E41A1C", "popup": "<div><strong>City of Milwaukee Ward 340</strong><div><strong>Representative to the Assembly, District 19</strong><table style='border-collapse:collapse;margin-top:4px;'><tr><th></th><th style='text-align:right;padding-right:8px;'>Votes</th><th style='text-align:right;'>Percent</th></tr><tr><td style='padding-right:8px;'>Ryan Clancy</td><td style='text-align:right;padding-right:8px;'>13</td><td style='text-align:right;'>0.6%</td></tr><tr><td style='padding-right:8px;'>Bridget Maniaci</td><td style='text-align:right;padding-right:8px;'>37</td><td style='text-align:right;'>1.7%</td></tr><tr><td style='padding-right:8px;'>write-in:</td><td style='text-align:right;padding-right:8px;'>27</td><td style='text-align:right;'>1.2%</td></tr></table></div>" }, "geometry": { "type": "Point", "coordinates": [ -87.903472743472506, 43.025701515863133 ] } },
{ "type": "Feature", "properties": { "ward": "City of Milwaukee Ward 127", "candidate": "Bridget Maniaci", "votes": 14.0, "color": "#377EB8", "popup": "<div><strong>City of Milwaukee Ward 127</strong><div><strong>Representative to the Assembly, District 19</strong><table style='border-collapse:collapse;margin-top:4px;'><tr><th></th><th style='text-align:right;padding-right:8px;'>Votes</th><th style='text-align:right;'>Percent</th></tr><tr><td style='padding-right:8px;'>Ryan Clancy</td><td style='text-align:right;padding-right:8px;'>6</td><td style='text-align:right;'>0.3%</td></tr><tr><td style='padding-right:8px;'>Bridget Maniaci</td><td style='text-align:right;padding-right:8px;'>14</td><td style='text-align:right;'>0.8%</td></tr><tr><td style='padding-right:8px;'>write-in:</td><td style='text-align:right;padding-right:8px;'>12</td><td style='text-align:right;'>0.7%</td></tr></table></div>" }, "geometry": { "type": "Point", "coordinates": [ -87.873465684022364, 43.077645423176378 ] } },
{ "type": "Feature", "properties": { "ward": "City of Milwaukee Ward 129", "candidate": "write-in:", "votes": 14.0, "color": "#4DAF4A", "popup": "<div><strong>City of Milwaukee Ward 129</strong><div><strong>Representative to the Assembly, District 19</strong><table style='border-collapse:collapse;margin-top:4px;'><tr><th></th><th style='text-align:right;padding-right:8px;'>Votes</th><th style='text-align:right;'>Percent</th></tr><tr><td style='padding-right:8px;'>Ryan Clancy</td><td style='text-align:right;padding-right:8px;'>19</td><td style='text-align:right;'>1.0%</td></tr><tr><td style='padding-right:8px;'>Bridget Maniaci</td><td style='text-align:right;padding-right:8px;'>90</td><td style='text-align:right;'>4.7%</td></tr><tr><td style='padding-right:8px;'>write-in:</td><td style='text-align:right;padding-right:8px;'>14</td><td style='text-align:right;'>0.7%</td></tr></table></div>" }, "geometry": { "type": "Point", "coordinates": [ -87.88004861983444, 43.066070441166069 ] } },
{ "type": "Feature", "properties": { "ward": "City of Milwaukee Ward 181", "candidate": "Bridget Maniaci", "votes": 14.0, "color": "#377EB8", "popup": "<div><strong>City of Milwaukee Ward 181</strong><div><strong>Representative to the Assembly, District 19</strong><table style='border-collapse:collapse;margin-top:4px;'><tr><th></th><th style='text-align:right;padding-right:8px;'>Votes</th><th style='text-align:right;'>Percent</th></tr><tr><td style='padding-right:8px;'>Ryan Clancy</td><td style='text-align:right;padding-right:8px;'>10</td><td style='text-align:right;'>0.5%</td></tr><tr><td style='padding-right:8px;'>Bridget Maniaci</td><td style='text-align:right;padding-right:8px;'>14</td><td style='text-align:right;'>0.7%</td></tr><tr><td style='padding-right:8px;'>write-in:</td><td style='text-align:right;padding-right:8px;'>20</td><td style='text-align:right;'>1.0%</td></tr></table></div>" }, "geometry": { "type": "Point", "coordinates": [ -87.901406734306519, 43.044303508875046 ] } },
{ "type": "Feature", "properties": { "ward": "City of Milwaukee Ward 180", "candidate": "Bridget Maniaci", "votes": 16.0, "color": "#377EB8", "popup": "<div><strong>City of Milwaukee Ward 180</strong><div><strong>Representative to the Assembly, District 19</strong><table style='border-collapse:collapse;margin-top:4px;'><tr><th></th><th style='text-align:right;padding-right:8px;'>Votes</th><th style='text-align:right;'>Percent</th></tr><tr><td style='padding-right:8px;'>Ryan Clancy</td><td style='text-align:right;padding-right:8px;'>2</td><td style='text-align:right;'>0.1%</td></tr><tr><td style='padding-right:8px;'>Bridget Maniaci</td><td style='text-align:right;padding-right:8px;'>16</td><td style='text-align:right;'>0.8%</td></tr><tr><td style='padding-right:8px;'>write-in:</td><td style='text-align:right;padding-right:8px;'>11</td><td style='text-align:right;'>0.6%</td></tr></table></div>" }, "geometry": { "type": "Point", "coordinates": [ -87.899810137925527, 43.046908679979808 ] } },
{ "type": "Feature", "properties": { "ward": "City of Milwaukee Ward 182", "candidate": "Ryan Clancy", "votes": 17.0, "color": "#E41A1C", "popup": "<div><strong>City of Milwaukee Ward 182</strong><div><strong>Representative to the Assembly, District 19</strong><table style='border-collapse:collapse;margin-top:4px;'><tr><th></th><th style='text-align:right;padding-right:8px;'>Votes</th><th style='text-align:right;'>Percent</th></tr><tr><td style='padding-right:8px;'>Ryan Clancy</td><td style='text-align:right;padding-right:8px;'>17</td><td style='text-align:right;'>0.8%</td></tr><tr><td style='padding-right:8px;'>Bridget Maniaci</td><td style='text-align:right;padding-right:8px;'>17</td><td style='text-align:right;'>0.8%</td></tr><tr><td style='padding-right:8px;'>write-in:</td><td style='text-align:right;padding-right:8px;'>17</td><td style='text-align:right;'>0.8%</td></tr></table></div>" }, "geometry": { "type": "Point", "coordinates": [ -87.90683805170201, 43.03366087260175 ] } },
{ "type": "Feature", "properties": { "ward": "City of Milwaukee Ward 182", "candidate": "Bridget Maniaci", "votes": 17.0, "color": "#377EB8", "popup": "<div><strong>City of Milwaukee Ward 182</strong><div><strong>Representative to the Assembly, District 19</strong><table style='border-collapse:collapse;margin-top:4px;'><tr><th></th><th style='text-align:right;padding-right:8px;'>Votes</th><th style='text-align:right;'>Percent</th></tr><tr><td style='padding-right:8px;'>Ryan Clancy</td><td style='text-align:right;padding-right:8px;'>17</td><td style='text-align:right;'>0.8%</td></tr><tr><td style='padding-right:8px;'>Bridget Maniaci</td><td style='text-align:right;padding-right:8px;'>17</td><td style='text-align:right;'>0.8%</td></tr><tr><td style='padding-right:8px;'>write-in:</td><td style='text-align:right;padding-right:8px;'>17</td><td style='text-align:right;'>0.8%</td></tr></table></div>" }, "geometry": { "type": "Point", "coordinates": [ -87.90683805170201, 43.03366087260175 ] } },
{ "type": "Feature", "properties": { "ward": "City of Milwaukee Ward 182", "candidate": "write-in:", "votes": 17.0, "color": "#4DAF4A", "popup": "<div><strong>City of Milwaukee Ward 182</strong><div><strong>Representative to the Assembly, District 19</strong><table style='border-collapse:collapse;margin-top:4px;'><tr><th></th><th style='text-align:right;padding-right:8px;'>Votes</th><th style='text-align:right;'>Percent</th></tr><tr><td style='padding-right:8px;'>Ryan Clancy</td><td style='text-align:right;padding-right:8px;'>17</td><td style='text-align:right;'>0.8%</td></tr><tr><td style='padding-right:8px;'>Bridget Maniaci</td><td style='text-align:right;padding-right:8px;'>17</td><td style='text-align:right;'>0.8%</td></tr><tr><td style='padding-right:8px;'>write-in:</td><td style='text-align:right;padding-right:8px;'>17</td><td style='text-align:right;'>0.8%</td></tr></table></div>" }, "geometry": { "type": "Point", "coordinates": [ -87.90683805170201, 43.03366087260175 ] } },
{ "type": "Feature", "properties": { "ward": "City of Milwaukee Ward 239", "candidate": "write-in:", "votes": 17.0, "color": "#4DAF4A", "popup": "<div><strong>City of Milwaukee Ward 239</strong><div><strong>Representative to the Assembly, District 19</strong><table style='border-collapse:collapse;margin-top:4px;'><tr><th></th><th style='text-align:right;padding-right:8px;'>Votes</th><th style='text-align:right;'>Percent</th></tr><tr><td style='padding-right:8px;'>Ryan Clancy</td><td style='text-align:right;padding-right:8px;'>6</td><td style='text-align:right;'>0.3%</td></tr><tr><td style='padding-right:8px;'>Bridget Maniaci</td><td style='text-align:right;padding-right:8px;'>8</td><td style='text-align:right;'>0.3%</td></tr><tr><td style='padding-right:8px;'>write-in:</td><td style='text-align:right;padding-right:8px;'>17</td><td style='text-align:right;'>0.7%</td></tr></table></div>" }, "geometry": { "type": "Point", "coordinates": [ -87.882540672140081, 42.991224070180579 ] } },
{ "type": "Feature", "properties": { "ward": "City of Milwaukee Ward 177", "candidate": "Bridget Maniaci", "votes": 18.0, "color": "#377EB8", "popup": "<div><strong>City of Milwaukee Ward 177</strong><div><strong>Representative to the Assembly, District 19</strong><table style='border-collapse:collapse;margin-top:4px;'><tr><th></th><th style='text-align:right;padding-right:8px;'>Votes</th><th style='text-align:right;'>Percent</th></tr><tr><td style='padding-right:8px;'>Ryan Clancy</td><td style='text-align:right;padding-right:8px;'>97</td><td style='text-align:right;'>5.5%</td></tr><tr><td style='padding-right:8px;'>Bridget Maniaci</td><td style='text-align:right;padding-right:8px;'>18</td><td style='text-align:right;'>1.0%</td></tr><tr><td style='padding-right:8px;'>write-in:</td><td style='text-align:right;padding-right:8px;'>67</td><td style='text-align:right;'>3.8%</td></tr></table></div>" }, "geometry": { "type": "Point", "coordinates": [ -87.893470609177754, 43.045208808165945 ] } },
{ "type": "Feature", "properties": { "ward": "City of Milwaukee Ward 129", "candidate": "Ryan Clancy", "votes": 19.0, "color": "#E41A1C", "popup": "<div><strong>City of Milwaukee Ward 129</strong><div><strong>Representative to the Assembly, District 19</strong><table style='border-collapse:collapse;margin-top:4px;'><tr><th></th><th style='text-align:right;padding-right:8px;'>Votes</th><th style='text-align:right;'>Percent</th></tr><tr><td style='padding-right:8px;'>Ryan Clancy</td><td style='text-align:right;padding-right:8px;'>19</td><td style='text-align:right;'>1.0%</td></tr><tr><td style='padding-right:8px;'>Bridget Maniaci</td><td style='text-align:right;padding-right:8px;'>90</td><td style='text-align:right;'>4.7%</td></tr><tr><td style='padding-right:8px;'>write-in:</td><td style='text-align:right;padding-right:8px;'>14</td><td style='text-align:right;'>0.7%</td></tr></table></div>" }, "geometry": { "type": "Point", "coordinates": [ -87.88004861983444, 43.066070441166069 ] } },
{ "type": "Feature", "properties": { "ward": "City of Milwaukee Ward 181", "candidate": "write-in:", "votes": 20.0, "color": "#4DAF4A", "popup": "<div><strong>City of Milwaukee Ward 181</strong><div><strong>Representative to the Assembly, District 19</strong><table style='border-collapse:collapse;margin-top:4px;'><tr><th></th><th style='text-align:right;padding-right:8px;'>Votes</th><th style='text-align:right;'>Percent</th></tr><tr><td style='padding-right:8px;'>Ryan Clancy</td><td style='text-align:right;padding-right:8px;'>10</td><td style='text-align:right;'>0.5%</td></tr><tr><td style='padding-right:8px;'>Bridget Maniaci</td><td style='text-align:right;padding-right:8px;'>14</td><td style='text-align:right;'>0.7%</td></tr><tr><td style='padding-right:8px;'>write-in:</td><td style='text-align:right;padding-right:8px;'>20</td><td style='text-align:right;'>1.0%</td></tr></table></div>" }, "geometry": { "type": "Point", "coordinates": [ -87.901406734306519, 43.044303508875046 ] } },
{ "type": "Feature", "properties": { "ward": "City of Milwaukee Ward 122", "candidate": "Bridget Maniaci", "votes": 21.0, "color": "#377EB8", "popup": "<div><strong>City of Milwaukee Ward 122</strong><div><strong>Representative to the Assembly, District 19</strong><table style='border-collapse:collapse;margin-top:4px;'><tr><th></th><th style='text-align:right;padding-right:8px;'>Votes</th><th style='text-align:right;'>Percent</th></tr><tr><td style='padding-right:8px;'>Ryan Clancy</td><td style='text-align:right;padding-right:8px;'>91</td><td style='text-align:right;'>4.3%</td></tr><tr><td style='padding-right:8px;'>Bridget Maniaci</td><td style='text-align:right;padding-right:8px;'>21</td><td style='text-align:right;'>1.0%</td></tr><tr><td style='padding-right:8px;'>write-in:</td><td style='text-align:right;padding-right:8px;'>1</td><td style='text-align:right;'>0.0%</td></tr></table></div>" }, "geometry": { "type": "Point", "coordinates": [ -87.89522171646594, 43.074203704562699 ] } },
{ "type": "Feature", "properties": { "ward": "City of Milwaukee Ward 133", "candidate": "Bridget Maniaci", "votes": 21.0, "color": "#377EB8", "popup": "<div><strong>City of Milwaukee Ward 133</strong><div><strong>Representative to the Assembly, District 19</strong><table style='border-collapse:collapse;margin-top:4px;'><tr><th></th><th style='text-align:right;padding-right:8px;'>Votes</th><th style='text-align:right;'>Percent</th></tr><tr><td style='padding-right:8px;'>Ryan Clancy</td><td style='text-align:right;padding-right:8px;'>30</td><td style='text-align:right;'>1.5%</td></tr><tr><td style='padding-right:8px;'>Bridget Maniaci</td><td style='text-align:right;padding-right:8px;'>21</td><td style='text-align:right;'>1.0%</td></tr><tr><td style='padding-right:8px;'>write-in:</td><td style='text-align:right;padding-right:8px;'>74</td><td style='text-align:right;'>3.6%</td></tr></table></div>" }, "geometry": { "type": "Point", "coordinates": [ -87.895414924638644, 43.063162778974537 ] } },
{ "type": "Feature", "properties": { "ward": "City of Milwaukee Ward 179", "candidate": "write-in:", "votes": 21.0, "color": "#4DAF4A", "popup": "<div><strong>City of Milwaukee Ward 179</strong><div><strong>Representative to the Assembly, District 19</strong><table style='border-collapse:collapse;margin-top:4px;'><tr><th></th><th style='text-align:right;padding-right:8px;'>Votes</th><th style='text-align:right;'>Percent</th></tr><tr><td style='padding-right:8px;'>Ryan Clancy</td><td style='text-align:right;padding-right:8px;'>6</td><td style='text-align:right;'>0.3%</td></tr><tr><td style='padding-right:8px;'>Bridget Maniaci</td><td style='text-align:right;padding-right:8px;'>100</td><td style='text-align:right;'>4.7%</td></tr><tr><td style='padding-right:8px;'>write-in:</td><td style='text-align:right;padding-right:8px;'>21</td><td style='text-align:right;'>1.0%</td></tr></table></div>" }, "geometry": { "type": "Point", "coordinates": [ -87.904750049116984, 43.051994454002063 ] } },
{ "type": "Feature", "properties": { "ward": "City of Milwaukee Ward 178", "candidate": "write-in:", "votes": 22.0, "color": "#4DAF4A", "popup": "<div><strong>City of Milwaukee Ward 178</strong><div><strong>Representative to the Assembly, District 19</strong><table style='border-collapse:collapse;margin-top:4px;'><tr><th></th><th style='text-align:right;padding-right:8px;'>Votes</th><th style='text-align:right;'>Percent</th></tr><tr><td style='padding-right:8px;'>Ryan Clancy</td><td style='text-align:right;padding-right:8px;'>49</td><td style='text-align:right;'>2.2%</td></tr><tr><td style='padding-right:8px;'>Bridget Maniaci</td><td style='text-align:right;padding-right:8px;'>10</td><td style='text-align:right;'>0.5%</td></tr><tr><td style='padding-right:8px;'>write-in:</td><td style='text-align:right;padding-right:8px;'>22</td><td style='text-align:right;'>1.0%</td></tr></table></div>" }, "geometry": { "type": "Point", "coordinates": [ -87.894739031103384, 43.051374648239538 ] } },
{ "type": "Feature", "properties": { "ward": "City of Milwaukee Ward 132", "candidate": "Ryan Clancy", "votes": 23.0, "color": "#E41A1C", "popup": "<div><strong>City of Milwaukee Ward 132</strong><div><strong>Representative to the Assembly, District 19</strong><table style='border-collapse:collapse;margin-top:4px;'><tr><th></th><th style='text-align:right;padding-right:8px;'>Votes</th><th style='text-align:right;'>Percent</th></tr><tr><td style='padding-right:8px;'>Ryan Clancy</td><td style='text-align:right;padding-right:8px;'>23</td><td style='text-align:right;'>1.1%</td></tr><tr><td style='padding-right:8px;'>Bridget Maniaci</td><td style='text-align:right;padding-right:8px;'>32</td><td style='text-align:right;'>1.6%</td></tr><tr><td style='padding-right:8px;'>write-in:</td><td style='text-align:right;padding-right:8px;'>40</td><td style='text-align:right;'>2.0%</td></tr></table></div>" }, "geometry": { "type": "Point", "coordinates": [ -87.891399419313714, 43.065536813833049 ] } },
{ "type": "Feature", "properties": { "ward": "City of Milwaukee Ward 176", "candidate": "write-in:", "votes": 27.0, "color": "#4DAF4A", "popup": "<div><strong>City of Milwaukee Ward 176</strong><div><strong>Representative to the Assembly, District 19</strong><table style='border-collapse:collapse;margin-top:4px;'><tr><th></th><th style='text-align:right;padding-right:8px;'>Votes</th><th style='text-align:right;'>Percent</th></tr><tr><td style='padding-right:8px;'>Ryan Clancy</td><td style='text-align:right;padding-right:8px;'>11</td><td style='text-align:right;'>0.6%</td></tr><tr><td style='padding-right:8px;'>Bridget Maniaci</td><td style='text-align:right;padding-right:8px;'>2</td><td style='text-align:right;'>0.1%</td></tr><tr><td style='padding-right:8px;'>write-in:</td><td style='text-align:right;padding-right:8px;'>27</td><td style='text-align:right;'>1.5%</td></tr></table></div>" }, "geometry": { "type": "Point", "coordinates": [ -87.880980434781691, 43.057741346988003 ] } },
{ "type": "Feature", "properties": { "ward": "City of Milwaukee Ward 237", "candidate": "Bridget Maniaci", "votes": 27.0, "color": "#377EB8", "popup": "<div><strong>City of Milwaukee Ward 237</strong><div><strong>Representative to the Assembly, District 19</strong><table style='border-collapse:collapse;margin-top:4px;'><tr><th></th><th style='text-align:right;padding-right:8px;'>Votes</th><th style='text-align:right;'>Percent</th></tr><tr><td style='padding-right:8px;'>Ryan Clancy</td><td style='text-align:right;padding-right:8px;'>37</td><td style='text-align:right;'>1.5%</td></tr><tr><td style='padding-right:8px;'>Bridget Maniaci</td><td style='text-align:right;padding-right:8px;'>27</td><td style='text-align:right;'>1.1%</td></tr><tr><td style='padding-right:8px;'>write-in:</td><td style='text-align:right;padding-right:8px;'>3</td><td style='text-align:right;'>0.1%</td></tr></table></div>" }, "geometry": { "type": "Point", "coordinates": [ -87.89419138502214, 43.000228307767777 ] } },
{ "type": "Feature", "properties": { "ward": "City of Milwaukee Ward 340", "candidate": "write-in:", "votes": 27.0, "color": "#4DAF4A", "popup": "<div><strong>City of Milwaukee Ward 340</strong><div><strong>Representative to the Assembly, District 19</strong><table style='border-collapse:collapse;margin-top:4px;'><tr><th></th><th style='text-align:right;padding-right:8px;'>Votes</th><th style='text-align:right;'>Percent</th></tr><tr><td style='padding-right:8px;'>Ryan Clancy</td><td style='text-align:right;padding-right:8px;'>13</td><td style='text-align:right;'>0.6%</td></tr><tr><td style='padding-right:8px;'>Bridget Maniaci</td><td style='text-align:right;padding-right:8px;'>37</td><td style='text-align:right;'>1.7%</td></tr><tr><td style='padding-right:8px;'>write-in:</td><td style='text-align:right;padding-right:8px;'>27</td><td style='text-align:right;'>1.2%</td></tr></table></div>" }, "geometry": { "type": "Point", "coordinates": [ -87.903472743472506, 43.025701515863133 ] } },
{ "type": "Feature", "properties": { "ward": "City of Milwaukee Ward 128", "candidate": "Ryan Clancy", "votes": 29.0, "color": "#E41A1C", "popup": "<div><strong>City of Milwaukee Ward 128</strong><div><strong>Representative to the Assembly, District 19</strong><table style='border-collapse:collapse;margin-top:4px;'><tr><th></th><th style='text-align:right;padding-right:8px;'>Votes</th><th style='text-align:right;'>Percent</th></tr><tr><td style='padding-right:8px;'>Ryan Clancy</td><td style='text-align:right;padding-right:8px;'>29</td><td style='text-align:right;'>1.2%</td></tr><tr><td style='padding-right:8px;'>Bridget Maniaci</td><td style='text-align:right;padding-right:8px;'>5</td><td style='text-align:right;'>0.2%</td></tr><tr><td style='padding-right:8px;'>write-in:</td><td style='text-align:right;padding-right:8px;'>37</td><td style='text-align:right;'>1.6%</td></tr></table></div>" }, "geometry": { "type": "Point", "coordinates": [ -87.872562971617683, 43.068750916440891 ] } },
{ "type": "Feature", "properties": { "ward": "City of Milwaukee Ward 131", "candidate": "write-in:", "votes": 30.0, "color": "#4DAF4A", "popup": "<div><strong>City of Milwaukee Ward 131</strong><div><strong>Representative to the Assembly, District 19</strong><table style='border-collapse:collapse;margin-top:4px;'><tr><th></th><th style='text-align:right;padding-right:8px;'>Votes</th><th style='text-align:right;'>Percent</th></tr><tr><td style='padding-right:8px;'>Ryan Clancy</td><td style='text-align:right;padding-right:8px;'>4</td><td style='text-align:right;'>0.2%</td></tr><tr><td style='padding-right:8px;'>Bridget Maniaci</td><td style='text-align:right;padding-right:8px;'>5</td><td style='text-align:right;'>0.2%</td></tr><tr><td style='padding-right:8px;'>write-in:</td><td style='text-align:right;padding-right:8px;'>30</td><td style='text-align:right;'>1.4%</td></tr></table></div>" }, "geometry": { "type": "Point", "coordinates": [ -87.885926123313652, 43.061648169700547 ] } },
{ "type": "Feature", "properties": { "ward": "City of Milwaukee Ward 133", "candidate": "Ryan Clancy", "votes": 30.0, "color": "#E41A1C", "popup": "<div><strong>City of Milwaukee Ward 133</strong><div><strong>Representative to the Assembly, District 19</strong><table style='border-collapse:collapse;margin-top:4px;'><tr><th></th><th style='text-align:right;padding-right:8px;'>Votes</th><th style='text-align:right;'>Percent</th></tr><tr><td style='padding-right:8px;'>Ryan Clancy</td><td style='text-align:right;padding-right:8px;'>30</td><td style='text-align:right;'>1.5%</td></tr><tr><td style='padding-right:8px;'>Bridget Maniaci</td><td style='text-align:right;padding-right:8px;'>21</td><td style='text-align:right;'>1.0%</td></tr><tr><td style='padding-right:8px;'>write-in:</td><td style='text-align:right;padding-right:8px;'>74</td><td style='text-align:right;'>3.6%</td></tr></table></div>" }, "geometry": { "type": "Point", "coordinates": [ -87.895414924638644, 43.063162778974537 ] } },
{ "type": "Feature", "properties": { "ward": "City of Milwaukee Ward 241", "candidate": "Bridget Maniaci", "votes": 30.0, "color": "#377EB8", "popup": "<div><strong>City of Milwaukee Ward 241</strong><div><strong>Representative to the Assembly, District 19</strong><table style='border-collapse:collapse;margin-top:4px;'><tr><th></th><th style='text-align:right;padding-right:8px;'>Votes</th><th style='text-align:right;'>Percent</th></tr><tr><td style='padding-right:8px;'>Ryan Clancy</td><td style='text-align:right;padding-right:8px;'>42</td><td style='text-align:right;'>2.0%</td></tr><tr><td style='padding-right:8px;'>Bridget Maniaci</td><td style='text-align:right;padding-right:8px;'>30</td><td style='text-align:right;'>1.4%</td></tr><tr><td style='padding-right:8px;'>write-in:</td><td style='text-align:right;padding-right:8px;'>50</td><td style='text-align:right;'>2.4%</td></tr></table></div>" }, "geometry": { "type": "Point", "coordinates": [ -87.903831430040071, 42.997960951648899 ] } },
{ "type": "Feature", "properties": { "ward": "City of Milwaukee Ward 132", "candidate": "Bridget Maniaci", "votes": 32.0, "color": "#377EB8", "popup": "<div><strong>City of Milwaukee Ward 132</strong><div><strong>Representative to the Assembly, District 19</strong><table style='border-collapse:collapse;margin-top:4px;'><tr><th></th><th style='text-align:right;padding-right:8px;'>Votes</th><th style='text-align:right;'>Percent</th></tr><tr><td style='padding-right:8px;'>Ryan Clancy</td><td style='text-align:right;padding-right:8px;'>23</td><td style='text-align:right;'>1.1%</td></tr><tr><td style='padding-right:8px;'>Bridget Maniaci</td><td style='text-align:right;padding-right:8px;'>32</td><td style='text-align:right;'>1.6%</td></tr><tr><td style='padding-right:8px;'>write-in:</td><td style='text-align:right;padding-right:8px;'>40</td><td style='text-align:right;'>2.0%</td></tr></table></div>" }, "geometry": { "type": "Point", "coordinates": [ -87.891399419313714, 43.065536813833049 ] } },
{ "type": "Feature", "properties": { "ward": "City of Milwaukee Ward 156", "candidate": "Bridget Maniaci", "votes": 33.0, "color": "#377EB8", "popup": "<div><strong>City of Milwaukee Ward 156</strong><div><strong>Representative to the Assembly, District 19</strong><table style='border-collapse:collapse;margin-top:4px;'><tr><th></th><th style='text-align:right;padding-right:8px;'>Votes</th><th style='text-align:right;'>Percent</th></tr><tr><td style='padding-right:8px;'>Ryan Clancy</td><td style='text-align:right;padding-right:8px;'>71</td><td style='text-align:right;'>3.1%</td></tr><tr><td style='padding-right:8px;'>Bridget Maniaci</td><td style='text-align:right;padding-right:8px;'>33</td><td style='text-align:right;'>1.5%</td></tr><tr><td style='padding-right:8px;'>write-in:</td><td style='text-align:right;padding-right:8px;'>48</td><td style='text-align:right;'>2.1%</td></tr></table></div>" }, "geometry": { "type": "Point", "coordinates": [ -87.900441460513434, 43.027706020592426 ] } },
{ "type": "Feature", "properties": { "ward": "City of Milwaukee Ward 123", "candidate": "Ryan Clancy", "votes": 34.0, "color": "#E41A1C", "popup": "<div><strong>City of Milwaukee Ward 123</strong><div><strong>Representative to the Assembly, District 19</strong><table style='border-collapse:collapse;margin-top:4px;'><tr><th></th><th style='text-align:right;padding-right:8px;'>Votes</th><th style='text-align:right;'>Percent</th></tr><tr><td style='padding-right:8px;'>Ryan Clancy</td><td style='text-align:right;padding-right:8px;'>34</td><td style='text-align:right;'>1.6%</td></tr><tr><td style='padding-right:8px;'>Bridget Maniaci</td><td style='text-align:right;padding-right:8px;'>42</td><td style='text-align:right;'>2.0%</td></tr><tr><td style='padding-right:8px;'>write-in:</td><td style='text-align:right;padding-right:8px;'>1</td><td style='text-align:right;'>0.0%</td></tr></table></div>" }, "geometry": { "type": "Point", "coordinates": [ -87.888359621622612, 43.078090391152742 ] } },
{ "type": "Feature", "properties": { "ward": "City of Milwaukee Ward 124", "candidate": "Ryan Clancy", "votes": 36.0, "color": "#E41A1C", "popup": "<div><strong>City of Milwaukee Ward 124</strong><div><strong>Representative to the Assembly, District 19</strong><table style='border-collapse:collapse;margin-top:4px;'><tr><th></th><th style='text-align:right;padding-right:8px;'>Votes</th><th style='text-align:right;'>Percent</th></tr><tr><td style='padding-right:8px;'>Ryan Clancy</td><td style='text-align:right;padding-right:8px;'>36</td><td style='text-align:right;'>1.7%</td></tr><tr><td style='padding-right:8px;'>Bridget Maniaci</td><td style='text-align:right;padding-right:8px;'>41</td><td style='text-align:right;'>2.0%</td></tr><tr><td style='padding-right:8px;'>write-in:</td><td style='text-align:right;padding-right:8px;'>1</td><td style='text-align:right;'>0.0%</td></tr></table></div>" }, "geometry": { "type": "Point", "coordinates": [ -87.889170629278212, 43.071914476353662 ] } },
{ "type": "Feature", "properties": { "ward": "City of Milwaukee Ward 341", "candidate": "Bridget Maniaci", "votes": 36.0, "color": "#377EB8", "popup": "<div><strong>City of Milwaukee Ward 341</strong><div><strong>Representative to the Assembly, District 19</strong><table style='border-collapse:collapse;margin-top:4px;'><tr><th></th><th style='text-align:right;padding-right:8px;'>Votes</th><th style='text-align:right;'>Percent</th></tr><tr><td style='padding-right:8px;'>Ryan Clancy</td><td style='text-align:right;padding-right:8px;'>4</td><td style='text-align:right;'>0.2%</td></tr><tr><td style='padding-right:8px;'>Bridget Maniaci</td><td style='text-align:right;padding-right:8px;'>36</td><td style='text-align:right;'>1.6%</td></tr><tr><td style='padding-right:8px;'>write-in:</td><td style='text-align:right;padding-right:8px;'>1</td><td style='text-align:right;'>0.0%</td></tr></table></div>" }, "geometry": { "type": "Point", "coordinates": [ -87.905288703408232, 43.021467792453699 ] } },
{ "type": "Feature", "properties": { "ward": "City of Milwaukee Ward 128", "candidate": "write-in:", "votes": 37.0, "color": "#4DAF4A", "popup": "<div><strong>City of Milwaukee Ward 128</strong><div><strong>Representative to the Assembly, District 19</strong><table style='border-collapse:collapse;margin-top:4px;'><tr><th></th><th style='text-align:right;padding-right:8px;'>Votes</th><th style='text-align:right;'>Percent</th></tr><tr><td style='padding-right:8px;'>Ryan Clancy</td><td style='text-align:right;padding-right:8px;'>29</td><td style='text-align:right;'>1.2%</td></tr><tr><td style='padding-right:8px;'>Bridget Maniaci</td><td style='text-align:right;padding-right:8px;'>5</td><td style='text-align:right;'>0.2%</td></tr><tr><td style='padding-right:8px;'>write-in:</td><td style='text-align:right;padding-right:8px;'>37</td><td style='text-align:right;'>1.6%</td></tr></table></div>" }, "geometry": { "type": "Point", "coordinates": [ -87.872562971617683, 43.068750916440891 ] } },
{ "type": "Feature", "properties": { "ward": "City of Milwaukee Ward 237", "candidate": "Ryan Clancy", "votes": 37.0, "color": "#E41A1C", "popup": "<div><strong>City of Milwaukee Ward 237</strong><div><strong>Representative to the Assembly, District 19</strong><table style='border-collapse:collapse;margin-top:4px;'><tr><th></th><th style='text-align:right;padding-right:8px;'>Votes</th><th style='text-align:right;'>Percent</th></tr><tr><td style='padding-right:8px;'>Ryan Clancy</td><td style='text-align:right;padding-right:8px;'>37</td><td style='text-align:right;'>1.5%</td></tr><tr><td style='padding-right:8px;'>Bridget Maniaci</td><td style='text-align:right;padding-right:8px;'>27</td><td style='text-align:right;'>1.1%</td></tr><tr><td style='padding-right:8px;'>write-in:</td><td style='text-align:right;padding-right:8px;'>3</td><td style='text-align:right;'>0.1%</td></tr></table></div>" }, "geometry": { "type": "Point", "coordinates": [ -87.89419138502214, 43.000228307767777 ] } },
{ "type": "Feature", "properties": { "ward": "City of Milwaukee Ward 340", "candidate": "Bridget Maniaci", "votes": 37.0, "color": "#377EB8", "popup": "<div><strong>City of Milwaukee Ward 340</strong><div><strong>Representative to the Assembly, District 19</strong><table style='border-collapse:collapse;margin-top:4px;'><tr><th></th><th style='text-align:right;padding-right:8px;'>Votes</th><th style='text-align:right;'>Percent</th></tr><tr><td style='padding-right:8px;'>Ryan Clancy</td><td style='text-align:right;padding-right:8px;'>13</td><td style='text-align:right;'>0.6%</td></tr><tr><td style='padding-right:8px;'>Bridget Maniaci</td><td style='text-align:right;padding-right:8px;'>37</td><td style='text-align:right;'>1.7%</td></tr><tr><td style='padding-right:8px;'>write-in:</td><td style='text-align:right;padding-right:8px;'>27</td><td style='text-align:right;'>1.2%</td></tr></table></div>" }, "geometry": { "type": "Point", "coordinates": [ -87.903472743472506, 43.025701515863133 ] } },
{ "type": "Feature", "properties": { "ward": "City of Milwaukee Ward 132", "candidate": "write-in:", "votes": 40.0, "color": "#4DAF4A", "popup": "<div><strong>City of Milwaukee Ward 132</strong><div><strong>Representative to the Assembly, District 19</strong><table style='border-collapse:collapse;margin-top:4px;'><tr><th></th><th style='text-align:right;padding-right:8px;'>Votes</th><th style='text-align:right;'>Percent</th></tr><tr><td style='padding-right:8px;'>Ryan Clancy</td><td style='text-align:right;padding-right:8px;'>23</td><td style='text-align:right;'>1.1%</td></tr><tr><td style='padding-right:8px;'>Bridget Maniaci</td><td style='text-align:right;padding-right:8px;'>32</td><td style='text-align:right;'>1.6%</td></tr><tr><td style='padding-right:8px;'>write-in:</td><td style='text-align:right;padding-right:8px;'>40</td><td style='text-align:right;'>2.0%</td></tr></table></div>" }, "geometry": { "type": "Point", "coordinates": [ -87.891399419313714, 43.065536813833049 ] } },
{ "type": "Feature", "properties": { "ward": "City of Milwaukee Ward 124", "candidate": "Bridget Maniaci", "votes": 41.0, "color": "#377EB8", "popup": "<div><strong>City of Milwaukee Ward 124</strong><div><strong>Representative to the Assembly, District 19</strong><table style='border-collapse:collapse;margin-top:4px;'><tr><th></th><th style='text-align:right;padding-right:8px;'>Votes</th><th style='text-align:right;'>Percent</th></tr><tr><td style='padding-right:8px;'>Ryan Clancy</td><td style='text-align:right;padding-right:8px;'>36</td><td style='text-align:right;'>1.7%</td></tr><tr><td style='padding-right:8px;'>Bridget Maniaci</td><td style='text-align:right;padding-right:8px;'>41</td><td style='text-align:right;'>2.0%</td></tr><tr><td style='padding-right:8px;'>write-in:</td><td style='text-align:right;padding-right:8px;'>1</td><td style='text-align:right;'>0.0%</td></tr></table></div>" }, "geometry": { "type": "Point", "coordinates": [ -87.889170629278212, 43.071914476353662 ] } },
{ "type": "Feature", "properties": { "ward": "City of Milwaukee Ward 123", "candidate": "Bridget Maniaci", "votes": 42.0, "color": "#377EB8", "popup": "<div><strong>City of Milwaukee Ward 123</strong><div><strong>Representative to the Assembly, District 19</strong><table style='border-collapse:collapse;margin-top:4px;'><tr><th></th><th style='text-align:right;padding-right:8px;'>Votes</th><th style='text-align:right;'>Percent</th></tr><tr><td style='padding-right:8px;'>Ryan Clancy</td><td style='text-align:right;padding-right:8px;'>34</td><td style='text-align:right;'>1.6%</td></tr><tr><td style='padding-right:8px;'>Bridget Maniaci</td><td style='text-align:right;padding-right:8px;'>42</td><td style='text-align:right;'>2.0%</td></tr><tr><td style='padding-right:8px;'>write-in:</td><td style='text-align:right;padding-right:8px;'>1</td><td style='text-align:right;'>0.0%</td></tr></table></div>" }, "geometry": { "type": "Point", "coordinates": [ -87.888359621622612, 43.078090391152742 ] } },
{ "type": "Feature", "properties": { "ward": "City of Milwaukee Ward 241", "candidate": "Ryan Clancy", "votes": 42.0, "color": "#E41A1C", "popup": "<div><strong>City of Milwaukee Ward 241</strong><div><strong>Representative to the Assembly, District 19</strong><table style='border-collapse:collapse;margin-top:4px;'><tr><th></th><th style='text-align:right;padding-right:8px;'>Votes</th><th style='text-align:right;'>Percent</th></tr><tr><td style='padding-right:8px;'>Ryan Clancy</td><td style='text-align:right;padding-right:8px;'>42</td><td style='text-align:right;'>2.0%</td></tr><tr><td style='padding-right:8px;'>Bridget Maniaci</td><td style='text-align:right;padding-right:8px;'>30</td><td style='text-align:right;'>1.4%</td></tr><tr><td style='padding-right:8px;'>write-in:</td><td style='text-align:right;padding-right:8px;'>50</td><td style='text-align:right;'>2.4%</td></tr></table></div>" }, "geometry": { "type": "Point", "coordinates": [ -87.903831430040071, 42.997960951648899 ] } },
{ "type": "Feature", "properties": { "ward": "City of Milwaukee Ward 126", "candidate": "Ryan Clancy", "votes": 46.0, "color": "#E41A1C", "popup": "<div><strong>City of Milwaukee Ward 126</strong><div><strong>Representative to the Assembly, District 19</strong><table style='border-collapse:collapse;margin-top:4px;'><tr><th></th><th style='text-align:right;padding-right:8px;'>Votes</th><th style='text-align:right;'>Percent</th></tr><tr><td style='padding-right:8px;'>Ryan Clancy</td><td style='text-align:right;padding-right:8px;'>46</td><td style='text-align:right;'>2.3%</td></tr><tr><td style='padding-right:8px;'>Bridget Maniaci</td><td style='text-align:right;padding-right:8px;'>12</td><td style='text-align:right;'>0.6%</td></tr><tr><td style='padding-right:8px;'>write-in:</td><td style='text-align:right;padding-right:8px;'>2</td><td style='text-align:right;'>0.1%</td></tr></table></div>" }, "geometry": { "type": "Point", "coordinates": [ -87.880343866354451, 43.080054331376417 ] } },
{ "type": "Feature", "properties": { "ward": "City of Milwaukee Ward 141", "candidate": "Bridget Maniaci", "votes": 47.0, "color": "#377EB8", "popup": "<div><strong>City of Milwaukee Ward 141</strong><div><strong>Representative to the Assembly, District 19</strong><table style='border-collapse:collapse;margin-top:4px;'><tr><th></th><th style='text-align:right;padding-right:8px;'>Votes</th><th style='text-align:right;'>Percent</th></tr><tr><td style='padding-right:8px;'>Ryan Clancy</td><td style='text-align:right;padding-right:8px;'>56</td><td style='text-align:right;'>2.9%</td></tr><tr><td style='padding-right:8px;'>Bridget Maniaci</td><td style='text-align:right;padding-right:8px;'>47</td><td style='text-align:right;'>2.5%</td></tr><tr><td style='padding-right:8px;'>write-in:</td><td style='text-align:right;padding-right:8px;'>65</td><td style='text-align:right;'>3.4%</td></tr></table></div>" }, "geometry": { "type": "Point", "coordinates": [ -87.906629570602178, 43.039693841744835 ] } },
{ "type": "Feature", "properties": { "ward": "City of Milwaukee Ward 156", "candidate": "write-in:", "votes": 48.0, "color": "#4DAF4A", "popup": "<div><strong>City of Milwaukee Ward 156</strong><div><strong>Representative to the Assembly, District 19</strong><table style='border-collapse:collapse;margin-top:4px;'><tr><th></th><th style='text-align:right;padding-right:8px;'>Votes</th><th style='text-align:right;'>Percent</th></tr><tr><td style='padding-right:8px;'>Ryan Clancy</td><td style='text-align:right;padding-right:8px;'>71</td><td style='text-align:right;'>3.1%</td></tr><tr><td style='padding-right:8px;'>Bridget Maniaci</td><td style='text-align:right;padding-right:8px;'>33</td><td style='text-align:right;'>1.5%</td></tr><tr><td style='padding-right:8px;'>write-in:</td><td style='text-align:right;padding-right:8px;'>48</td><td style='text-align:right;'>2.1%</td></tr></table></div>" }, "geometry": { "type": "Point", "coordinates": [ -87.900441460513434, 43.027706020592426 ] } },
{ "type": "Feature", "properties": { "ward": "City of Milwaukee Ward 158", "candidate": "Bridget Maniaci", "votes": 49.0, "color": "#377EB8", "popup": "<div><strong>City of Milwaukee Ward 158</strong><div><strong>Representative to the Assembly, District 19</strong><table style='border-collapse:collapse;margin-top:4px;'><tr><th></th><th style='text-align:right;padding-right:8px;'>Votes</th><th style='text-align:right;'>Percent</th></tr><tr><td style='padding-right:8px;'>Ryan Clancy</td><td style='text-align:right;padding-right:8px;'>4</td><td style='text-align:right;'>0.2%</td></tr><tr><td style='padding-right:8px;'>Bridget Maniaci</td><td style='text-align:right;padding-right:8px;'>49</td><td style='text-align:right;'>2.4%</td></tr><tr><td style='padding-right:8px;'>write-in:</td><td style='text-align:right;padding-right:8px;'>5</td><td style='text-align:right;'>0.2%</td></tr></table></div>" }, "geometry": { "type": "Point", "coordinates": [ -87.910489597525427, 43.044273790874591 ] } },
{ "type": "Feature", "properties": { "ward": "City of Milwaukee Ward 178", "candidate": "Ryan Clancy", "votes": 49.0, "color": "#E41A1C", "popup": "<div><strong>City of Milwaukee Ward 178</strong><div><strong>Representative to the Assembly, District 19</strong><table style='border-collapse:collapse;margin-top:4px;'><tr><th></th><th style='text-align:right;padding-right:8px;'>Votes</th><th style='text-align:right;'>Percent</th></tr><tr><td style='padding-right:8px;'>Ryan Clancy</td><td style='text-align:right;padding-right:8px;'>49</td><td style='text-align:right;'>2.2%</td></tr><tr><td style='padding-right:8px;'>Bridget Maniaci</td><td style='text-align:right;padding-right:8px;'>10</td><td style='text-align:right;'>0.5%</td></tr><tr><td style='padding-right:8px;'>write-in:</td><td style='text-align:right;padding-right:8px;'>22</td><td style='text-align:right;'>1.0%</td></tr></table></div>" }, "geometry": { "type": "Point", "coordinates": [ -87.894739031103384, 43.051374648239538 ] } },
{ "type": "Feature", "properties": { "ward": "City of Milwaukee Ward 162", "candidate": "Ryan Clancy", "votes": 50.0, "color": "#E41A1C", "popup": "<div><strong>City of Milwaukee Ward 162</strong><div><strong>Representative to the Assembly, District 19</strong><table style='border-collapse:collapse;margin-top:4px;'><tr><th></th><th style='text-align:right;padding-right:8px;'>Votes</th><th style='text-align:right;'>Percent</th></tr><tr><td style='padding-right:8px;'>Ryan Clancy</td><td style='text-align:right;padding-right:8px;'>50</td><td style='text-align:right;'>2.3%</td></tr><tr><td style='padding-right:8px;'>Bridget Maniaci</td><td style='text-align:right;padding-right:8px;'>6</td><td style='text-align:right;'>0.3%</td></tr><tr><td style='padding-right:8px;'>write-in:</td><td style='text-align:right;padding-right:8px;'>112</td><td style='text-align:right;'>5.3%</td></tr></table></div>" }, "geometry": { "type": "Point", "coordinates": [ -87.90717671852552, 43.049569198077968 ] } },
{ "type": "Feature", "properties": { "ward": "City of Milwaukee Ward 241", "candidate": "write-in:", "votes": 50.0, "color": "#4DAF4A", "popup": "<div><strong>City of Milwaukee Ward 241</strong><div><strong>Representative to the Assembly, District 19</strong><table style='border-collapse:collapse;margin-top:4px;'><tr><th></th><th style='text-align:right;padding-right:8px;'>Votes</th><th style='text-align:right;'>Percent</th></tr><tr><td style='padding-right:8px;'>Ryan Clancy</td><td style='text-align:right;padding-right:8px;'>42</td><td style='text-align:right;'>2.0%</td></tr><tr><td style='padding-right:8px;'>Bridget Maniaci</td><td style='text-align:right;padding-right:8px;'>30</td><td style='text-align:right;'>1.4%</td></tr><tr><td style='padding-right:8px;'>write-in:</td><td style='text-align:right;padding-right:8px;'>50</td><td style='text-align:right;'>2.4%</td></tr></table></div>" }, "geometry": { "type": "Point", "coordinates": [ -87.903831430040071, 42.997960951648899 ] } },
{ "type": "Feature", "properties": { "ward": "City of Milwaukee Ward 174", "candidate": "Bridget Maniaci", "votes": 53.0, "color": "#377EB8", "popup": "<div><strong>City of Milwaukee Ward 174</strong><div><strong>Representative to the Assembly, District 19</strong><table style='border-collapse:collapse;margin-top:4px;'><tr><th></th><th style='text-align:right;padding-right:8px;'>Votes</th><th style='text-align:right;'>Percent</th></tr><tr><td style='padding-right:8px;'>Ryan Clancy</td><td style='text-align:right;padding-right:8px;'>9</td><td style='text-align:right;'>0.4%</td></tr><tr><td style='padding-right:8px;'>Bridget Maniaci</td><td style='text-align:right;padding-right:8px;'>53</td><td style='text-align:right;'>2.4%</td></tr><tr><td style='padding-right:8px;'>write-in:</td><td style='text-align:right;padding-right:8px;'>54</td><td style='text-align:right;'>2.4%</td></tr></table></div>" }, "geometry": { "type": "Point", "coordinates": [ -87.899716604466917, 43.054794012001985 ] } },
{ "type": "Feature", "properties": { "ward": "City of Milwaukee Ward 174", "candidate": "write-in:", "votes": 54.0, "color": "#4DAF4A", "popup": "<div><strong>City of Milwaukee Ward 174</strong><div><strong>Representative to the Assembly, District 19</strong><table style='border-collapse:collapse;margin-top:4px;'><tr><th></th><th style='text-align:right;padding-right:8px;'>Votes</th><th style='text-align:right;'>Percent</th></tr><tr><td style='padding-right:8px;'>Ryan Clancy</td><td style='text-align:right;padding-right:8px;'>9</td><td style='text-align:right;'>0.4%</td></tr><tr><td style='padding-right:8px;'>Bridget Maniaci</td><td style='text-align:right;padding-right:8px;'>53</td><td style='text-align:right;'>2.4%</td></tr><tr><td style='padding-right:8px;'>write-in:</td><td style='text-align:right;padding-right:8px;'>54</td><td style='text-align:right;'>2.4%</td></tr></table></div>" }, "geometry": { "type": "Point", "coordinates": [ -87.899716604466917, 43.054794012001985 ] } },
{ "type": "Feature", "properties": { "ward": "City of Milwaukee Ward 141", "candidate": "Ryan Clancy", "votes": 56.0, "color": "#E41A1C", "popup": "<div><strong>City of Milwaukee Ward 141</strong><div><strong>Representative to the Assembly, District 19</strong><table style='border-collapse:collapse;margin-top:4px;'><tr><th></th><th style='text-align:right;padding-right:8px;'>Votes</th><th style='text-align:right;'>Percent</th></tr><tr><td style='padding-right:8px;'>Ryan Clancy</td><td style='text-align:right;padding-right:8px;'>56</td><td style='text-align:right;'>2.9%</td></tr><tr><td style='padding-right:8px;'>Bridget Maniaci</td><td style='text-align:right;padding-right:8px;'>47</td><td style='text-align:right;'>2.5%</td></tr><tr><td style='padding-right:8px;'>write-in:</td><td style='text-align:right;padding-right:8px;'>65</td><td style='text-align:right;'>3.4%</td></tr></table></div>" }, "geometry": { "type": "Point", "coordinates": [ -87.906629570602178, 43.039693841744835 ] } },
{ "type": "Feature", "properties": { "ward": "City of Milwaukee Ward 141", "candidate": "write-in:", "votes": 65.0, "color": "#4DAF4A", "popup": "<div><strong>City of Milwaukee Ward 141</strong><div><strong>Representative to the Assembly, District 19</strong><table style='border-collapse:collapse;margin-top:4px;'><tr><th></th><th style='text-align:right;padding-right:8px;'>Votes</th><th style='text-align:right;'>Percent</th></tr><tr><td style='padding-right:8px;'>Ryan Clancy</td><td style='text-align:right;padding-right:8px;'>56</td><td style='text-align:right;'>2.9%</td></tr><tr><td style='padding-right:8px;'>Bridget Maniaci</td><td style='text-align:right;padding-right:8px;'>47</td><td style='text-align:right;'>2.5%</td></tr><tr><td style='padding-right:8px;'>write-in:</td><td style='text-align:right;padding-right:8px;'>65</td><td style='text-align:right;'>3.4%</td></tr></table></div>" }, "geometry": { "type": "Point", "coordinates": [ -87.906629570602178, 43.039693841744835 ] } },
{ "type": "Feature", "properties": { "ward": "City of Milwaukee Ward 175", "candidate": "Ryan Clancy", "votes": 66.0, "color": "#E41A1C", "popup": "<div><strong>City of Milwaukee Ward 175</strong><div><strong>Representative to the Assembly, District 19</strong><table style='border-collapse:collapse;margin-top:4px;'><tr><th></th><th style='text-align:right;padding-right:8px;'>Votes</th><th style='text-align:right;'>Percent</th></tr><tr><td style='padding-right:8px;'>Ryan Clancy</td><td style='text-align:right;padding-right:8px;'>66</td><td style='text-align:right;'>3.4%</td></tr><tr><td style='padding-right:8px;'>Bridget Maniaci</td><td style='text-align:right;padding-right:8px;'>7</td><td style='text-align:right;'>0.4%</td></tr><tr><td style='padding-right:8px;'>write-in:</td><td style='text-align:right;padding-right:8px;'>11</td><td style='text-align:right;'>0.6%</td></tr></table></div>" }, "geometry": { "type": "Point", "coordinates": [ -87.890011633417785, 43.056619900824593 ] } },
{ "type": "Feature", "properties": { "ward": "City of Milwaukee Ward 177", "candidate": "write-in:", "votes": 67.0, "color": "#4DAF4A", "popup": "<div><strong>City of Milwaukee Ward 177</strong><div><strong>Representative to the Assembly, District 19</strong><table style='border-collapse:collapse;margin-top:4px;'><tr><th></th><th style='text-align:right;padding-right:8px;'>Votes</th><th style='text-align:right;'>Percent</th></tr><tr><td style='padding-right:8px;'>Ryan Clancy</td><td style='text-align:right;padding-right:8px;'>97</td><td style='text-align:right;'>5.5%</td></tr><tr><td style='padding-right:8px;'>Bridget Maniaci</td><td style='text-align:right;padding-right:8px;'>18</td><td style='text-align:right;'>1.0%</td></tr><tr><td style='padding-right:8px;'>write-in:</td><td style='text-align:right;padding-right:8px;'>67</td><td style='text-align:right;'>3.8%</td></tr></table></div>" }, "geometry": { "type": "Point", "coordinates": [ -87.893470609177754, 43.045208808165945 ] } },
{ "type": "Feature", "properties": { "ward": "City of Milwaukee Ward 156", "candidate": "Ryan Clancy", "votes": 71.0, "color": "#E41A1C", "popup": "<div><strong>City of Milwaukee Ward 156</strong><div><strong>Representative to the Assembly, District 19</strong><table style='border-collapse:collapse;margin-top:4px;'><tr><th></th><th style='text-align:right;padding-right:8px;'>Votes</th><th style='text-align:right;'>Percent</th></tr><tr><td style='padding-right:8px;'>Ryan Clancy</td><td style='text-align:right;padding-right:8px;'>71</td><td style='text-align:right;'>3.1%</td></tr><tr><td style='padding-right:8px;'>Bridget Maniaci</td><td style='text-align:right;padding-right:8px;'>33</td><td style='text-align:right;'>1.5%</td></tr><tr><td style='padding-right:8px;'>write-in:</td><td style='text-align:right;padding-right:8px;'>48</td><td style='text-align:right;'>2.1%</td></tr></table></div>" }, "geometry": { "type": "Point", "coordinates": [ -87.900441460513434, 43.027706020592426 ] } },
{ "type": "Feature", "properties": { "ward": "City of Milwaukee Ward 133", "candidate": "write-in:", "votes": 74.0, "color": "#4DAF4A", "popup": "<div><strong>City of Milwaukee Ward 133</strong><div><strong>Representative to the Assembly, District 19</strong><table style='border-collapse:collapse;margin-top:4px;'><tr><th></th><th style='text-align:right;padding-right:8px;'>Votes</th><th style='text-align:right;'>Percent</th></tr><tr><td style='padding-right:8px;'>Ryan Clancy</td><td style='text-align:right;padding-right:8px;'>30</td><td style='text-align:right;'>1.5%</td></tr><tr><td style='padding-right:8px;'>Bridget Maniaci</td><td style='text-align:right;padding-right:8px;'>21</td><td style='text-align:right;'>1.0%</td></tr><tr><td style='padding-right:8px;'>write-in:</td><td style='text-align:right;padding-right:8px;'>74</td><td style='text-align:right;'>3.6%</td></tr></table></div>" }, "geometry": { "type": "Point", "coordinates": [ -87.895414924638644, 43.063162778974537 ] } },
{ "type": "Feature", "properties": { "ward": "City of Milwaukee Ward 129", "candidate": "Bridget Maniaci", "votes": 90.0, "color": "#377EB8", "popup": "<div><strong>City of Milwaukee Ward 129</strong><div><strong>Representative to the Assembly, District 19</strong><table style='border-collapse:collapse;margin-top:4px;'><tr><th></th><th style='text-align:right;padding-right:8px;'>Votes</th><th style='text-align:right;'>Percent</th></tr><tr><td style='padding-right:8px;'>Ryan Clancy</td><td style='text-align:right;padding-right:8px;'>19</td><td style='text-align:right;'>1.0%</td></tr><tr><td style='padding-right:8px;'>Bridget Maniaci</td><td style='text-align:right;padding-right:8px;'>90</td><td style='text-align:right;'>4.7%</td></tr><tr><td style='padding-right:8px;'>write-in:</td><td style='text-align:right;padding-right:8px;'>14</td><td style='text-align:right;'>0.7%</td></tr></table></div>" }, "geometry": { "type": "Point", "coordinates": [ -87.88004861983444, 43.066070441166069 ] } },
{ "type": "Feature", "properties": { "ward": "City of Milwaukee Ward 122", "candidate": "Ryan Clancy", "votes": 91.0, "color": "#E41A1C", "popup": "<div><strong>City of Milwaukee Ward 122</strong><div><strong>Representative to the Assembly, District 19</strong><table style='border-collapse:collapse;margin-top:4px;'><tr><th></th><th style='text-align:right;padding-right:8px;'>Votes</th><th style='text-align:right;'>Percent</th></tr><tr><td style='padding-right:8px;'>Ryan Clancy</td><td style='text-align:right;padding-right:8px;'>91</td><td style='text-align:right;'>4.3%</td></tr><tr><td style='padding-right:8px;'>Bridget Maniaci</td><td style='text-align:right;padding-right:8px;'>21</td><td style='text-align:right;'>1.0%</td></tr><tr><td style='padding-right:8px;'>write-in:</td><td style='text-align:right;padding-right:8px;'>1</td><td style='text-align:right;'>0.0%</td></tr></table></div>" }, "geometry": { "type": "Point", "coordinates": [ -87.89522171646594, 43.074203704562699 ] } },
{ "type": "Feature", "properties": { "ward": "City of Milwaukee Ward 236", "candidate": "Ryan Clancy", "votes": 93.0, "color": "#E41A1C", "popup": "<div><strong>City of Milwaukee Ward 236</strong><div><strong>Representative to the Assembly, District 19</strong><table style='border-collapse:collapse;margin-top:4px;'><tr><th></th><th style='text-align:right;padding-right:8px;'>Votes</th><th style='text-align:right;'>Percent</th></tr><tr><td style='padding-right:8px;'>Ryan Clancy</td><td style='text-align:right;padding-right:8px;'>93</td><td style='text-align:right;'>3.8%</td></tr><tr><td style='padding-right:8px;'>Bridget Maniaci</td><td style='text-align:right;padding-right:8px;'>6</td><td style='text-align:right;'>0.2%</td></tr><tr><td style='padding-right:8px;'>write-in:</td><td style='text-align:right;padding-right:8px;'>5</td><td style='text-align:right;'>0.2%</td></tr></table></div>" }, "geometry": { "type": "Point", "coordinates": [ -87.899486211503771, 43.008079908184577 ] } },
{ "type": "Feature", "properties": { "ward": "City of Milwaukee Ward 177", "candidate": "Ryan Clancy", "votes": 97.0, "color": "#E41A1C", "popup": "<div><strong>City of Milwaukee Ward 177</strong><div><strong>Representative to the Assembly, District 19</strong><table style='border-collapse:collapse;margin-top:4px;'><tr><th></th><th style='text-align:right;padding-right:8px;'>Votes</th><th style='text-align:right;'>Percent</th></tr><tr><td style='padding-right:8px;'>Ryan Clancy</td><td style='text-align:right;padding-right:8px;'>97</td><td style='text-align:right;'>5.5%</td></tr><tr><td style='padding-right:8px;'>Bridget Maniaci</td><td style='text-align:right;padding-right:8px;'>18</td><td style='text-align:right;'>1.0%</td></tr><tr><td style='padding-right:8px;'>write-in:</td><td style='text-align:right;padding-right:8px;'>67</td><td style='text-align:right;'>3.8%</td></tr></table></div>" }, "geometry": { "type": "Point", "coordinates": [ -87.893470609177754, 43.045208808165945 ] } },
{ "type": "Feature", "properties": { "ward": "City of Milwaukee Ward 179", "candidate": "Bridget Maniaci", "votes": 100.0, "color": "#377EB8", "popup": "<div><strong>City of Milwaukee Ward 179</strong><div><strong>Representative to the Assembly, District 19</strong><table style='border-collapse:collapse;margin-top:4px;'><tr><th></th><th style='text-align:right;padding-right:8px;'>Votes</th><th style='text-align:right;'>Percent</th></tr><tr><td style='padding-right:8px;'>Ryan Clancy</td><td style='text-align:right;padding-right:8px;'>6</td><td style='text-align:right;'>0.3%</td></tr><tr><td style='padding-right:8px;'>Bridget Maniaci</td><td style='text-align:right;padding-right:8px;'>100</td><td style='text-align:right;'>4.7%</td></tr><tr><td style='padding-right:8px;'>write-in:</td><td style='text-align:right;padding-right:8px;'>21</td><td style='text-align:right;'>1.0%</td></tr></table></div>" }, "geometry": { "type": "Point", "coordinates": [ -87.904750049116984, 43.051994454002063 ] } },
{ "type": "Feature", "properties": { "ward": "City of Milwaukee Ward 162", "candidate": "write-in:", "votes": 112.0, "color": "#4DAF4A", "popup": "<div><strong>City of Milwaukee Ward 162</strong><div><strong>Representative to the Assembly, District 19</strong><table style='border-collapse:collapse;margin-top:4px;'><tr><th></th><th style='text-align:right;padding-right:8px;'>Votes</th><th style='text-align:right;'>Percent</th></tr><tr><td style='padding-right:8px;'>Ryan Clancy</td><td style='text-align:right;padding-right:8px;'>50</td><td style='text-align:right;'>2.3%</td></tr><tr><td style='padding-right:8px;'>Bridget Maniaci</td><td style='text-align:right;padding-right:8px;'>6</td><td style='text-align:right;'>0.3%</td></tr><tr><td style='padding-right:8px;'>write-in:</td><td style='text-align:right;padding-right:8px;'>112</td><td style='text-align:right;'>5.3%</td></tr></table></div>" }, "geometry": { "type": "Point", "coordinates": [ -87.90717671852552, 43.049569198077968 ] } }
]
}
