{
"type": "FeatureCollection",
"name": "candidate-votes",
"crs": { "type": "name", "properties": { "name": "urn:ogc:def:crs:OGC:1.3:CRS84" } },
"features": [
{ "type": "Feature", "properties": { "ward": "City of Wauwatosa Ward 1", "candidate": "Amy Zimmerman", "votes": 0.0, "color": "#E41A1C", "popup": "<div><strong>City of Wauwatosa Ward 1</strong><div><strong>Representative to the Assembly, District 13</strong><table style='border-collapse:collapse;margin-top:4px;'><tr><th></th><th style='text-align:right;padding-right:8px;'>Votes</th><th style='text-align:right;'>Percent</th></tr><tr><td style='padding-right:8px;'>Amy Zimmerman</td><td style='text-align:right;padding-right:8px;'>0</td><td style='text-align:right;'>NaN%</td></tr><tr><td style='padding-right:8px;'>David Sanchez</td><td style='text-align:right;padding-right:8px;'>0</td><td style='text-align:right;'>NaN%</td></tr><tr><td style='padding-right:8px;'>write-in:</td><td style='text-align:right;padding-right:8px;'>0</td><td style='text-align:right;'>NaN%</td></tr></table></div>" }, "geometry": { "type": "Point", "coordinates": [ -87.999633366210546, 43.057978415447174 ] } },
{ "type": "Feature", "properties": { "ward": "City of Wauwatosa Ward 1", "candidate": "David Sanchez", "votes": 0.0, "color": "#377EB8", "popup": "<div><strong>City of Wauwatosa Ward 1</strong><div><strong>Representative to the Assembly, District 13</strong><table style='border-collapse:collapse;margin-top:4px;'><tr><th></th><th style='text-align:right;padding-right:8px;'>Votes</th><th style='text-align:right;'>Percent</th></tr><tr><td style='padding-right:8px;'>Amy Zimmerman</td><td style='text-align:right;padding-right:8px;'>0</td><td style='text-align:right;'>NaN%</td></tr><tr><td style='padding-right:8px;'>David Sanchez</td><td style='text-align:right;padding-right:8px;'>0</td><td style='text-align:right;'>NaN%</td></tr><tr><td style='padding-right:8px;'>write-in:</td><td style='text-align:right;padding-right:8px;'>0</td><td style='text-align:right;'>NaN%</td></tr></table></div>" }, "geometry": { "type": "Point", "coordinates": [ -87.999633366210546, 43.057978415447174 ] } },
{ "type": "Feature", "properties": { "ward": "City of Wauwatosa Ward 1", "candidate": "write-in:", "votes": 0.0, "color": "#4DAF4A", "popup": "<div><strong>City of Wauwatosa Ward 1</strong><div><strong>Representative to the Assembly, District 13</strong><table style='border-collapse:collapse;margin-top:4px;'><tr><th></th><th style='text-align:right;padding-right:8px;'>Votes</th><th style='text-align:right;'>Percent</th></tr><tr><td style='padding-right:8px;'>Amy Zimmerman</td><td style='text-align:right;padding-right:8px;'>0</td><td style='text-align:right;'>NaN%</td></tr><tr><td style='padding-right:8px;'>David Sanchez</td><td style='text-align:right;padding-right:8px;'>0</td><td style='text-align:right;'>NaN%</td></tr><tr><td style='padding-right:8px;'>write-in:</td><td style='text-align:right;padding-right:8px;'>0</td><td style='text-align:right;'>NaN%</td></tr></table></div>" }, "geometry": { "type": "Point", "coordinates": [ -87.999633366210546, 43.057978415447174 ] } },
{ "type": "Feature", "properties": { "ward": "City of Wauwatosa Ward 2A", "candidate": "Amy Zimmerman", "votes": 0.0, "color": "#E41A1C", "popup": "<div><strong>City of Wauwatosa Ward 2A</strong><div><strong>Representative to the Assembly, District 13</strong><table style='border-collapse:collapse;margin-top:4px;'><tr><th></th><th style='text-align:right;padding-right:8px;'>Votes</th><th style='text-align:right;'>Percent</th></tr><tr><td style='padding-right:8px;'>Amy Zimmerman</td><td style='text-align:right;padding-right:8px;'>0</td><td style='text-align:right;'>NaN%</td></tr><tr><td style='padding-right:8px;'>David Sanchez</td><td style='text-align:right;padding-right:8px;'>0</td><td style='text-align:right;'>NaN%</td></tr><tr><td style='padding-right:8px;'>write-in:</td><td style='text-align:right;padding-right:8px;'>0</td><td style='text-align:right;'>NaN%</td></tr></table></div>" }, "geometry": { "type": "Point", "coordinates": [ -87.991634651339879, 43.053889962755008 ] } },
{ "type": "Feature", "properties": { "ward": "City of Wauwatosa Ward 2A", "candidate": "David Sanchez", "votes": 0.0, "color": "#377EB8", "popup": "<div><strong>City of Wauwatosa Ward 2A</strong><div><strong>Representative to the Assembly, District 13</strong><table style='border-collapse:collapse;margin-top:4px;'><tr><th></th><th style='text-align:right;padding-right:8px;'>Votes</th><th style='text-align:right;'>Percent</th></tr><tr><td style='padding-right:8px;'>Amy Zimmerman</td><td style='text-align:right;padding-right:8px;'>0</td><td style='text-align:right;'>NaN%</td></tr><tr><td style='padding-right:8px;'>David Sanchez</td><td style='text-align:right;padding-right:8px;'>0</td><td style='text-align:right;'>NaN%</td></tr><tr><td style='padding-right:8px;'>write-in:</td><td style='text-align:right;padding-right:8px;'>0</td><td style='text-align:right;'>NaN%</td></tr></table></div>" }, "geometry": { "type": "Point", "coordinates": [ -87.991634651339879, 43.053889962755008 ] } },
{ "type": "Feature", "properties": { "ward": "City of Wauwatosa Ward 2A", "candidate": "write-in:", "votes": 0.0, "color": "#4DAF4A", "popup": "<div><strong>City of Wauwatosa Ward 2A</strong><div><strong>Representative to the Assembly, District 13</strong><table style='border-collapse:collapse;margin-top:4px;'><tr><th></th><th style='text-align:right;padding-right:8px;'>Votes</th><th style='text-align:right;'>Percent</th></tr><tr><td style='padding-right:8px;'>Amy Zimmerman</td><td style='text-align:right;padding-right:8px;'>0</td><td style='text-align:right;'>NaN%</td></tr><tr><td style='padding-right:8px;'>David Sanchez</td><td style='text-align:right;padding-right:8px;'>0</td><td style='text-align:right;'>NaN%</td></tr><tr><td style='padding-right:8px;'>write-in:</td><td style='text-align:right;padding-right:8px;'>0</td><td style='text-align:right;'>NaN%</td></tr></table></div>" }, "geometry": { "type": "Point", "coordinates": [ -87.991634651339879, 43.053889962755008 ] } },
{ "type": "Feature", "properties": { "ward": "City of Wauwatosa Ward 4B", "candidate": "Amy Zimmerman", "votes": 0.0, "color": "#E41A1C", "popup": "<div><strong>City of Wauwatosa Ward 4B</strong><div><strong>Representative to the Assembly, District 13</strong><table style='border-collapse:collapse;margin-top:4px;'><tr><th></th><th style='text-align:right;padding-right:8px;'>Votes</th><th style='text-align:right;'>Percent</th></tr><tr><td style='padding-right:8px;'>Amy Zimmerman</td><td style='text-align:right;padding-right:8px;'>0</td><td style='text-align:right;'>NaN%</td></tr><tr><td style='padding-right:8px;'>David Sanchez</td><td style='text-align:right;padding-right:8px;'>0</td><td style='text-align:right;'>NaN%</td></tr><tr><td style='padding-right:8px;'>write-in:</td><td style='text-align:right;padding-right:8px;'>0</td><td style='text-align:right;'>NaN%</td></tr></table></div>" }, "geometry": { "type": "Point", "coordinates": [ -88.005022086750273, 43.053481398966277 ] } },
{ "type": "Feature", "properties": { "ward": "City of Wauwatosa Ward 4B", "candidate": "David Sanchez", "votes": 0.0, "color": "#377EB8", "popup": "<div><strong>City of Wauwatosa Ward 4B</strong><div><strong>Representative to the Assembly, District 13</strong><table style='border-collapse:collapse;margin-top:4px;'><tr><th></th><th style='text-align:right;padding-right:8px;'>Votes</th><th style='text-align:right;'>Percent</th></tr><tr><td style='padding-right:8px;'>Amy Zimmerman</td><td style='text-align:right;padding-right:8px;'>0</td><td style='text-align:right;'>NaN%</td></tr><tr><td style='padding-right:8px;'>David Sanchez</td><td style='text-align:right;padding-right:8px;'>0</td><td style='text-align:right;'>NaN%</td></tr><tr><td style='padding-right:8px;'>write-in:</td><td style='text-align:right;padding-right:8px;'>0</td><td style='text-align:right;'>NaN%</td></tr></table></div>" }, "geometry": { "type": "Point", "coordinates": [ -88.005022086750273, 43.053481398966277 ] } },
{ "type": "Feature", "properties": { "ward": "City of Wauwatosa Ward 4B", "candidate": "write-in:", "votes": 0.0, "color": "#4DAF4A", "popup": "<div><strong>City of Wauwatosa Ward 4B</strong><div><strong>Representative to the Assembly, District 13</strong><table style='border-collapse:collapse;margin-top:4px;'><tr><th></th><th style='text-align:right;padding-right:8px;'>Votes</th><th style='text-align:right;'>Percent</th></tr><tr><td style='padding-right:8px;'>Amy Zimmerman</td><td style='text-align:right;padding-right:8px;'>0</td><td style='text-align:right;'>NaN%</td></tr><tr><td style='padding-right:8px;'>David Sanchez</td><td style='text-align:right;padding-right:8px;'>0</td><td style='text-align:right;'>NaN%</td></tr><tr><td style='padding-right:8px;'>write-in:</td><td style='text-align:right;padding-right:8px;'>0</td><td style='text-align:right;'>NaN%</td></tr></table></div>" }, "geometry": { "type": "Point", "coordinates": [ -88.005022086750273, 43.053481398966277 ] } },
{ "type": "Feature", "properties": { "ward": "City of Wauwatosa Ward 5", "candidate": "Amy Zimmerman", "votes": 0.0, "color": "#E41A1C", "popup": "<div><strong>City of Wauwatosa Ward 5</strong><div><strong>Representative to the Assembly, District 13</strong><table style='border-collapse:collapse;margin-top:4px;'><tr><th></th><th style='text-align:right;padding-right:8px;'>Votes</th><th style='text-align:right;'>Percent</th></tr><tr><td style='padding-right:8px;'>Amy Zimmerman</td><td style='text-align:right;padding-right:8px;'>0</td><td style='text-align:right;'>NaN%</td></tr><tr><td style='padding-right:8px;'>David Sanchez</td><td style='text-align:right;padding-right:8px;'>0</td><td style='text-align:right;'>NaN%</td></tr><tr><td style='padding-right:8px;'>write-in:</td><td style='text-align:right;padding-right:8px;'>0</td><td style='text-align:right;'>NaN%</td></tr></table></div>" }, "geometry": { "type": "Point", "coordinates": [ -88.012457029628294, 43.054901653295836 ] } },
{ "type": "Feature", "properties": { "ward": "City of Wauwatosa Ward 5", "candidate": "David Sanchez", "votes": 0.0, "color": "#377EB8", "popup": "<div><strong>City of Wauwatosa Ward 5</strong><div><strong>Representative to the Assembly, District 13</strong><table style='border-collapse:collapse;margin-top:4px;'><tr><th></th><th style='text-align:right;padding-right:8px;'>Votes</th><th style='text-align:right;'>Percent</th></tr><tr><td style='padding-right:8px;'>Amy Zimmerman</td><td style='text-align:right;padding-right:8px;'>0</td><td style='text-align:right;'>NaN%</td></tr><tr><td style='padding-right:8px;'>David Sanchez</td><td style='text-align:right;padding-right:8px;'>0</td><td style='text-align:right;'>NaN%</td></tr><tr><td style='padding-right:8px;'>write-in:</td><td style='text-align:right;padding-right:8px;'>0</td><td style='text-align:right;'>NaN%</td></tr></table></div>" }, "geometry": { "type": "Point", "coordinates": [ -88.012457029628294, 43.054901653295836 ] } },
{ "type": "Feature", "properties": { "ward": "City of Wauwatosa Ward 5", "candidate": "write-in:", "votes": 0.0, "color": "#4DAF4A", "popup": "<div><strong>City of Wauwatosa Ward 5</strong><div><strong>Representative to the Assembly, District 13</strong><table style='border-collapse:collapse;margin-top:4px;'><tr><th></th><th style='text-align:right;padding-right:8px;'>Votes</th><th style='text-align:right;'>Percent</th></tr><tr><td style='padding-right:8px;'>Amy Zimmerman</td><td style='text-align:right;padding-right:8px;'>0</td><td style='text-align:right;'>NaN%</td></tr><tr><td style='padding-right:8px;'>David Sanchez</td><td style='text-align:right;padding-right:8px;'>0</td><td style='text-align:right;'>NaN%</td></tr><tr><td style='padding-right:8px;'>write-in:</td><td style='text-align:right;padding-right:8px;'>0</td><td style='text-align:right;'>NaN%</td></tr></table></div>" }, "geometry": { "type": "Point", "coordinates": [ -88.012457029628294, 43.054901653295836 ] } },
{ "type": "Feature", "properties": { "ward": "City of Wauwatosa Ward 6A", "candidate": "Amy Zimmerman", "votes": 0.0, "color": "#E41A1C", "popup": "<div><strong>City of Wauwatosa Ward 6A</strong><div><strong>Representative to the Assembly, District 13</strong><table style='border-collapse:collapse;margin-top:4px;'><tr><th></th><th style='text-align:right;padding-right:8px;'>Votes</th><th style='text-align:right;'>Percent</th></tr><tr><td style='padding-right:8px;'>Amy Zimmerman</td><td style='text-align:right;padding-right:8px;'>0</td><td style='text-align:right;'>NaN%</td></tr><tr><td style='padding-right:8px;'>David Sanchez</td><td style='text-align:right;padding-right:8px;'>0</td><td style='text-align:right;'>NaN%</td></tr><tr><td style='padding-right:8px;'>write-in:</td><td style='text-align:right;padding-right:8px;'>0</td><td style='text-align:right;'>NaN%</td></tr></table></div>" }, "geometry": { "type": "Point", "coordinates": [ -88.025219652332467, 43.04976152035232 ] } },
{ "type": "Feature", "properties": { "ward": "City of Wauwatosa Ward 6A", "candidate": "David Sanchez", "votes": 0.0, "color": "#377EB8", "popup": "<div><strong>City of Wauwatosa Ward 6A</strong><div><strong>Representative to the Assembly, District 13</strong><table style='border-collapse:collapse;margin-top:4px;'><tr><th></th><th style='text-align:right;padding-right:8px;'>Votes</th><th style='text-align:right;'>Percent</th></tr><tr><td style='padding-right:8px;'>Amy Zimmerman</td><td style='text-align:right;padding-right:8px;'>0</td><td style='text-align:right;'>NaN%</td></tr><tr><td style='padding-right:8px;'>David Sanchez</td><td style='text-align:right;padding-right:8px;'>0</td><td style='text-align:right;'>NaN%</td></tr><tr><td style='padding-right:8px;'>write-in:</td><td style='text-align:right;padding-right:8px;'>0</td><td style='text-align:right;'>NaN%</td></tr></table></div>" }, "geometry": { "type": "Point", "coordinates": [ -88.025219652332467, 43.04976152035232 ] } },
{ "type": "Feature", "properties": { "ward": "City of Wauwatosa Ward 6A", "candidate": "write-in:", "votes": 0.0, "color": "#4DAF4A", "popup": "<div><strong>City of Wauwatosa Ward 6A</strong><div><strong>Representative to the Assembly, District 13</strong><table style='border-collapse:collapse;margin-top:4px;'><tr><th></th><th style='text-align:right;padding-right:8px;'>Votes</th><th style='text-align:right;'>Percent</th></tr><tr><td style='padding-right:8px;'>Amy Zimmerman</td><td style='text-align:right;padding-right:8px;'>0</td><td style='text-align:right;'>NaN%</td></tr><tr><td style='padding-right:8px;'>David Sanchez</td><td style='text-align:right;padding-right:8px;'>0</td><td style='text-align:right;'>NaN%</td></tr><tr><td style='padding-right:8px;'>write-in:</td><td style='text-align:right;padding-right:8px;'>0</td><td style='text-align:right;'>NaN%</td></tr></table></div>" }, "geometry": { "type": "Point", "coordinates": [ -88.025219652332467, 43.04976152035232 ] } },
{ "type": "Feature", "properties": { "ward": "City of Wauwatosa Ward 7A", "candidate": "Amy Zimmerman", "votes": 0.0, "color": "#E41A1C", "popup": "<div><strong>City of Wauwatosa Ward 7A</strong><div><strong>Representative to the Assembly, District 13</strong><table style='border-collapse:collapse;margin-top:4px;'><tr><th></th><th style='text-align:right;padding-right:8px;'>Votes</th><th style='text-align:right;'>Percent</th></tr><tr><td style='padding-right:8px;'>Amy Zimmerman</td><td style='text-align:right;padding-right:8px;'>0</td><td style='text-align:right;'>NaN%</td></tr><tr><td style='padding-right:8px;'>David Sanchez</td><td style='text-align:right;padding-right:8px;'>0</td><td style='text-align:right;'>NaN%</td></tr><tr><td style='padding-right:8px;'>write-in:</td><td style='text-align:right;padding-right:8px;'>0</td><td style='text-align:right;'>NaN%</td></tr></table></div>" }, "geometry": { "type": "Point", "coordinates": [ -88.040078802452967, 43.040138499793024 ] } },
{ "type": "Feature", "properties": { "ward": "City of Wauwatosa Ward 7A", "candidate": "David Sanchez", "votes": 0.0, "color": "#377EB8", "popup": "<div><strong>City of Wauwatosa Ward 7A</strong><div><strong>Representative to the Assembly, District 13</strong><table style='border-collapse:collapse;margin-top:4px;'><tr><th></th><th style='text-align:right;padding-right:8px;'>Votes</th><th style='text-align:right;'>Percent</th></tr><tr><td style='padding-right:8px;'>Amy Zimmerman</td><td style='text-align:right;padding-right:8px;'>0</td><td style='text-align:right;'>NaN%</td></tr><tr><td style='padding-right:8px;'>David Sanchez</td><td style='text-align:right;padding-right:8px;'>0</td><td style='text-align:right;'>NaN%</td></tr><tr><td style='padding-right:8px;'>write-in:</td><td style='text-align:right;padding-right:8px;'>0</td><td style='text-align:right;'>NaN%</td></tr></table></div>" }, "geometry": { "type": "Point", "coordinates": [ -88.040078802452967, 43.040138499793024 ] } },
{ "type": "Feature", "properties": { "ward": "City of Wauwatosa Ward 7A", "candidate": "write-in:", "votes": 0.0, "color": "#4DAF4A", "popup": "<div><strong>City of Wauwatosa Ward 7A</strong><div><strong>Representative to the Assembly, District 13</strong><table style='border-collapse:collapse;margin-top:4px;'><tr><th></th><th style='text-align:right;padding-right:8px;'>Votes</th><th style='text-align:right;'>Percent</th></tr><tr><td style='padding-right:8px;'>Amy Zimmerman</td><td style='text-align:right;padding-right:8px;'>0</td><td style='text-align:right;'>NaN%</td></tr><tr><td style='padding-right:8px;'>David Sanchez</td><td style='text-align:right;padding-right:8px;'>0</td><td style='text-align:right;'>NaN%</td></tr><tr><td style='padding-right:8px;'>write-in:</td><td style='text-align:right;padding-right:8px;'>0</td><td style='text-align:right;'>NaN%</td></tr></table></div>" }, "geometry": { "type": "Point", "coordinates": [ -88.040078802452967, 43.040138499793024 ] } },
{ "type": "Feature", "properties": { "ward": "City of Wauwatosa Ward 8A", "candidate": "Amy Zimmerman", "votes": 0.0, "color": "#E41A1C", "popup": "<div><strong>City of Wauwatosa Ward 8A</strong><div><strong>Representative to the Assembly, District 13</strong><table style='border-collapse:collapse;margin-top:4px;'><tr><th></th><th style='text-align:right;padding-right:8px;'>Votes</th><th style='text-align:right;'>Percent</th></tr><tr><td style='padding-right:8px;'>Amy Zimmerman</td><td style='text-align:right;padding-right:8px;'>0</td><td style='text-align:right;'>NaN%</td></tr><tr><td style='padding-right:8px;'>David Sanchez</td><td style='text-align:right;padding-right:8px;'>0</td><td style='text-align:right;'>NaN%</td></tr><tr><td style='padding-right:8px;'>write-in:</td><td style='text-align:right;padding-right:8px;'>0</td><td style='text-align:right;'>NaN%</td></tr></table></div>" }, "geometry": { "type": "Point", "coordinates": [ -88.061647914711003, 43.03872638211454 ] } },
{ "type": "Feature", "properties": { "ward": "City of Wauwatosa Ward 8A", "candidate": "David Sanchez", "votes": 0.0, "color": "#377EB8", "popup": "<div><strong>City of Wauwatosa Ward 8A</strong><div><strong>Representative to the Assembly, District 13</strong><table style='border-collapse:collapse;margin-top:4px;'><tr><th></th><th style='text-align:right;padding-right:8px;'>Votes</th><th style='text-align:right;'>Percent</th></tr><tr><td style='padding-right:8px;'>Amy Zimmerman</td><td style='text-align:right;padding-right:8px;'>0</td><td style='text-align:right;'>NaN%</td></tr><tr><td style='padding-right:8px;'>David Sanchez</td><td style='text-align:right;padding-right:8px;'>0</td><td style='text-align:right;'>NaN%</td></tr><tr><td style='padding-right:8px;'>write-in:</td><td style='text-align:right;padding-right:8px;'>0</td><td style='text-align:right;'>NaN%</td></tr></table></div>" }, "geometry": { "type": "Point", "coordinates": [ -88.061647914711003, 43.03872638211454 ] } },
{ "type": "Feature", "properties": { "ward": "City of Wauwatosa Ward 8A", "candidate": "write-in:", "votes": 0.0, "color": "#4DAF4A", "popup": "<div><strong>City of Wauwatosa Ward 8A</strong><div><strong>Representative to the Assembly, District 13</strong><table style='border-collapse:collapse;margin-top:4px;'><tr><th></th><th style='text-align:right;padding-right:8px;'>Votes</th><th style='text-align:right;'>Percent</th></tr><tr><td style='padding-right:8px;'>Amy Zimmerman</td><td style='text-align:right;padding-right:8px;'>0</td><td style='text-align:right;'>NaN%</td></tr><tr><td style='padding-right:8px;'>David Sanchez</td><td style='text-align:right;padding-right:8px;'>0</td><td style='text-align:right;'>NaN%</td></tr><tr><td style='padding-right:8px;'>write-in:</td><td style='text-align:right;padding-right:8px;'>0</td><td style='text-align:right;'>NaN%</td></tr></table></div>" }, "geometry": { "type": "Point", "coordinates": [ -88.061647914711003, 43.03872638211454 ] } },
{ "type": "Feature", "properties": { "ward": "City of Wauwatosa Ward 9", "candidate": "Amy Zimmerman", "votes": 0.0, "color": "#E41A1C", "popup": "<div><strong>City of Wauwatosa Ward 9</strong><div><strong>Representative to the Assembly, District 13</strong><table style='border-collapse:collapse;margin-top:4px;'><tr><th></th><th style='text-align:right;padding-right:8px;'>Votes</th><th style='text-align:right;'>Percent</th></tr><tr><td style='padding-right:8px;'>Amy Zimmerman</td><td style='text-align:right;padding-right:8px;'>0</td><td style='text-align:right;'>NaN%</td></tr><tr><td style='padding-right:8px;'>David Sanchez</td><td style='text-align:right;padding-right:8px;'>0</td><td style='text-align:right;'>NaN%</td></tr><tr><td style='padding-right:8px;'>write-in:</td><td style='text-align:right;padding-right:8px;'>0</td><td style='text-align:right;'>NaN%</td></tr></table></div>" }, "geometry": { "type": "Point", "coordinates": [ -88.060906893322169, 43.048287636216685 ] } },
{ "type": "Feature", "properties": { "ward": "City of Wauwatosa Ward 9", "candidate": "David Sanchez", "votes": 0.0, "color": "#377EB8", "popup": "<div><strong>City of Wauwatosa Ward 9</strong><div><strong>Representative to the Assembly, District 13</strong><table style='border-collapse:collapse;margin-top:4px;'><tr><th></th><th style='text-align:right;padding-right:8px;'>Votes</th><th style='text-align:right;'>Percent</th></tr><tr><td style='padding-right:8px;'>Amy Zimmerman</td><td style='text-align:right;padding-right:8px;'>0</td><td style='text-align:right;'>NaN%</td></tr><tr><td style='padding-right:8px;'>David Sanchez</td><td style='text-align:right;padding-right:8px;'>0</td><td style='text-align:right;'>NaN%</td></tr><tr><td style='padding-right:8px;'>write-in:</td><td style='text-align:right;padding-right:8px;'>0</td><td style='text-align:right;'>NaN%</td></tr></table></div>" }, "geometry": { "type": "Point", "coordinates": [ -88.060906893322169, 43.048287636216685 ] } },
{ "type": "Feature", "properties": { "ward": "City of Wauwatosa Ward 9", "candidate": "write-in:", "votes": 0.0, "color": "#4DAF4A", "popup": "<div><strong>City of Wauwatosa Ward 9</strong><div><strong>Representative to the Assembly, District 13</strong><table style='border-collapse:collapse;margin-top:4px;'><tr><th></th><th style='text-align:right;padding-right:8px;'>Votes</th><th style='text-align:right;'>Percent</th></tr><tr><td style='padding-right:8px;'>Amy Zimmerman</td><td style='text-align:right;padding-right:8px;'>0</td><td style='text-align:right;'>NaN%</td></tr><tr><td style='padding-right:8px;'>David Sanchez</td><td style='text-align:right;padding-right:8px;'>0</td><td style='text-align:right;'>NaN%</td></tr><tr><td style='padding-right:8px;'>write-in:</td><td style='text-align:right;padding-right:8px;'>0</td><td style='text-align:right;'>NaN%</td></tr></table></div>" }, "geometry": { "type": "Point", "coordinates": [ -88.060906893322169, 43.048287636216685 ] } },
{ "type": "Feature", "properties": { "ward": "City of Wauwatosa Ward 12A", "candidate": "Amy Zimmerman", "votes": 0.0, "color": "#E41A1C", "popup": "<div><strong>City of Wauwatosa Ward 12A</strong><div><strong>Representative to the Assembly, District 13</strong><table style='border-collapse:collapse;margin-top:4px;'><tr><th></th><th style='text-align:right;padding-right:8px;'>Votes</th><th style='text-align:right;'>Percent</th></tr><tr><td style='padding-right:8px;'>Amy Zimmerman</td><td style='text-align:right;padding-right:8px;'>0</td><td style='text-align:right;'>NaN%</td></tr><tr><td style='padding-right:8px;'>David Sanchez</td><td style='text-align:right;padding-right:8px;'>0</td><td style='text-align:right;'>NaN%</td></tr><tr><td style='padding-right:8px;'>write-in:</td><td style='text-align:right;padding-right:8px;'>0</td><td style='text-align:right;'>NaN%</td></tr></table></div>" }, "geometry": { "type": "Point", "coordinates": [ -88.024291910549792, 43.042027569062768 ] } },
{ "type": "Feature", "properties": { "ward": "City of Wauwatosa Ward 12A", "candidate": "David Sanchez", "votes": 0.0, "color": "#377EB8", "popup": "<div><strong>City of Wauwatosa Ward 12A</strong><div><strong>Representative to the Assembly, District 13</strong><table style='border-collapse:collapse;margin-top:4px;'><tr><th></th><th style='text-align:right;padding-right:8px;'>Votes</th><th style='text-align:right;'>Percent</th></tr><tr><td style='padding-right:8px;'>Amy Zimmerman</td><td style='text-align:right;padding-right:8px;'>0</td><td style='text-align:right;'>NaN%</td></tr><tr><td style='padding-right:8px;'>David Sanchez</td><td style='text-align:right;padding-right:8px;'>0</td><td style='text-align:right;'>NaN%</td></tr><tr><td style='padding-right:8px;'>write-in:</td><td style='text-align:right;padding-right:8px;'>0</td><td style='text-align:right;'>NaN%</td></tr></table></div>" }, "geometry": { "type": "Point", "coordinates": [ -88.024291910549792, 43.042027569062768 ] } },
{ "type": "Feature", "properties": { "ward": "City of Wauwatosa Ward 12A", "candidate": "write-in:", "votes": 0.0, "color": "#4DAF4A", "popup": "<div><strong>City of Wauwatosa Ward 12A</strong><div><strong>Representative to the Assembly, District 13</strong><table style='border-collapse:collapse;margin-top:4px;'><tr><th></th><th style='text-align:right;padding-right:8px;'>Votes</th><th style='text-align:right;'>Percent</th></tr><tr><td style='padding-right:8px;'>Amy Zimmerman</td><td style='text-align:right;padding-right:8px;'>0</td><td style='text-align:right;'>NaN%</td></tr><tr><td style='padding-right:8px;'>David Sanchez</td><td style='text-align:right;padding-right:8px;'>0</td><td style='text-align:right;'>NaN%</td></tr><tr><td style='padding-right:8px;'>write-in:</td><td style='text-align:right;padding-right:8px;'>0</td><td style='text-align:right;'>NaN%</td></tr></table></div>" }, "geometry": { "type": "Point", "coordinates": [ -88.024291910549792, 43.042027569062768 ] } },
{ "type": "Feature", "properties": { "ward": "City of Wauwatosa Ward 13", "candidate": "Amy Zimmerman", "votes": 0.0, "color": "#E41A1C", "popup": "<div><strong>City of Wauwatosa Ward 13</strong><div><strong>Representative to the Assembly, District 13</strong><table style='border-collapse:collapse;margin-top:4px;'><tr><th></th><th style='text-align:right;padding-right:8px;'>Votes</th><th style='text-align:right;'>Percent</th></tr><tr><td style='padding-right:8px;'>Amy Zimmerman</td><td style='text-align:right;padding-right:8px;'>0</td><td style='text-align:right;'>NaN%</td></tr><tr><td style='padding-right:8px;'>David Sanchez</td><td style='text-align:right;padding-right:8px;'>0</td><td style='text-align:right;'>NaN%</td></tr><tr><td style='padding-right:8px;'>write-in:</td><td style='text-align:right;padding-right:8px;'>0</td><td style='text-align:right;'>NaN%</td></tr></table></div>" }, "geometry": { "type": "Point", "coordinates": [ -87.992598142931968, 43.063389405337794 ] } },
{ "type": "Feature", "properties": { "ward": "City of Wauwatosa Ward 13", "candidate": "David Sanchez", "votes": 0.0, "color": "#377EB8", "popup": "<div><strong>City of Wauwatosa Ward 13</strong><div><strong>Representative to the Assembly, District 13</strong><table style='border-collapse:collapse;margin-top:4px;'><tr><th></th><th style='text-align:right;padding-right:8px;'>Votes</th><th style='text-align:right;'>Percent</th></tr><tr><td style='padding-right:8px;'>Amy Zimmerman</td><td style='text-align:right;padding-right:8px;'>0</td><td style='text-align:right;'>NaN%</td></tr><tr><td style='padding-right:8px;'>David Sanchez</td><td style='text-align:right;padding-right:8px;'>0</td><td style='text-align:right;'>NaN%</td></tr><tr><td style='padding-right:8px;'>write-in:</td><td style='text-align:right;padding-right:8px;'>0</td><td style='text-align:right;'>NaN%</td></tr></table></div>" }, "geometry": { "type": "Point", "coordinates": [ -87.992598142931968, 43.063389405337794 ] } },
{ "type": "Feature", "properties": { "ward": "City of Wauwatosa Ward 13", "candidate": "write-in:", "votes": 0.0, "color": "#4DAF4A", "popup": "<div><strong>City of Wauwatosa Ward 13</strong><div><strong>Representative to the Assembly, District 13</strong><table style='border-collapse:collapse;margin-top:4px;'><tr><th></th><th style='text-align:right;padding-right:8px;'>Votes</th><th style='text-align:right;'>Percent</th></tr><tr><td style='padding-right:8px;'>Amy Zimmerman</td><td style='text-align:right;padding-right:8px;'>0</td><td style='text-align:right;'>NaN%</td></tr><tr><td style='padding-right:8px;'>David Sanchez</td><td style='text-align:right;padding-right:8px;'>0</td><td style='text-align:right;'>NaN%</td></tr><tr><td style='padding-right:8px;'>write-in:</td><td style='text-align:right;padding-right:8px;'>0</td><td style='text-align:right;'>NaN%</td></tr></table></div>" }, "geometry": { "type": "Point", "coordinates": [ -87.992598142931968, 43.063389405337794 ] } },
{ "type": "Feature", "properties": { "ward": "City of Wauwatosa Ward 14", "candidate": "Amy Zimmerman", "votes": 0.0, "color": "#E41A1C", "popup": "<div><strong>City of Wauwatosa Ward 14</strong><div><strong>Representative to the Assembly, District 13</strong><table style='border-collapse:collapse;margin-top:4px;'><tr><th></th><th style='text-align:right;padding-right:8px;'>Votes</th><th style='text-align:right;'>Percent</th></tr><tr><td style='padding-right:8px;'>Amy Zimmerman</td><td style='text-align:right;padding-right:8px;'>0</td><td style='text-align:right;'>NaN%</td></tr><tr><td style='padding-right:8px;'>David Sanchez</td><td style='text-align:right;padding-right:8px;'>0</td><td style='text-align:right;'>NaN%</td></tr><tr><td style='padding-right:8px;'>write-in:</td><td style='text-align:right;padding-right:8px;'>0</td><td style='text-align:right;'>NaN%</td></tr></table></div>" }, "geometry": { "type": "Point", "coordinates": [ -88.000106489496375, 43.064987240063232 ] } },
{ "type": "Feature", "properties": { "ward": "City of Wauwatosa Ward 14", "candidate": "David Sanchez", "votes": 0.0, "color": "#377EB8", "popup": "<div><strong>City of Wauwatosa Ward 14</strong><div><strong>Representative to the Assembly, District 13</strong><table style='border-collapse:collapse;margin-top:4px;'><tr><th></th><th style='text-align:right;padding-right:8px;'>Votes</th><th style='text-align:right;'>Percent</th></tr><tr><td style='padding-right:8px;'>Amy Zimmerman</td><td style='text-align:right;padding-right:8px;'>0</td><td style='text-align:right;'>NaN%</td></tr><tr><td style='padding-right:8px;'>David Sanchez</td><td style='text-align:right;padding-right:8px;'>0</td><td style='text-align:right;'>NaN%</td></tr><tr><td style='padding-right:8px;'>write-in:</td><td style='text-align:right;padding-right:8px;'>0</td><td style='text-align:right;'>NaN%</td></tr></table></div>" }, "geometry": { "type": "Point", "coordinates": [ -88.000106489496375, 43.064987240063232 ] } },
{ "type": "Feature", "properties": { "ward": "City of Wauwatosa Ward 14", "candidate": "write-in:", "votes": 0.0, "color": "#4DAF4A", "popup": "<div><strong>City of Wauwatosa Ward 14</strong><div><strong>Representative to the Assembly, District 13</strong><table style='border-collapse:collapse;margin-top:4px;'><tr><th></th><th style='text-align:right;padding-right:8px;'>Votes</th><th style='text-align:right;'>Percent</th></tr><tr><td style='padding-right:8px;'>Amy Zimmerman</td><td style='text-align:right;padding-right:8px;'>0</td><td style='text-align:right;'>NaN%</td></tr><tr><td style='padding-right:8px;'>David Sanchez</td><td style='text-align:right;padding-right:8px;'>0</td><td style='text-align:right;'>NaN%</td></tr><tr><td style='padding-right:8px;'>write-in:</td><td style='text-align:right;padding-right:8px;'>0</td><td style='text-align:right;'>NaN%</td></tr></table></div>" }, "geometry": { "type": "Point", "coordinates": [ -88.000106489496375, 43.064987240063232 ] } },
{ "type": "Feature", "properties": { "ward": "City of Wauwatosa Ward 15", "candidate": "Amy Zimmerman", "votes": 0.0, "color": "#E41A1C", "popup": "<div><strong>City of Wauwatosa Ward 15</strong><div><strong>Representative to the Assembly, District 13</strong><table style='border-collapse:collapse;margin-top:4px;'><tr><th></th><th style='text-align:right;padding-right:8px;'>Votes</th><th style='text-align:right;'>Percent</th></tr><tr><td style='padding-right:8px;'>Amy Zimmerman</td><td style='text-align:right;padding-right:8px;'>0</td><td style='text-align:right;'>NaN%</td></tr><tr><td style='padding-right:8px;'>David Sanchez</td><td style='text-align:right;padding-right:8px;'>0</td><td style='text-align:right;'>NaN%</td></tr><tr><td style='padding-right:8px;'>write-in:</td><td style='text-align:right;padding-right:8px;'>0</td><td style='text-align:right;'>NaN%</td></tr></table></div>" }, "geometry": { "type": "Point", "coordinates": [ -88.01017831154013, 43.064125181360126 ] } },
{ "type": "Feature", "properties": { "ward": "City of Wauwatosa Ward 15", "candidate": "David Sanchez", "votes": 0.0, "color": "#377EB8", "popup": "<div><strong>City of Wauwatosa Ward 15</strong><div><strong>Representative to the Assembly, District 13</strong><table style='border-collapse:collapse;margin-top:4px;'><tr><th></th><th style='text-align:right;padding-right:8px;'>Votes</th><th style='text-align:right;'>Percent</th></tr><tr><td style='padding-right:8px;'>Amy Zimmerman</td><td style='text-align:right;padding-right:8px;'>0</td><td style='text-align:right;'>NaN%</td></tr><tr><td style='padding-right:8px;'>David Sanchez</td><td style='text-align:right;padding-right:8px;'>0</td><td style='text-align:right;'>NaN%</td></tr><tr><td style='padding-right:8px;'>write-in:</td><td style='text-align:right;padding-right:8px;'>0</td><td style='text-align:right;'>NaN%</td></tr></table></div>" }, "geometry": { "type": "Point", "coordinates": [ -88.01017831154013, 43.064125181360126 ] } },
{ "type": "Feature", "properties": { "ward": "City of Wauwatosa Ward 15", "candidate": "write-in:", "votes": 0.0, "color": "#4DAF4A", "popup": "<div><strong>City of Wauwatosa Ward 15</strong><div><strong>Representative to the Assembly, District 13</strong><table style='border-collapse:collapse;margin-top:4px;'><tr><th></th><th style='text-align:right;padding-right:8px;'>Votes</th><th style='text-align:right;'>Percent</th></tr><tr><td style='padding-right:8px;'>Amy Zimmerman</td><td style='text-align:right;padding-right:8px;'>0</td><td style='text-align:right;'>NaN%</td></tr><tr><td style='padding-right:8px;'>David Sanchez</td><td style='text-align:right;padding-right:8px;'>0</td><td style='text-align:right;'>NaN%</td></tr><tr><td style='padding-right:8px;'>write-in:</td><td style='text-align:right;padding-right:8px;'>0</td><td style='text-align:right;'>NaN%</td></tr></table></div>" }, "geometry": { "type": "Point", "coordinates": [ -88.01017831154013, 43.064125181360126 ] } },
{ "type": "Feature", "properties": { "ward": "City of Wauwatosa Ward 16", "candidate": "Amy Zimmerman", "votes": 0.0, "color": "#E41A1C", "popup": "<div><strong>City of Wauwatosa Ward 16</strong><div><strong>Representative to the Assembly, District 13</strong><table style='border-collapse:collapse;margin-top:4px;'><tr><th></th><th style='text-align:right;padding-right:8px;'>Votes</th><th style='text-align:right;'>Percent</th></tr><tr><td style='padding-right:8px;'>Amy Zimmerman</td><td style='text-align:right;padding-right:8px;'>0</td><td style='text-align:right;'>NaN%</td></tr><tr><td style='padding-right:8px;'>David Sanchez</td><td style='text-align:right;padding-right:8px;'>0</td><td style='text-align:right;'>NaN%</td></tr><tr><td style='padding-right:8px;'>write-in:</td><td style='text-align:right;padding-right:8px;'>0</td><td style='text-align:right;'>NaN%</td></tr></table></div>" }, "geometry": { "type": "Point", "coordinates": [ -88.019195905188369, 43.064307895456537 ] } },
{ "type": "Feature", "properties": { "ward": "City of Wauwatosa Ward 16", "candidate": "David Sanchez", "votes": 0.0, "color": "#377EB8", "popup": "<div><strong>City of Wauwatosa Ward 16</strong><div><strong>Representative to the Assembly, District 13</strong><table style='border-collapse:collapse;margin-top:4px;'><tr><th></th><th style='text-align:right;padding-right:8px;'>Votes</th><th style='text-align:right;'>Percent</th></tr><tr><td style='padding-right:8px;'>Amy Zimmerman</td><td style='text-align:right;padding-right:8px;'>0</td><td style='text-align:right;'>NaN%</td></tr><tr><td style='padding-right:8px;'>David Sanchez</td><td style='text-align:right;padding-right:8px;'>0</td><td style='text-align:right;'>NaN%</td></tr><tr><td style='padding-right:8px;'>write-in:</td><td style='text-align:right;padding-right:8px;'>0</td><td style='text-align:right;'>NaN%</td></tr></table></div>" }, "geometry": { "type": "Point", "coordinates": [ -88.019195905188369, 43.064307895456537 ] } },
{ "type": "Feature", "properties": { "ward": "City of Wauwatosa Ward 16", "candidate": "write-in:", "votes": 0.0, "color": "#4DAF4A", "popup": "<div><strong>City of Wauwatosa Ward 16</strong><div><strong>Representative to the Assembly, District 13</strong><table style='border-collapse:collapse;margin-top:4px;'><tr><th></th><th style='text-align:right;padding-right:8px;'>Votes</th><th style='text-align:right;'>Percent</th></tr><tr><td style='padding-right:8px;'>Amy Zimmerman</td><td style='text-align:right;padding-right:8px;'>0</td><td style='text-align:right;'>NaN%</td></tr><tr><td style='padding-right:8px;'>David Sanchez</td><td style='text-align:right;padding-right:8px;'>0</td><td style='text-align:right;'>NaN%</td></tr><tr><td style='padding-right:8px;'>write-in:</td><td style='text-align:right;padding-right:8px;'>0</td><td style='text-align:right;'>NaN%</td></tr></table></div>" }, "geometry": { "type": "Point", "coordinates": [ -88.019195905188369, 43.064307895456537 ] } },
{ "type": "Feature", "properties": { "ward": "City of Wauwatosa Ward 17", "candidate": "Amy Zimmerman", "votes": 0.0, "color": "#E41A1C", "popup": "<div><strong>City of Wauwatosa Ward 17</strong><div><strong>Representative to the Assembly, District 13</strong><table style='border-collapse:collapse;margin-top:4px;'><tr><th></th><th style='text-align:right;padding-right:8px;'>Votes</th><th style='text-align:right;'>Percent</th></tr><tr><td style='padding-right:8px;'>Amy Zimmerman</td><td style='text-align:right;padding-right:8px;'>0</td><td style='text-align:right;'>NaN%</td></tr><tr><td style='padding-right:8px;'>David Sanchez</td><td style='text-align:right;padding-right:8px;'>0</td><td style='text-align:right;'>NaN%</td></tr><tr><td style='padding-right:8px;'>write-in:</td><td style='text-align:right;padding-right:8px;'>0</td><td style='text-align:right;'>NaN%</td></tr></table></div>" }, "geometry": { "type": "Point", "coordinates": [ -88.02113073382003, 43.057855815422684 ] } },
{ "type": "Feature", "properties": { "ward": "City of Wauwatosa Ward 17", "candidate": "David Sanchez", "votes": 0.0, "color": "#377EB8", "popup": "<div><strong>City of Wauwatosa Ward 17</strong><div><strong>Representative to the Assembly, District 13</strong><table style='border-collapse:collapse;margin-top:4px;'><tr><th></th><th style='text-align:right;padding-right:8px;'>Votes</th><th style='text-align:right;'>Percent</th></tr><tr><td style='padding-right:8px;'>Amy Zimmerman</td><td style='text-align:right;padding-right:8px;'>0</td><td style='text-align:right;'>NaN%</td></tr><tr><td style='padding-right:8px;'>David Sanchez</td><td style='text-align:right;padding-right:8px;'>0</td><td style='text-align:right;'>NaN%</td></tr><tr><td style='padding-right:8px;'>write-in:</td><td style='text-align:right;padding-right:8px;'>0</td><td style='text-align:right;'>NaN%</td></tr></table></div>" }, "geometry": { "type": "Point", "coordinates": [ -88.02113073382003, 43.057855815422684 ] } },
{ "type": "Feature", "properties": { "ward": "City of Wauwatosa Ward 17", "candidate": "write-in:", "votes": 0.0, "color": "#4DAF4A", "popup": "<div><strong>City of Wauwatosa Ward 17</strong><div><strong>Representative to the Assembly, District 13</strong><table style='border-collapse:collapse;margin-top:4px;'><tr><th></th><th style='text-align:right;padding-right:8px;'>Votes</th><th style='text-align:right;'>Percent</th></tr><tr><td style='padding-right:8px;'>Amy Zimmerman</td><td style='text-align:right;padding-right:8px;'>0</td><td style='text-align:right;'>NaN%</td></tr><tr><td style='padding-right:8px;'>David Sanchez</td><td style='text-align:right;padding-right:8px;'>0</td><td style='text-align:right;'>NaN%</td></tr><tr><td style='padding-right:8px;'>write-in:</td><td style='text-align:right;padding-right:8px;'>0</td><td style='text-align:right;'>NaN%</td></tr></table></div>" }, "geometry": { "type": "Point", "coordinates": [ -88.02113073382003, 43.057855815422684 ] } },
{ "type": "Feature", "properties": { "ward": "City of Wauwatosa Ward 18", "candidate": "Amy Zimmerman", "votes": 0.0, "color": "#E41A1C", "popup": "<div><strong>City of Wauwatosa Ward 18</strong><div><strong>Representative to the Assembly, District 13</strong><table style='border-collapse:collapse;margin-top:4px;'><tr><th></th><th style='text-align:right;padding-right:8px;'>Votes</th><th style='text-align:right;'>Percent</th></tr><tr><td style='padding-right:8px;'>Amy Zimmerman</td><td style='text-align:right;padding-right:8px;'>0</td><td style='text-align:right;'>NaN%</td></tr><tr><td style='padding-right:8px;'>David Sanchez</td><td style='text-align:right;padding-right:8px;'>0</td><td style='text-align:right;'>NaN%</td></tr><tr><td style='padding-right:8px;'>write-in:</td><td style='text-align:right;padding-right:8px;'>0</td><td style='text-align:right;'>NaN%</td></tr></table></div>" }, "geometry": { "type": "Point", "coordinates": [ -88.037392015218984, 43.05591980539613 ] } },
{ "type": "Feature", "properties": { "ward": "City of Wauwatosa Ward 18", "candidate": "David Sanchez", "votes": 0.0, "color": "#377EB8", "popup": "<div><strong>City of Wauwatosa Ward 18</strong><div><strong>Representative to the Assembly, District 13</strong><table style='border-collapse:collapse;margin-top:4px;'><tr><th></th><th style='text-align:right;padding-right:8px;'>Votes</th><th style='text-align:right;'>Percent</th></tr><tr><td style='padding-right:8px;'>Amy Zimmerman</td><td style='text-align:right;padding-right:8px;'>0</td><td style='text-align:right;'>NaN%</td></tr><tr><td style='padding-right:8px;'>David Sanchez</td><td style='text-align:right;padding-right:8px;'>0</td><td style='text-align:right;'>NaN%</td></tr><tr><td style='padding-right:8px;'>write-in:</td><td style='text-align:right;padding-right:8px;'>0</td><td style='text-align:right;'>NaN%</td></tr></table></div>" }, "geometry": { "type": "Point", "coordinates": [ -88.037392015218984, 43.05591980539613 ] } },
{ "type": "Feature", "properties": { "ward": "City of Wauwatosa Ward 18", "candidate": "write-in:", "votes": 0.0, "color": "#4DAF4A", "popup": "<div><strong>City of Wauwatosa Ward 18</strong><div><strong>Representative to the Assembly, District 13</strong><table style='border-collapse:collapse;margin-top:4px;'><tr><th></th><th style='text-align:right;padding-right:8px;'>Votes</th><th style='text-align:right;'>Percent</th></tr><tr><td style='padding-right:8px;'>Amy Zimmerman</td><td style='text-align:right;padding-right:8px;'>0</td><td style='text-align:right;'>NaN%</td></tr><tr><td style='padding-right:8px;'>David Sanchez</td><td style='text-align:right;padding-right:8px;'>0</td><td style='text-align:right;'>NaN%</td></tr><tr><td style='padding-right:8px;'>write-in:</td><td style='text-align:right;padding-right:8px;'>0</td><td style='text-align:right;'>NaN%</td></tr></table></div>" }, "geometry": { "type": "Point", "coordinates": [ -88.037392015218984, 43.05591980539613 ] } },
{ "type": "Feature", "properties": { "ward": "City of Wauwatosa Ward 19", "candidate": "Amy Zimmerman", "votes": 0.0, "color": "#E41A1C", "popup": "<div><strong>City of Wauwatosa Ward 19</strong><div><strong>Representative to the Assembly, District 13</strong><table style='border-collapse:collapse;margin-top:4px;'><tr><th></th><th style='text-align:right;padding-right:8px;'>Votes</th><th style='text-align:right;'>Percent</th></tr><tr><td style='padding-right:8px;'>Amy Zimmerman</td><td style='text-align:right;padding-right:8px;'>0</td><td style='text-align:right;'>NaN%</td></tr><tr><td style='padding-right:8px;'>David Sanchez</td><td style='text-align:right;padding-right:8px;'>0</td><td style='text-align:right;'>NaN%</td></tr><tr><td style='padding-right:8px;'>write-in:</td><td style='text-align:right;padding-right:8px;'>0</td><td style='text-align:right;'>NaN%</td></tr></table></div>" }, "geometry": { "type": "Point", "coordinates": [ -88.052603668206189, 43.056036074593422 ] } },
{ "type": "Feature", "properties": { "ward": "City of Wauwatosa Ward 19", "candidate": "David Sanchez", "votes": 0.0, "color": "#377EB8", "popup": "<div><strong>City of Wauwatosa Ward 19</strong><div><strong>Representative to the Assembly, District 13</strong><table style='border-collapse:collapse;margin-top:4px;'><tr><th></th><th style='text-align:right;padding-right:8px;'>Votes</th><th style='text-align:right;'>Percent</th></tr><tr><td style='padding-right:8px;'>Amy Zimmerman</td><td style='text-align:right;padding-right:8px;'>0</td><td style='text-align:right;'>NaN%</td></tr><tr><td style='padding-right:8px;'>David Sanchez</td><td style='text-align:right;padding-right:8px;'>0</td><td style='text-align:right;'>NaN%</td></tr><tr><td style='padding-right:8px;'>write-in:</td><td style='text-align:right;padding-right:8px;'>0</td><td style='text-align:right;'>NaN%</td></tr></table></div>" }, "geometry": { "type": "Point", "coordinates": [ -88.052603668206189, 43.056036074593422 ] } },
{ "type": "Feature", "properties": { "ward": "City of Wauwatosa Ward 19", "candidate": "write-in:", "votes": 0.0, "color": "#4DAF4A", "popup": "<div><strong>City of Wauwatosa Ward 19</strong><div><strong>Representative to the Assembly, District 13</strong><table style='border-collapse:collapse;margin-top:4px;'><tr><th></th><th style='text-align:right;padding-right:8px;'>Votes</th><th style='text-align:right;'>Percent</th></tr><tr><td style='padding-right:8px;'>Amy Zimmerman</td><td style='text-align:right;padding-right:8px;'>0</td><td style='text-align:right;'>NaN%</td></tr><tr><td style='padding-right:8px;'>David Sanchez</td><td style='text-align:right;padding-right:8px;'>0</td><td style='text-align:right;'>NaN%</td></tr><tr><td style='padding-right:8px;'>write-in:</td><td style='text-align:right;padding-right:8px;'>0</td><td style='text-align:right;'>NaN%</td></tr></table></div>" }, "geometry": { "type": "Point", "coordinates": [ -88.052603668206189, 43.056036074593422 ] } },
{ "type": "Feature", "properties": { "ward": "City of Wauwatosa Ward 20", "candidate": "Amy Zimmerman", "votes": 0.0, "color": "#E41A1C", "popup": "<div><strong>City of Wauwatosa Ward 20</strong><div><strong>Representative to the Assembly, District 13</strong><table style='border-collapse:collapse;margin-top:4px;'><tr><th></th><th style='text-align:right;padding-right:8px;'>Votes</th><th style='text-align:right;'>Percent</th></tr><tr><td style='padding-right:8px;'>Amy Zimmerman</td><td style='text-align:right;padding-right:8px;'>0</td><td style='text-align:right;'>NaN%</td></tr><tr><td style='padding-right:8px;'>David Sanchez</td><td style='text-align:right;padding-right:8px;'>0</td><td style='text-align:right;'>NaN%</td></tr><tr><td style='padding-right:8px;'>write-in:</td><td style='text-align:right;padding-right:8px;'>0</td><td style='text-align:right;'>NaN%</td></tr></table></div>" }, "geometry": { "type": "Point", "coordinates": [ -88.058946056435175, 43.06365195102974 ] } },
{ "type": "Feature", "properties": { "ward": "City of Wauwatosa Ward 20", "candidate": "David Sanchez", "votes": 0.0, "color": "#377EB8", "popup": "<div><strong>City of Wauwatosa Ward 20</strong><div><strong>Representative to the Assembly, District 13</strong><table style='border-collapse:collapse;margin-top:4px;'><tr><th></th><th style='text-align:right;padding-right:8px;'>Votes</th><th style='text-align:right;'>Percent</th></tr><tr><td style='padding-right:8px;'>Amy Zimmerman</td><td style='text-align:right;padding-right:8px;'>0</td><td style='text-align:right;'>NaN%</td></tr><tr><td style='padding-right:8px;'>David Sanchez</td><td style='text-align:right;padding-right:8px;'>0</td><td style='text-align:right;'>NaN%</td></tr><tr><td style='padding-right:8px;'>write-in:</td><td style='text-align:right;padding-right:8px;'>0</td><td style='text-align:right;'>NaN%</td></tr></table></div>" }, "geometry": { "type": "Point", "coordinates": [ -88.058946056435175, 43.06365195102974 ] } },
{ "type": "Feature", "properties": { "ward": "City of Wauwatosa Ward 20", "candidate": "write-in:", "votes": 0.0, "color": "#4DAF4A", "popup": "<div><strong>City of Wauwatosa Ward 20</strong><div><strong>Representative to the Assembly, District 13</strong><table style='border-collapse:collapse;margin-top:4px;'><tr><th></th><th style='text-align:right;padding-right:8px;'>Votes</th><th style='text-align:right;'>Percent</th></tr><tr><td style='padding-right:8px;'>Amy Zimmerman</td><td style='text-align:right;padding-right:8px;'>0</td><td style='text-align:right;'>NaN%</td></tr><tr><td style='padding-right:8px;'>David Sanchez</td><td style='text-align:right;padding-right:8px;'>0</td><td style='text-align:right;'>NaN%</td></tr><tr><td style='padding-right:8px;'>write-in:</td><td style='text-align:right;padding-right:8px;'>0</td><td style='text-align:right;'>NaN%</td></tr></table></div>" }, "geometry": { "type": "Point", "coordinates": [ -88.058946056435175, 43.06365195102974 ] } },
{ "type": "Feature", "properties": { "ward": "City of Wauwatosa Ward 21", "candidate": "Amy Zimmerman", "votes": 0.0, "color": "#E41A1C", "popup": "<div><strong>City of Wauwatosa Ward 21</strong><div><strong>Representative to the Assembly, District 13</strong><table style='border-collapse:collapse;margin-top:4px;'><tr><th></th><th style='text-align:right;padding-right:8px;'>Votes</th><th style='text-align:right;'>Percent</th></tr><tr><td style='padding-right:8px;'>Amy Zimmerman</td><td style='text-align:right;padding-right:8px;'>0</td><td style='text-align:right;'>NaN%</td></tr><tr><td style='padding-right:8px;'>David Sanchez</td><td style='text-align:right;padding-right:8px;'>0</td><td style='text-align:right;'>NaN%</td></tr><tr><td style='padding-right:8px;'>write-in:</td><td style='text-align:right;padding-right:8px;'>0</td><td style='text-align:right;'>NaN%</td></tr></table></div>" }, "geometry": { "type": "Point", "coordinates": [ -88.045056243166698, 43.069834420223117 ] } },
{ "type": "Feature", "properties": { "ward": "City of Wauwatosa Ward 21", "candidate": "David Sanchez", "votes": 0.0, "color": "#377EB8", "popup": "<div><strong>City of Wauwatosa Ward 21</strong><div><strong>Representative to the Assembly, District 13</strong><table style='border-collapse:collapse;margin-top:4px;'><tr><th></th><th style='text-align:right;padding-right:8px;'>Votes</th><th style='text-align:right;'>Percent</th></tr><tr><td style='padding-right:8px;'>Amy Zimmerman</td><td style='text-align:right;padding-right:8px;'>0</td><td style='text-align:right;'>NaN%</td></tr><tr><td style='padding-right:8px;'>David Sanchez</td><td style='text-align:right;padding-right:8px;'>0</td><td style='text-align:right;'>NaN%</td></tr><tr><td style='padding-right:8px;'>write-in:</td><td style='text-align:right;padding-right:8px;'>0</td><td style='text-align:right;'>NaN%</td></tr></table></div>" }, "geometry": { "type": "Point", "coordinates": [ -88.045056243166698, 43.069834420223117 ] } },
{ "type": "Feature", "properties": { "ward": "City of Wauwatosa Ward 21", "candidate": "write-in:", "votes": 0.0, "color": "#4DAF4A", "popup": "<div><strong>City of Wauwatosa Ward 21</strong><div><strong>Representative to the Assembly, District 13</strong><table style='border-collapse:collapse;margin-top:4px;'><tr><th></th><th style='text-align:right;padding-right:8px;'>Votes</th><th style='text-align:right;'>Percent</th></tr><tr><td style='padding-right:8px;'>Amy Zimmerman</td><td style='text-align:right;padding-right:8px;'>0</td><td style='text-align:right;'>NaN%</td></tr><tr><td style='padding-right:8px;'>David Sanchez</td><td style='text-align:right;padding-right:8px;'>0</td><td style='text-align:right;'>NaN%</td></tr><tr><td style='padding-right:8px;'>write-in:</td><td style='text-align:right;padding-right:8px;'>0</td><td style='text-align:right;'>NaN%</td></tr></table></div>" }, "geometry": { "type": "Point", "coordinates": [ -88.045056243166698, 43.069834420223117 ] } },
{ "type": "Feature", "properties": { "ward": "City of Wauwatosa Ward 22", "candidate": "Amy Zimmerman", "votes": 0.0, "color": "#E41A1C", "popup": "<div><strong>City of Wauwatosa Ward 22</strong><div><strong>Representative to the Assembly, District 13</strong><table style='border-collapse:collapse;margin-top:4px;'><tr><th></th><th style='text-align:right;padding-right:8px;'>Votes</th><th style='text-align:right;'>Percent</th></tr><tr><td style='padding-right:8px;'>Amy Zimmerman</td><td style='text-align:right;padding-right:8px;'>0</td><td style='text-align:right;'>NaN%</td></tr><tr><td style='padding-right:8px;'>David Sanchez</td><td style='text-align:right;padding-right:8px;'>0</td><td style='text-align:right;'>NaN%</td></tr><tr><td style='padding-right:8px;'>write-in:</td><td style='text-align:right;padding-right:8px;'>0</td><td style='text-align:right;'>NaN%</td></tr></table></div>" }, "geometry": { "type": "Point", "coordinates": [ -88.047312385572283, 43.083424835068968 ] } },
{ "type": "Feature", "properties": { "ward": "City of Wauwatosa Ward 22", "candidate": "David Sanchez", "votes": 0.0, "color": "#377EB8", "popup": "<div><strong>City of Wauwatosa Ward 22</strong><div><strong>Representative to the Assembly, District 13</strong><table style='border-collapse:collapse;margin-top:4px;'><tr><th></th><th style='text-align:right;padding-right:8px;'>Votes</th><th style='text-align:right;'>Percent</th></tr><tr><td style='padding-right:8px;'>Amy Zimmerman</td><td style='text-align:right;padding-right:8px;'>0</td><td style='text-align:right;'>NaN%</td></tr><tr><td style='padding-right:8px;'>David Sanchez</td><td style='text-align:right;padding-right:8px;'>0</td><td style='text-align:right;'>NaN%</td></tr><tr><td style='padding-right:8px;'>write-in:</td><td style='text-align:right;padding-right:8px;'>0</td><td style='text-align:right;'>NaN%</td></tr></table></div>" }, "geometry": { "type": "Point", "coordinates": [ -88.047312385572283, 43.083424835068968 ] } },
{ "type": "Feature", "properties": { "ward": "City of Wauwatosa Ward 22", "candidate": "write-in:", "votes": 0.0, "color": "#4DAF4A", "popup": "<div><strong>City of Wauwatosa Ward 22</strong><div><strong>Representative to the Assembly, District 13</strong><table style='border-collapse:collapse;margin-top:4px;'><tr><th></th><th style='text-align:right;padding-right:8px;'>Votes</th><th style='text-align:right;'>Percent</th></tr><tr><td style='padding-right:8px;'>Amy Zimmerman</td><td style='text-align:right;padding-right:8px;'>0</td><td style='text-align:right;'>NaN%</td></tr><tr><td style='padding-right:8px;'>David Sanchez</td><td style='text-align:right;padding-right:8px;'>0</td><td style='text-align:right;'>NaN%</td></tr><tr><td style='padding-right:8px;'>write-in:</td><td style='text-align:right;padding-right:8px;'>0</td><td style='text-align:right;'>NaN%</td></tr></table></div>" }, "geometry": { "type": "Point", "coordinates": [ -88.047312385572283, 43.083424835068968 ] } },
{ "type": "Feature", "properties": { "ward": "City of Wauwatosa Ward 23", "candidate": "Amy Zimmerman", "votes": 0.0, "color": "#E41A1C", "popup": "<div><strong>City of Wauwatosa Ward 23</strong><div><strong>Representative to the Assembly, District 13</strong><table style='border-collapse:collapse;margin-top:4px;'><tr><th></th><th style='text-align:right;padding-right:8px;'>Votes</th><th style='text-align:right;'>Percent</th></tr><tr><td style='padding-right:8px;'>Amy Zimmerman</td><td style='text-align:right;padding-right:8px;'>0</td><td style='text-align:right;'>NaN%</td></tr><tr><td style='padding-right:8px;'>David Sanchez</td><td style='text-align:right;padding-right:8px;'>0</td><td style='text-align:right;'>NaN%</td></tr><tr><td style='padding-right:8px;'>write-in:</td><td style='text-align:right;padding-right:8px;'>0</td><td style='text-align:right;'>NaN%</td></tr></table></div>" }, "geometry": { "type": "Point", "coordinates": [ -88.055914872347557, 43.096807944667873 ] } },
{ "type": "Feature", "properties": { "ward": "City of Wauwatosa Ward 23", "candidate": "David Sanchez", "votes": 0.0, "color": "#377EB8", "popup": "<div><strong>City of Wauwatosa Ward 23</strong><div><strong>Representative to the Assembly, District 13</strong><table style='border-collapse:collapse;margin-top:4px;'><tr><th></th><th style='text-align:right;padding-right:8px;'>Votes</th><th style='text-align:right;'>Percent</th></tr><tr><td style='padding-right:8px;'>Amy Zimmerman</td><td style='text-align:right;padding-right:8px;'>0</td><td style='text-align:right;'>NaN%</td></tr><tr><td style='padding-right:8px;'>David Sanchez</td><td style='text-align:right;padding-right:8px;'>0</td><td style='text-align:right;'>NaN%</td></tr><tr><td style='padding-right:8px;'>write-in:</td><td style='text-align:right;padding-right:8px;'>0</td><td style='text-align:right;'>NaN%</td></tr></table></div>" }, "geometry": { "type": "Point", "coordinates": [ -88.055914872347557, 43.096807944667873 ] } },
{ "type": "Feature", "properties": { "ward": "City of Wauwatosa Ward 23", "candidate": "write-in:", "votes": 0.0, "color": "#4DAF4A", "popup": "<div><strong>City of Wauwatosa Ward 23</strong><div><strong>Representative to the Assembly, District 13</strong><table style='border-collapse:collapse;margin-top:4px;'><tr><th></th><th style='text-align:right;padding-right:8px;'>Votes</th><th style='text-align:right;'>Percent</th></tr><tr><td style='padding-right:8px;'>Amy Zimmerman</td><td style='text-align:right;padding-right:8px;'>0</td><td style='text-align:right;'>NaN%</td></tr><tr><td style='padding-right:8px;'>David Sanchez</td><td style='text-align:right;padding-right:8px;'>0</td><td style='text-align:right;'>NaN%</td></tr><tr><td style='padding-right:8px;'>write-in:</td><td style='text-align:right;padding-right:8px;'>0</td><td style='text-align:right;'>NaN%</td></tr></table></div>" }, "geometry": { "type": "Point", "coordinates": [ -88.055914872347557, 43.096807944667873 ] } },
{ "type": "Feature", "properties": { "ward": "City of Wauwatosa Ward 24B", "candidate": "Amy Zimmerman", "votes": 0.0, "color": "#E41A1C", "popup": "<div><strong>City of Wauwatosa Ward 24B</strong><div><strong>Representative to the Assembly, District 13</strong><table style='border-collapse:collapse;margin-top:4px;'><tr><th></th><th style='text-align:right;padding-right:8px;'>Votes</th><th style='text-align:right;'>Percent</th></tr><tr><td style='padding-right:8px;'>Amy Zimmerman</td><td style='text-align:right;padding-right:8px;'>0</td><td style='text-align:right;'>NaN%</td></tr><tr><td style='padding-right:8px;'>David Sanchez</td><td style='text-align:right;padding-right:8px;'>0</td><td style='text-align:right;'>NaN%</td></tr><tr><td style='padding-right:8px;'>write-in:</td><td style='text-align:right;padding-right:8px;'>0</td><td style='text-align:right;'>NaN%</td></tr></table></div>" }, "geometry": { "type": "Point", "coordinates": [ -88.039192526068945, 43.102969856366222 ] } },
{ "type": "Feature", "properties": { "ward": "City of Wauwatosa Ward 24B", "candidate": "David Sanchez", "votes": 0.0, "color": "#377EB8", "popup": "<div><strong>City of Wauwatosa Ward 24B</strong><div><strong>Representative to the Assembly, District 13</strong><table style='border-collapse:collapse;margin-top:4px;'><tr><th></th><th style='text-align:right;padding-right:8px;'>Votes</th><th style='text-align:right;'>Percent</th></tr><tr><td style='padding-right:8px;'>Amy Zimmerman</td><td style='text-align:right;padding-right:8px;'>0</td><td style='text-align:right;'>NaN%</td></tr><tr><td style='padding-right:8px;'>David Sanchez</td><td style='text-align:right;padding-right:8px;'>0</td><td style='text-align:right;'>NaN%</td></tr><tr><td style='padding-right:8px;'>write-in:</td><td style='text-align:right;padding-right:8px;'>0</td><td style='text-align:right;'>NaN%</td></tr></table></div>" }, "geometry": { "type": "Point", "coordinates": [ -88.039192526068945, 43.102969856366222 ] } },
{ "type": "Feature", "properties": { "ward": "City of Wauwatosa Ward 24B", "candidate": "write-in:", "votes": 0.0, "color": "#4DAF4A", "popup": "<div><strong>City of Wauwatosa Ward 24B</strong><div><strong>Representative to the Assembly, District 13</strong><table style='border-collapse:collapse;margin-top:4px;'><tr><th></th><th style='text-align:right;padding-right:8px;'>Votes</th><th style='text-align:right;'>Percent</th></tr><tr><td style='padding-right:8px;'>Amy Zimmerman</td><td style='text-align:right;padding-right:8px;'>0</td><td style='text-align:right;'>NaN%</td></tr><tr><td style='padding-right:8px;'>David Sanchez</td><td style='text-align:right;padding-right:8px;'>0</td><td style='text-align:right;'>NaN%</td></tr><tr><td style='padding-right:8px;'>write-in:</td><td style='text-align:right;padding-right:8px;'>0</td><td style='text-align:right;'>NaN%</td></tr></table></div>" }, "geometry": { "type": "Point", "coordinates": [ -88.039192526068945, 43.102969856366222 ] } },
{ "type": "Feature", "properties": { "ward": "City Brookfield W2", "candidate": "write-in:", "votes": 0.0, "color": "#4DAF4A", "popup": "<div><strong>City Brookfield W2</strong><div><strong>Representative to the Assembly District 13</strong><table style='border-collapse:collapse;margin-top:4px;'><tr><th></th><th style='text-align:right;padding-right:8px;'>Votes</th><th style='text-align:right;'>Percent</th></tr><tr><td style='padding-right:8px;'>Amy Zimmerman</td><td style='text-align:right;padding-right:8px;'>236</td><td style='text-align:right;'>65.2%</td></tr><tr><td style='padding-right:8px;'>David Sanchez</td><td style='text-align:right;padding-right:8px;'>126</td><td style='text-align:right;'>34.8%</td></tr><tr><td style='padding-right:8px;'>write-in:</td><td style='text-align:right;padding-right:8px;'>0</td><td style='text-align:right;'>0.0%</td></tr></table></div>" }, "geometry": { "type": "Point", "coordinates": [ -88.077247517164437, 43.067431682677288 ] } },
{ "type": "Feature", "properties": { "ward": "City Brookfield W3", "candidate": "write-in:", "votes": 0.0, "color": "#4DAF4A", "popup": "<div><strong>City Brookfield W3</strong><div><strong>Representative to the Assembly District 13</strong><table style='border-collapse:collapse;margin-top:4px;'><tr><th></th><th style='text-align:right;padding-right:8px;'>Votes</th><th style='text-align:right;'>Percent</th></tr><tr><td style='padding-right:8px;'>Amy Zimmerman</td><td style='text-align:right;padding-right:8px;'>173</td><td style='text-align:right;'>71.2%</td></tr><tr><td style='padding-right:8px;'>David Sanchez</td><td style='text-align:right;padding-right:8px;'>70</td><td style='text-align:right;'>28.8%</td></tr><tr><td style='padding-right:8px;'>write-in:</td><td style='text-align:right;padding-right:8px;'>0</td><td style='text-align:right;'>0.0%</td></tr></table></div>" }, "geometry": { "type": "Point", "coordinates": [ -88.101941014343055, 43.096513695919249 ] } },
{ "type": "Feature", "properties": { "ward": "City Brookfield W4", "candidate": "Amy Zimmerman", "votes": 0.0, "color": "#E41A1C", "popup": "<div><strong>City Brookfield W4</strong><div><strong>Representative to the Assembly District 13</strong><table style='border-collapse:collapse;margin-top:4px;'><tr><th></th><th style='text-align:right;padding-right:8px;'>Votes</th><th style='text-align:right;'>Percent</th></tr><tr><td style='padding-right:8px;'>Amy Zimmerman</td><td style='text-align:right;padding-right:8px;'>0</td><td style='text-align:right;'>NaN%</td></tr><tr><td style='padding-right:8px;'>David Sanchez</td><td style='text-align:right;padding-right:8px;'>0</td><td style='text-align:right;'>NaN%</td></tr><tr><td style='padding-right:8px;'>write-in:</td><td style='text-align:right;padding-right:8px;'>0</td><td style='text-align:right;'>NaN%</td></tr></table></div>" }, "geometry": { "type": "Point", "coordinates": [ -88.118872672047829, 43.095537660216749 ] } },
{ "type": "Feature", "properties": { "ward": "City Brookfield W4", "candidate": "David Sanchez", "votes": 0.0, "color": "#377EB8", "popup": "<div><strong>City Brookfield W4</strong><div><strong>Representative to the Assembly District 13</strong><table style='border-collapse:collapse;margin-top:4px;'><tr><th></th><th style='text-align:right;padding-right:8px;'>Votes</th><th style='text-align:right;'>Percent</th></tr><tr><td style='padding-right:8px;'>Amy Zimmerman</td><td style='text-align:right;padding-right:8px;'>0</td><td style='text-align:right;'>NaN%</td></tr><tr><td style='padding-right:8px;'>David Sanchez</td><td style='text-align:right;padding-right:8px;'>0</td><td style='text-align:right;'>NaN%</td></tr><tr><td style='padding-right:8px;'>write-in:</td><td style='text-align:right;padding-right:8px;'>0</td><td style='text-align:right;'>NaN%</td></tr></table></div>" }, "geometry": { "type": "Point", "coordinates": [ -88.118872672047829, 43.095537660216749 ] } },
{ "type": "Feature", "properties": { "ward": "City Brookfield W4", "candidate": "write-in:", "votes": 0.0, "color": "#4DAF4A", "popup": "<div><strong>City Brookfield W4</strong><div><strong>Representative to the Assembly District 13</strong><table style='border-collapse:collapse;margin-top:4px;'><tr><th></th><th style='text-align:right;padding-right:8px;'>Votes</th><th style='text-align:right;'>Percent</th></tr><tr><td style='padding-right:8px;'>Amy Zimmerman</td><td style='text-align:right;padding-right:8px;'>0</td><td style='text-align:right;'>NaN%</td></tr><tr><td style='padding-right:8px;'>David Sanchez</td><td style='text-align:right;padding-right:8px;'>0</td><td style='text-align:right;'>NaN%</td></tr><tr><td style='padding-right:8px;'>write-in:</td><td style='text-align:right;padding-right:8px;'>0</td><td style='text-align:right;'>NaN%</td></tr></table></div>" }, "geometry": { "type": "Point", "coordinates": [ -88.118872672047829, 43.095537660216749 ] } },
{ "type": "Feature", "properties": { "ward": "City Brookfield W6", "candidate": "Amy Zimmerman", "votes": 0.0, "color": "#E41A1C", "popup": "<div><strong>City Brookfield W6</strong><div><strong>Representative to the Assembly District 13</strong><table style='border-collapse:collapse;margin-top:4px;'><tr><th></th><th style='text-align:right;padding-right:8px;'>Votes</th><th style='text-align:right;'>Percent</th></tr><tr><td style='padding-right:8px;'>Amy Zimmerman</td><td style='text-align:right;padding-right:8px;'>0</td><td style='text-align:right;'>NaN%</td></tr><tr><td style='padding-right:8px;'>David Sanchez</td><td style='text-align:right;padding-right:8px;'>0</td><td style='text-align:right;'>NaN%</td></tr><tr><td style='padding-right:8px;'>write-in:</td><td style='text-align:right;padding-right:8px;'>0</td><td style='text-align:right;'>NaN%</td></tr></table></div>" }, "geometry": { "type": "Point", "coordinates": [ -88.13621121952373, 43.091036412031613 ] } },
{ "type": "Feature", "properties": { "ward": "City Brookfield W6", "candidate": "David Sanchez", "votes": 0.0, "color": "#377EB8", "popup": "<div><strong>City Brookfield W6</strong><div><strong>Representative to the Assembly District 13</strong><table style='border-collapse:collapse;margin-top:4px;'><tr><th></th><th style='text-align:right;padding-right:8px;'>Votes</th><th style='text-align:right;'>Percent</th></tr><tr><td style='padding-right:8px;'>Amy Zimmerman</td><td style='text-align:right;padding-right:8px;'>0</td><td style='text-align:right;'>NaN%</td></tr><tr><td style='padding-right:8px;'>David Sanchez</td><td style='text-align:right;padding-right:8px;'>0</td><td style='text-align:right;'>NaN%</td></tr><tr><td style='padding-right:8px;'>write-in:</td><td style='text-align:right;padding-right:8px;'>0</td><td style='text-align:right;'>NaN%</td></tr></table></div>" }, "geometry": { "type": "Point", "coordinates": [ -88.13621121952373, 43.091036412031613 ] } },
{ "type": "Feature", "properties": { "ward": "City Brookfield W6", "candidate": "write-in:", "votes": 0.0, "color": "#4DAF4A", "popup": "<div><strong>City Brookfield W6</strong><div><strong>Representative to the Assembly District 13</strong><table style='border-collapse:collapse;margin-top:4px;'><tr><th></th><th style='text-align:right;padding-right:8px;'>Votes</th><th style='text-align:right;'>Percent</th></tr><tr><td style='padding-right:8px;'>Amy Zimmerman</td><td style='text-align:right;padding-right:8px;'>0</td><td style='text-align:right;'>NaN%</td></tr><tr><td style='padding-right:8px;'>David Sanchez</td><td style='text-align:right;padding-right:8px;'>0</td><td style='text-align:right;'>NaN%</td></tr><tr><td style='padding-right:8px;'>write-in:</td><td style='text-align:right;padding-right:8px;'>0</td><td style='text-align:right;'>NaN%</td></tr></table></div>" }, "geometry": { "type": "Point", "coordinates": [ -88.13621121952373, 43.091036412031613 ] } },
{ "type": "Feature", "properties": { "ward": "City Brookfield W7", "candidate": "Amy Zimmerman", "votes": 0.0, "color": "#E41A1C", "popup": "<div><strong>City Brookfield W7</strong><div><strong>Representative to the Assembly District 13</strong><table style='border-collapse:collapse;margin-top:4px;'><tr><th></th><th style='text-align:right;padding-right:8px;'>Votes</th><th style='text-align:right;'>Percent</th></tr><tr><td style='padding-right:8px;'>Amy Zimmerman</td><td style='text-align:right;padding-right:8px;'>0</td><td style='text-align:right;'>NaN%</td></tr><tr><td style='padding-right:8px;'>David Sanchez</td><td style='text-align:right;padding-right:8px;'>0</td><td style='text-align:right;'>NaN%</td></tr><tr><td style='padding-right:8px;'>write-in:</td><td style='text-align:right;padding-right:8px;'>0</td><td style='text-align:right;'>NaN%</td></tr></table></div>" }, "geometry": { "type": "Point", "coordinates": [ -88.1335185132465, 43.077443690752389 ] } },
{ "type": "Feature", "properties": { "ward": "City Brookfield W7", "candidate": "David Sanchez", "votes": 0.0, "color": "#377EB8", "popup": "<div><strong>City Brookfield W7</strong><div><strong>Representative to the Assembly District 13</strong><table style='border-collapse:collapse;margin-top:4px;'><tr><th></th><th style='text-align:right;padding-right:8px;'>Votes</th><th style='text-align:right;'>Percent</th></tr><tr><td style='padding-right:8px;'>Amy Zimmerman</td><td style='text-align:right;padding-right:8px;'>0</td><td style='text-align:right;'>NaN%</td></tr><tr><td style='padding-right:8px;'>David Sanchez</td><td style='text-align:right;padding-right:8px;'>0</td><td style='text-align:right;'>NaN%</td></tr><tr><td style='padding-right:8px;'>write-in:</td><td style='text-align:right;padding-right:8px;'>0</td><td style='text-align:right;'>NaN%</td></tr></table></div>" }, "geometry": { "type": "Point", "coordinates": [ -88.1335185132465, 43.077443690752389 ] } },
{ "type": "Feature", "properties": { "ward": "City Brookfield W7", "candidate": "write-in:", "votes": 0.0, "color": "#4DAF4A", "popup": "<div><strong>City Brookfield W7</strong><div><strong>Representative to the Assembly District 13</strong><table style='border-collapse:collapse;margin-top:4px;'><tr><th></th><th style='text-align:right;padding-right:8px;'>Votes</th><th style='text-align:right;'>Percent</th></tr><tr><td style='padding-right:8px;'>Amy Zimmerman</td><td style='text-align:right;padding-right:8px;'>0</td><td style='text-align:right;'>NaN%</td></tr><tr><td style='padding-right:8px;'>David Sanchez</td><td style='text-align:right;padding-right:8px;'>0</td><td style='text-align:right;'>NaN%</td></tr><tr><td style='padding-right:8px;'>write-in:</td><td style='text-align:right;padding-right:8px;'>0</td><td style='text-align:right;'>NaN%</td></tr></table></div>" }, "geometry": { "type": "Point", "coordinates": [ -88.1335185132465, 43.077443690752389 ] } },
{ "type": "Feature", "properties": { "ward": "City Brookfield W8", "candidate": "Amy Zimmerman", "votes": 0.0, "color": "#E41A1C", "popup": "<div><strong>City Brookfield W8</strong><div><strong>Representative to the Assembly District 13</strong><table style='border-collapse:collapse;margin-top:4px;'><tr><th></th><th style='text-align:right;padding-right:8px;'>Votes</th><th style='text-align:right;'>Percent</th></tr><tr><td style='padding-right:8px;'>Amy Zimmerman</td><td style='text-align:right;padding-right:8px;'>0</td><td style='text-align:right;'>NaN%</td></tr><tr><td style='padding-right:8px;'>David Sanchez</td><td style='text-align:right;padding-right:8px;'>0</td><td style='text-align:right;'>NaN%</td></tr><tr><td style='padding-right:8px;'>write-in:</td><td style='text-align:right;padding-right:8px;'>0</td><td style='text-align:right;'>NaN%</td></tr></table></div>" }, "geometry": { "type": "Point", "coordinates": [ -88.113125132982489, 43.073267571325481 ] } },
{ "type": "Feature", "properties": { "ward": "City Brookfield W8", "candidate": "David Sanchez", "votes": 0.0, "color": "#377EB8", "popup": "<div><strong>City Brookfield W8</strong><div><strong>Representative to the Assembly District 13</strong><table style='border-collapse:collapse;margin-top:4px;'><tr><th></th><th style='text-align:right;padding-right:8px;'>Votes</th><th style='text-align:right;'>Percent</th></tr><tr><td style='padding-right:8px;'>Amy Zimmerman</td><td style='text-align:right;padding-right:8px;'>0</td><td style='text-align:right;'>NaN%</td></tr><tr><td style='padding-right:8px;'>David Sanchez</td><td style='text-align:right;padding-right:8px;'>0</td><td style='text-align:right;'>NaN%</td></tr><tr><td style='padding-right:8px;'>write-in:</td><td style='text-align:right;padding-right:8px;'>0</td><td style='text-align:right;'>NaN%</td></tr></table></div>" }, "geometry": { "type": "Point", "coordinates": [ -88.113125132982489, 43.073267571325481 ] } },
{ "type": "Feature", "properties": { "ward": "City Brookfield W8", "candidate": "write-in:", "votes": 0.0, "color": "#4DAF4A", "popup": "<div><strong>City Brookfield W8</strong><div><strong>Representative to the Assembly District 13</strong><table style='border-collapse:collapse;margin-top:4px;'><tr><th></th><th style='text-align:right;padding-right:8px;'>Votes</th><th style='text-align:right;'>Percent</th></tr><tr><td style='padding-right:8px;'>Amy Zimmerman</td><td style='text-align:right;padding-right:8px;'>0</td><td style='text-align:right;'>NaN%</td></tr><tr><td style='padding-right:8px;'>David Sanchez</td><td style='text-align:right;padding-right:8px;'>0</td><td style='text-align:right;'>NaN%</td></tr><tr><td style='padding-right:8px;'>write-in:</td><td style='text-align:right;padding-right:8px;'>0</td><td style='text-align:right;'>NaN%</td></tr></table></div>" }, "geometry": { "type": "Point", "coordinates": [ -88.113125132982489, 43.073267571325481 ] } },
{ "type": "Feature", "properties": { "ward": "City Brookfield W9", "candidate": "Amy Zimmerman", "votes": 0.0, "color": "#E41A1C", "popup": "<div><strong>City Brookfield W9</strong><div><strong>Representative to the Assembly District 13</strong><table style='border-collapse:collapse;margin-top:4px;'><tr><th></th><th style='text-align:right;padding-right:8px;'>Votes</th><th style='text-align:right;'>Percent</th></tr><tr><td style='padding-right:8px;'>Amy Zimmerman</td><td style='text-align:right;padding-right:8px;'>0</td><td style='text-align:right;'>NaN%</td></tr><tr><td style='padding-right:8px;'>David Sanchez</td><td style='text-align:right;padding-right:8px;'>0</td><td style='text-align:right;'>NaN%</td></tr><tr><td style='padding-right:8px;'>write-in:</td><td style='text-align:right;padding-right:8px;'>0</td><td style='text-align:right;'>NaN%</td></tr></table></div>" }, "geometry": { "type": "Point", "coordinates": [ -88.097366610085444, 43.082286439670725 ] } },
{ "type": "Feature", "properties": { "ward": "City Brookfield W9", "candidate": "David Sanchez", "votes": 0.0, "color": "#377EB8", "popup": "<div><strong>City Brookfield W9</strong><div><strong>Representative to the Assembly District 13</strong><table style='border-collapse:collapse;margin-top:4px;'><tr><th></th><th style='text-align:right;padding-right:8px;'>Votes</th><th style='text-align:right;'>Percent</th></tr><tr><td style='padding-right:8px;'>Amy Zimmerman</td><td style='text-align:right;padding-right:8px;'>0</td><td style='text-align:right;'>NaN%</td></tr><tr><td style='padding-right:8px;'>David Sanchez</td><td style='text-align:right;padding-right:8px;'>0</td><td style='text-align:right;'>NaN%</td></tr><tr><td style='padding-right:8px;'>write-in:</td><td style='text-align:right;padding-right:8px;'>0</td><td style='text-align:right;'>NaN%</td></tr></table></div>" }, "geometry": { "type": "Point", "coordinates": [ -88.097366610085444, 43.082286439670725 ] } },
{ "type": "Feature", "properties": { "ward": "City Brookfield W9", "candidate": "write-in:", "votes": 0.0, "color": "#4DAF4A", "popup": "<div><strong>City Brookfield W9</strong><div><strong>Representative to the Assembly District 13</strong><table style='border-collapse:collapse;margin-top:4px;'><tr><th></th><th style='text-align:right;padding-right:8px;'>Votes</th><th style='text-align:right;'>Percent</th></tr><tr><td style='padding-right:8px;'>Amy Zimmerman</td><td style='text-align:right;padding-right:8px;'>0</td><td style='text-align:right;'>NaN%</td></tr><tr><td style='padding-right:8px;'>David Sanchez</td><td style='text-align:right;padding-right:8px;'>0</td><td style='text-align:right;'>NaN%</td></tr><tr><td style='padding-right:8px;'>write-in:</td><td style='text-align:right;padding-right:8px;'>0</td><td style='text-align:right;'>NaN%</td></tr></table></div>" }, "geometry": { "type": "Point", "coordinates": [ -88.097366610085444, 43.082286439670725 ] } },
{ "type": "Feature", "properties": { "ward": "City Brookfield W14", "candidate": "write-in:", "votes": 0.0, "color": "#4DAF4A", "popup": "<div><strong>City Brookfield W14</strong><div><strong>Representative to the Assembly District 13</strong><table style='border-collapse:collapse;margin-top:4px;'><tr><th></th><th style='text-align:right;padding-right:8px;'>Votes</th><th style='text-align:right;'>Percent</th></tr><tr><td style='padding-right:8px;'>Amy Zimmerman</td><td style='text-align:right;padding-right:8px;'>201</td><td style='text-align:right;'>73.1%</td></tr><tr><td style='padding-right:8px;'>David Sanchez</td><td style='text-align:right;padding-right:8px;'>74</td><td style='text-align:right;'>26.9%</td></tr><tr><td style='padding-right:8px;'>write-in:</td><td style='text-align:right;padding-right:8px;'>0</td><td style='text-align:right;'>0.0%</td></tr></table></div>" }, "geometry": { "type": "Point", "coordinates": [ -88.139535023985275, 43.065889682559032 ] } },
{ "type": "Feature", "properties": { "ward": "Village Elm Grove W5-8", "candidate": "write-in:", "votes": 1.0, "color": "#4DAF4A", "popup": "<div><strong>Village Elm Grove W5-8</strong><div><strong>Representative to the Assembly District 13</strong><table style='border-collapse:collapse;margin-top:4px;'><tr><th></th><th style='text-align:right;padding-right:8px;'>Votes</th><th style='text-align:right;'>Percent</th></tr><tr><td style='padding-right:8px;'>Amy Zimmerman</td><td style='text-align:right;padding-right:8px;'>301</td><td style='text-align:right;'>53.9%</td></tr><tr><td style='padding-right:8px;'>David Sanchez</td><td style='text-align:right;padding-right:8px;'>256</td><td style='text-align:right;'>45.9%</td></tr><tr><td style='padding-right:8px;'>write-in:</td><td style='text-align:right;padding-right:8px;'>1</td><td style='text-align:right;'>0.2%</td></tr></table></div>" }, "geometry": { "type": "Point", "coordinates": [ -88.076373236840553, 43.052359283991422 ] } },
{ "type": "Feature", "properties": { "ward": "Village Elm Grove W1-4", "candidate": "write-in:", "votes": 2.0, "color": "#4DAF4A", "popup": "<div><strong>Village Elm Grove W1-4</strong><div><strong>Representative to the Assembly District 13</strong><table style='border-collapse:collapse;margin-top:4px;'><tr><th></th><th style='text-align:right;padding-right:8px;'>Votes</th><th style='text-align:right;'>Percent</th></tr><tr><td style='padding-right:8px;'>Amy Zimmerman</td><td style='text-align:right;padding-right:8px;'>281</td><td style='text-align:right;'>48.6%</td></tr><tr><td style='padding-right:8px;'>David Sanchez</td><td style='text-align:right;padding-right:8px;'>295</td><td style='text-align:right;'>51.0%</td></tr><tr><td style='padding-right:8px;'>write-in:</td><td style='text-align:right;padding-right:8px;'>2</td><td style='text-align:right;'>0.3%</td></tr></table></div>" }, "geometry": { "type": "Point", "coordinates": [ -88.09621180792675, 43.044174876962707 ] } },
{ "type": "Feature", "properties": { "ward": "City Brookfield W1", "candidate": "write-in:", "votes": 2.0, "color": "#4DAF4A", "popup": "<div><strong>City Brookfield W1</strong><div><strong>Representative to the Assembly District 13</strong><table style='border-collapse:collapse;margin-top:4px;'><tr><th></th><th style='text-align:right;padding-right:8px;'>Votes</th><th style='text-align:right;'>Percent</th></tr><tr><td style='padding-right:8px;'>Amy Zimmerman</td><td style='text-align:right;padding-right:8px;'>174</td><td style='text-align:right;'>51.5%</td></tr><tr><td style='padding-right:8px;'>David Sanchez</td><td style='text-align:right;padding-right:8px;'>162</td><td style='text-align:right;'>47.9%</td></tr><tr><td style='padding-right:8px;'>write-in:</td><td style='text-align:right;padding-right:8px;'>2</td><td style='text-align:right;'>0.6%</td></tr></table></div>" }, "geometry": { "type": "Point", "coordinates": [ -88.07644030276407, 43.088594263358004 ] } },
{ "type": "Feature", "properties": { "ward": "City Brookfield W3", "candidate": "David Sanchez", "votes": 70.0, "color": "#377EB8", "popup": "<div><strong>City Brookfield W3</strong><div><strong>Representative to the Assembly District 13</strong><table style='border-collapse:collapse;margin-top:4px;'><tr><th></th><th style='text-align:right;padding-right:8px;'>Votes</th><th style='text-align:right;'>Percent</th></tr><tr><td style='padding-right:8px;'>Amy Zimmerman</td><td style='text-align:right;padding-right:8px;'>173</td><td style='text-align:right;'>71.2%</td></tr><tr><td style='padding-right:8px;'>David Sanchez</td><td style='text-align:right;padding-right:8px;'>70</td><td style='text-align:right;'>28.8%</td></tr><tr><td style='padding-right:8px;'>write-in:</td><td style='text-align:right;padding-right:8px;'>0</td><td style='text-align:right;'>0.0%</td></tr></table></div>" }, "geometry": { "type": "Point", "coordinates": [ -88.101941014343055, 43.096513695919249 ] } },
{ "type": "Feature", "properties": { "ward": "City Brookfield W14", "candidate": "David Sanchez", "votes": 74.0, "color": "#377EB8", "popup": "<div><strong>City Brookfield W14</strong><div><strong>Representative to the Assembly District 13</strong><table style='border-collapse:collapse;margin-top:4px;'><tr><th></th><th style='text-align:right;padding-right:8px;'>Votes</th><th style='text-align:right;'>Percent</th></tr><tr><td style='padding-right:8px;'>Amy Zimmerman</td><td style='text-align:right;padding-right:8px;'>201</td><td style='text-align:right;'>73.1%</td></tr><tr><td style='padding-right:8px;'>David Sanchez</td><td style='text-align:right;padding-right:8px;'>74</td><td style='text-align:right;'>26.9%</td></tr><tr><td style='padding-right:8px;'>write-in:</td><td style='text-align:right;padding-right:8px;'>0</td><td style='text-align:right;'>0.0%</td></tr></table></div>" }, "geometry": { "type": "Point", "coordinates": [ -88.139535023985275, 43.065889682559032 ] } },
{ "type": "Feature", "properties": { "ward": "City Brookfield W2", "candidate": "David Sanchez", "votes": 126.0, "color": "#377EB8", "popup": "<div><strong>City Brookfield W2</strong><div><strong>Representative to the Assembly District 13</strong><table style='border-collapse:collapse;margin-top:4px;'><tr><th></th><th style='text-align:right;padding-right:8px;'>Votes</th><th style='text-align:right;'>Percent</th></tr><tr><td style='padding-right:8px;'>Amy Zimmerman</td><td style='text-align:right;padding-right:8px;'>236</td><td style='text-align:right;'>65.2%</td></tr><tr><td style='padding-right:8px;'>David Sanchez</td><td style='text-align:right;padding-right:8px;'>126</td><td style='text-align:right;'>34.8%</td></tr><tr><td style='padding-right:8px;'>write-in:</td><td style='text-align:right;padding-right:8px;'>0</td><td style='text-align:right;'>0.0%</td></tr></table></div>" }, "geometry": { "type": "Point", "coordinates": [ -88.077247517164437, 43.067431682677288 ] } },
{ "type": "Feature", "properties": { "ward": "City Brookfield W1", "candidate": "David Sanchez", "votes": 162.0, "color": "#377EB8", "popup": "<div><strong>City Brookfield W1</strong><div><strong>Representative to the Assembly District 13</strong><table style='border-collapse:collapse;margin-top:4px;'><tr><th></th><th style='text-align:right;padding-right:8px;'>Votes</th><th style='text-align:right;'>Percent</th></tr><tr><td style='padding-right:8px;'>Amy Zimmerman</td><td style='text-align:right;padding-right:8px;'>174</td><td style='text-align:right;'>51.5%</td></tr><tr><td style='padding-right:8px;'>David Sanchez</td><td style='text-align:right;padding-right:8px;'>162</td><td style='text-align:right;'>47.9%</td></tr><tr><td style='padding-right:8px;'>write-in:</td><td style='text-align:right;padding-right:8px;'>2</td><td style='text-align:right;'>0.6%</td></tr></table></div>" }, "geometry": { "type": "Point", "coordinates": [ -88.07644030276407, 43.088594263358004 ] } },
{ "type": "Feature", "properties": { "ward": "City Brookfield W3", "candidate": "Amy Zimmerman", "votes": 173.0, "color": "#E41A1C", "popup": "<div><strong>City Brookfield W3</strong><div><strong>Representative to the Assembly District 13</strong><table style='border-collapse:collapse;margin-top:4px;'><tr><th></th><th style='text-align:right;padding-right:8px;'>Votes</th><th style='text-align:right;'>Percent</th></tr><tr><td style='padding-right:8px;'>Amy Zimmerman</td><td style='text-align:right;padding-right:8px;'>173</td><td style='text-align:right;'>71.2%</td></tr><tr><td style='padding-right:8px;'>David Sanchez</td><td style='text-align:right;padding-right:8px;'>70</td><td style='text-align:right;'>28.8%</td></tr><tr><td style='padding-right:8px;'>write-in:</td><td style='text-align:right;padding-right:8px;'>0</td><td style='text-align:right;'>0.0%</td></tr></table></div>" }, "geometry": { "type": "Point", "coordinates": [ -88.101941014343055, 43.096513695919249 ] } },
{ "type": "Feature", "properties": { "ward": "City Brookfield W1", "candidate": "Amy Zimmerman", "votes": 174.0, "color": "#E41A1C", "popup": "<div><strong>City Brookfield W1</strong><div><strong>Representative to the Assembly District 13</strong><table style='border-collapse:collapse;margin-top:4px;'><tr><th></th><th style='text-align:right;padding-right:8px;'>Votes</th><th style='text-align:right;'>Percent</th></tr><tr><td style='padding-right:8px;'>Amy Zimmerman</td><td style='text-align:right;padding-right:8px;'>174</td><td style='text-align:right;'>51.5%</td></tr><tr><td style='padding-right:8px;'>David Sanchez</td><td style='text-align:right;padding-right:8px;'>162</td><td style='text-align:right;'>47.9%</td></tr><tr><td style='padding-right:8px;'>write-in:</td><td style='text-align:right;padding-right:8px;'>2</td><td style='text-align:right;'>0.6%</td></tr></table></div>" }, "geometry": { "type": "Point", "coordinates": [ -88.07644030276407, 43.088594263358004 ] } },
{ "type": "Feature", "properties": { "ward": "City Brookfield W14", "candidate": "Amy Zimmerman", "votes": 201.0, "color": "#E41A1C", "popup": "<div><strong>City Brookfield W14</strong><div><strong>Representative to the Assembly District 13</strong><table style='border-collapse:collapse;margin-top:4px;'><tr><th></th><th style='text-align:right;padding-right:8px;'>Votes</th><th style='text-align:right;'>Percent</th></tr><tr><td style='padding-right:8px;'>Amy Zimmerman</td><td style='text-align:right;padding-right:8px;'>201</td><td style='text-align:right;'>73.1%</td></tr><tr><td style='padding-right:8px;'>David Sanchez</td><td style='text-align:right;padding-right:8px;'>74</td><td style='text-align:right;'>26.9%</td></tr><tr><td style='padding-right:8px;'>write-in:</td><td style='text-align:right;padding-right:8px;'>0</td><td style='text-align:right;'>0.0%</td></tr></table></div>" }, "geometry": { "type": "Point", "coordinates": [ -88.139535023985275, 43.065889682559032 ] } },
{ "type": "Feature", "properties": { "ward": "City Brookfield W2", "candidate": "Amy Zimmerman", "votes": 236.0, "color": "#E41A1C", "popup": "<div><strong>City Brookfield W2</strong><div><strong>Representative to the Assembly District 13</strong><table style='border-collapse:collapse;margin-top:4px;'><tr><th></th><th style='text-align:right;padding-right:8px;'>Votes</th><th style='text-align:right;'>Percent</th></tr><tr><td style='padding-right:8px;'>Amy Zimmerman</td><td style='text-align:right;padding-right:8px;'>236</td><td style='text-align:right;'>65.2%</td></tr><tr><td style='padding-right:8px;'>David Sanchez</td><td style='text-align:right;padding-right:8px;'>126</td><td style='text-align:right;'>34.8%</td></tr><tr><td style='padding-right:8px;'>write-in:</td><td style='text-align:right;padding-right:8px;'>0</td><td style='text-align:right;'>0.0%</td></tr></table></div>" }, "geometry": { "type": "Point", "coordinates": [ -88.077247517164437, 43.067431682677288 ] } },
{ "type": "Feature", "properties": { "ward": "Village Elm Grove W5-8", "candidate": "David Sanchez", "votes": 256.0, "color": "#377EB8", "popup": "<div><strong>Village Elm Grove W5-8</strong><div><strong>Representative to the Assembly District 13</strong><table style='border-collapse:collapse;margin-top:4px;'><tr><th></th><th style='text-align:right;padding-right:8px;'>Votes</th><th style='text-align:right;'>Percent</th></tr><tr><td style='padding-right:8px;'>Amy Zimmerman</td><td style='text-align:right;padding-right:8px;'>301</td><td style='text-align:right;'>53.9%</td></tr><tr><td style='padding-right:8px;'>David Sanchez</td><td style='text-align:right;padding-right:8px;'>256</td><td style='text-align:right;'>45.9%</td></tr><tr><td style='padding-right:8px;'>write-in:</td><td style='text-align:right;padding-right:8px;'>1</td><td style='text-align:right;'>0.2%</td></tr></table></div>" }, "geometry": { "type": "Point", "coordinates": [ -88.076373236840553, 43.052359283991422 ] } },
{ "type": "Feature", "properties": { "ward": "Village Elm Grove W1-4", "candidate": "Amy Zimmerman", "votes": 281.0, "color": "#E41A1C", "popup": "<div><strong>Village Elm Grove W1-4</strong><div><strong>Representative to the Assembly District 13</strong><table style='border-collapse:collapse;margin-top:4px;'><tr><th></th><th style='text-align:right;padding-right:8px;'>Votes</th><th style='text-align:right;'>Percent</th></tr><tr><td style='padding-right:8px;'>Amy Zimmerman</td><td style='text-align:right;padding-right:8px;'>281</td><td style='text-align:right;'>48.6%</td></tr><tr><td style='padding-right:8px;'>David Sanchez</td><td style='text-align:right;padding-right:8px;'>295</td><td style='text-align:right;'>51.0%</td></tr><tr><td style='padding-right:8px;'>write-in:</td><td style='text-align:right;padding-right:8px;'>2</td><td style='text-align:right;'>0.3%</td></tr></table></div>" }, "geometry": { "type": "Point", "coordinates": [ -88.09621180792675, 43.044174876962707 ] } },
{ "type": "Feature", "properties": { "ward": "Village Elm Grove W1-4", "candidate": "David Sanchez", "votes": 295.0, "color": "#377EB8", "popup": "<div><strong>Village Elm Grove W1-4</strong><div><strong>Representative to the Assembly District 13</strong><table style='border-collapse:collapse;margin-top:4px;'><tr><th></th><th style='text-align:right;padding-right:8px;'>Votes</th><th style='text-align:right;'>Percent</th></tr><tr><td style='padding-right:8px;'>Amy Zimmerman</td><td style='text-align:right;padding-right:8px;'>281</td><td style='text-align:right;'>48.6%</td></tr><tr><td style='padding-right:8px;'>David Sanchez</td><td style='text-align:right;padding-right:8px;'>295</td><td style='text-align:right;'>51.0%</td></tr><tr><td style='padding-right:8px;'>write-in:</td><td style='text-align:right;padding-right:8px;'>2</td><td style='text-align:right;'>0.3%</td></tr></table></div>" }, "geometry": { "type": "Point", "coordinates": [ -88.09621180792675, 43.044174876962707 ] } },
{ "type": "Feature", "properties": { "ward": "Village Elm Grove W5-8", "candidate": "Amy Zimmerman", "votes": 301.0, "color": "#E41A1C", "popup": "<div><strong>Village Elm Grove W5-8</strong><div><strong>Representative to the Assembly District 13</strong><table style='border-collapse:collapse;margin-top:4px;'><tr><th></th><th style='text-align:right;padding-right:8px;'>Votes</th><th style='text-align:right;'>Percent</th></tr><tr><td style='padding-right:8px;'>Amy Zimmerman</td><td style='text-align:right;padding-right:8px;'>301</td><td style='text-align:right;'>53.9%</td></tr><tr><td style='padding-right:8px;'>David Sanchez</td><td style='text-align:right;padding-right:8px;'>256</td><td style='text-align:right;'>45.9%</td></tr><tr><td style='padding-right:8px;'>write-in:</td><td style='text-align:right;padding-right:8px;'>1</td><td style='text-align:right;'>0.2%</td></tr></table></div>" }, "geometry": { "type": "Point", "coordinates": [ -88.076373236840553, 43.052359283991422 ] } }
]
}
