{
"type": "FeatureCollection",
"name": "wards",
"crs": { "type": "name", "properties": { "name": "urn:ogc:def:crs:OGC:1.3:CRS84" } },
"features": [
{ "type": "Feature", "properties": { "rep_unit_id": 217, "ward": "City of Milwaukee Ward 217", "county": "MILWAUKEE" }, "geometry": { "type": "Polygon", "coordinates": [ [ [ -87.9436198, 43.0170175 ], [ -87.9439008, 43.0170155 ], [ -87.9447448, 43.0170125 ], [ -87.9450268, 43.0170125 ], [ -87.9453028, 43.0170115 ], [ -87.9461338, 43.0170085 ], [ -87.9464108, 43.0170085 ], [ -87.9477868, 43.0169979 ], [ -87.9479169, 43.0104097 ], [ -87.9467728, 43.0103993 ], [ -87.9464858, 43.0103953 ], [ -87.9462128, 43.0103913 ], [ -87.9453969, 43.0103793 ], [ -87.9451249, 43.0103763 ], [ -87.9448479, 43.0103723 ], [ -87.9440179, 43.0103603 ], [ -87.9437419, 43.0103563 ], [ -87.9434619, 43.0103523 ], [ -87.9426239, 43.0103402 ], [ -87.942345, 43.010337199999988 ], [ -87.942225, 43.0103352 ], [ -87.941865, 43.0103292 ], [ -87.941746, 43.0103282 ], [ -87.941584, 43.0103252 ], [ -87.941098, 43.0103192 ], [ -87.940936, 43.0103172 ], [ -87.940933, 43.0105022 ], [ -87.940928, 43.0110593 ], [ -87.940926, 43.0112453 ], [ -87.940923, 43.0114803 ], [ -87.940916, 43.0121863 ], [ -87.940914, 43.0124223 ], [ -87.94091, 43.0127723 ], [ -87.940899, 43.0138234 ], [ -87.940895900000015, 43.0141744 ], [ -87.9411719, 43.0141734 ], [ -87.9420009, 43.0141704 ], [ -87.9422779, 43.0141704 ], [ -87.9425559, 43.0141694 ], [ -87.9433899, 43.0141664 ], [ -87.9436689, 43.0141664 ], [ -87.9436629, 43.0145324 ], [ -87.9436489, 43.0156304 ], [ -87.9436448, 43.0159974 ], [ -87.9436398, 43.0162014 ], [ -87.9436248, 43.0168135 ], [ -87.9436198, 43.0170175 ] ] ] } },
{ "type": "Feature", "properties": { "rep_unit_id": 218, "ward": "City of Milwaukee Ward 218", "county": "MILWAUKEE" }, "geometry": { "type": "Polygon", "coordinates": [ [ [ -87.940763, 43.0103142 ], [ -87.940936, 43.0103172 ], [ -87.941098, 43.0103192 ], [ -87.941584, 43.0103252 ], [ -87.941746, 43.0103282 ], [ -87.941865, 43.0103292 ], [ -87.942225, 43.0103352 ], [ -87.942345, 43.010337199999988 ], [ -87.9426239, 43.0103402 ], [ -87.9434619, 43.0103523 ], [ -87.9437419, 43.0103563 ], [ -87.9440179, 43.0103603 ], [ -87.9448479, 43.0103723 ], [ -87.9451249, 43.0103763 ], [ -87.9453969, 43.0103793 ], [ -87.9462128, 43.0103913 ], [ -87.9464858, 43.0103953 ], [ -87.9467728, 43.0103993 ], [ -87.9479169, 43.0104097 ], [ -87.948029, 43.0049267 ], [ -87.9480553, 43.0036387 ], [ -87.9481592, 43.0031605 ], [ -87.9478509, 43.003161 ], [ -87.9469129, 43.003146 ], [ -87.9466009, 43.003142 ], [ -87.9463259, 43.003137 ], [ -87.9455019, 43.003125 ], [ -87.945228, 43.003121 ], [ -87.945088, 43.003118 ], [ -87.944671, 43.003112 ], [ -87.944532, 43.00311 ], [ -87.944432, 43.003169 ], [ -87.944134, 43.003346 ], [ -87.944035, 43.003406 ], [ -87.943882, 43.003697 ], [ -87.943425, 43.0045741 ], [ -87.943273, 43.0048661 ], [ -87.943227, 43.0049531 ], [ -87.94309, 43.0052151 ], [ -87.943045, 43.0053031 ], [ -87.942901, 43.0055771 ], [ -87.942472, 43.0064001 ], [ -87.942329, 43.0066751 ], [ -87.942216, 43.0068891 ], [ -87.941881, 43.0075322 ], [ -87.941769, 43.0077472 ], [ -87.941689, 43.0078982 ], [ -87.941451, 43.0083532 ], [ -87.940963599999989, 43.009218499999989 ], [ -87.9408135, 43.0094357 ], [ -87.9400676, 43.0102981 ], [ -87.940763, 43.0103142 ] ] ] } },
{ "type": "Feature", "properties": { "rep_unit_id": 219, "ward": "City of Milwaukee Ward 219", "county": "MILWAUKEE" }, "geometry": { "type": "Polygon", "coordinates": [ [ [ -87.936479100000014, 43.0123573 ], [ -87.9379238, 43.0123522 ], [ -87.938169, 43.0121333 ], [ -87.938398, 43.0119123 ], [ -87.939085, 43.011252299999988 ], [ -87.939315, 43.0110323 ], [ -87.939466, 43.0108863 ], [ -87.939921, 43.0104492 ], [ -87.9400676, 43.0102981 ], [ -87.9408135, 43.0094357 ], [ -87.940963599999989, 43.009218499999989 ], [ -87.941451, 43.0083532 ], [ -87.941689, 43.0078982 ], [ -87.941769, 43.0077472 ], [ -87.941881, 43.0075322 ], [ -87.942216, 43.0068891 ], [ -87.942329, 43.0066751 ], [ -87.942472, 43.0064001 ], [ -87.942901, 43.0055771 ], [ -87.943045, 43.0053031 ], [ -87.94309, 43.0052151 ], [ -87.943227, 43.0049531 ], [ -87.943273, 43.0048661 ], [ -87.943425, 43.0045741 ], [ -87.943882, 43.003697 ], [ -87.944035, 43.003406 ], [ -87.944134, 43.003346 ], [ -87.944432, 43.003169 ], [ -87.944532, 43.00311 ], [ -87.94412, 43.003103 ], [ -87.942887, 43.003084 ], [ -87.942499, 43.003078 ], [ -87.942476, 43.003078 ], [ -87.9405441, 43.003048 ], [ -87.9397701, 43.003036 ], [ -87.9382501, 43.003012 ], [ -87.9382011, 43.004802 ], [ -87.9381451, 43.0066213 ], [ -87.9381441, 43.0068301 ], [ -87.9380991, 43.0084752 ], [ -87.9380891, 43.0088352 ], [ -87.9380591, 43.0099152 ], [ -87.9380491, 43.0102752 ], [ -87.9381641, 43.0102762 ], [ -87.9385121, 43.0102822 ], [ -87.9386281, 43.0102842 ], [ -87.936479100000014, 43.0123573 ] ] ] } },
{ "type": "Feature", "properties": { "rep_unit_id": 220, "ward": "City of Milwaukee Ward 220", "county": "MILWAUKEE" }, "geometry": { "type": "Polygon", "coordinates": [ [ [ -87.938097, 43.0191025 ], [ -87.938373, 43.0191015 ], [ -87.9392029, 43.0190995 ], [ -87.9394799, 43.0190995 ], [ -87.9408629, 43.0190965 ], [ -87.9422489, 43.0190935 ], [ -87.942245899999989, 43.0186785 ], [ -87.9422369, 43.0174355 ], [ -87.9422349, 43.0170215 ], [ -87.9436198, 43.0170175 ], [ -87.9436248, 43.0168135 ], [ -87.9436398, 43.0162014 ], [ -87.9436448, 43.0159974 ], [ -87.9436489, 43.0156304 ], [ -87.9436629, 43.0145324 ], [ -87.9436689, 43.0141664 ], [ -87.9433899, 43.0141664 ], [ -87.9425559, 43.0141694 ], [ -87.9422779, 43.0141704 ], [ -87.9420009, 43.0141704 ], [ -87.9411719, 43.0141734 ], [ -87.940895900000015, 43.0141744 ], [ -87.940899, 43.0138234 ], [ -87.94091, 43.0127723 ], [ -87.940914, 43.0124223 ], [ -87.940916, 43.0121863 ], [ -87.940923, 43.0114803 ], [ -87.940926, 43.0112453 ], [ -87.940928, 43.0110593 ], [ -87.940933, 43.0105022 ], [ -87.940936, 43.0103172 ], [ -87.940763, 43.0103142 ], [ -87.9400676, 43.0102981 ], [ -87.939921, 43.0104492 ], [ -87.939466, 43.0108863 ], [ -87.939315, 43.0110323 ], [ -87.939085, 43.011252299999988 ], [ -87.938398, 43.0119123 ], [ -87.938169, 43.0121333 ], [ -87.938164, 43.0125483 ], [ -87.938158, 43.0130433 ], [ -87.938156, 43.0132083 ], [ -87.938154, 43.0132733 ], [ -87.938152, 43.0134703 ], [ -87.938152, 43.0135363 ], [ -87.93815, 43.013664299999988 ], [ -87.938144, 43.0140524 ], [ -87.938143, 43.0141814 ], [ -87.93814, 43.0143344 ], [ -87.938135, 43.0147934 ], [ -87.938134, 43.0149474 ], [ -87.93813, 43.0151594 ], [ -87.938122, 43.0157974 ], [ -87.93812, 43.0160104 ], [ -87.938116, 43.0162144 ], [ -87.938105, 43.0168284 ], [ -87.938102, 43.0170335 ], [ -87.9381, 43.0174465 ], [ -87.938098, 43.0186885 ], [ -87.938097, 43.0191025 ] ] ] } },
{ "type": "Feature", "properties": { "rep_unit_id": 223, "ward": "City of Milwaukee Ward 223", "county": "MILWAUKEE" }, "geometry": { "type": "Polygon", "coordinates": [ [ [ -87.9038267, 43.0253142 ], [ -87.9042418, 43.0252396 ], [ -87.9044268, 43.0252416 ], [ -87.9045818, 43.0252436 ], [ -87.9050248, 43.0248916 ], [ -87.9059048, 43.0241966 ], [ -87.9061808, 43.0236896 ], [ -87.9064518, 43.0231935 ], [ -87.906590799999989, 43.0231935 ], [ -87.9070068, 43.0231956 ], [ -87.9071468, 43.0231966 ], [ -87.9073968, 43.0231976 ], [ -87.9080857, 43.0231996 ], [ -87.9081497, 43.0231996 ], [ -87.9084017, 43.0231996 ], [ -87.9085487, 43.0231996 ], [ -87.9089917, 43.0232006 ], [ -87.9091397, 43.0232016 ], [ -87.9092767, 43.0232016 ], [ -87.9096897, 43.0232016 ], [ -87.9098277, 43.0232016 ], [ -87.9101077, 43.0232016 ], [ -87.9109477, 43.0232046 ], [ -87.9112286, 43.0232056 ], [ -87.9115086, 43.0232056 ], [ -87.9123516, 43.0232076 ], [ -87.9126326, 43.0232086 ], [ -87.9129116, 43.0232086 ], [ -87.9137496, 43.0232106 ], [ -87.9140296, 43.0232116 ], [ -87.9143096, 43.0232116 ], [ -87.9151525, 43.0232136 ], [ -87.9154335, 43.0232146 ], [ -87.9157125, 43.023214599999989 ], [ -87.916549500000016, 43.0232176 ], [ -87.9168295, 43.0232186 ], [ -87.9168315, 43.0230076 ], [ -87.9168375, 43.0223776 ], [ -87.9168405, 43.0221676 ], [ -87.9168385, 43.021131499999989 ], [ -87.9168346, 43.020095 ], [ -87.9182328, 43.0201058 ], [ -87.9182326, 43.0190808 ], [ -87.9177373, 43.0189431 ], [ -87.9176412, 43.0188031 ], [ -87.9174458, 43.0185026 ], [ -87.9173016, 43.0182969 ], [ -87.9171566, 43.0180478 ], [ -87.9169679, 43.0177567 ], [ -87.9168954, 43.017584 ], [ -87.9168767, 43.0175039 ], [ -87.916868, 43.0173926 ], [ -87.9168626, 43.0170391 ], [ -87.9155636, 43.0170464 ], [ -87.9154066, 43.017047399999988 ], [ -87.9151286, 43.0170474 ], [ -87.9142956, 43.0170474 ], [ -87.9140186, 43.0170484 ], [ -87.9137407, 43.0170484 ], [ -87.9129077, 43.0170484 ], [ -87.9126307, 43.0170494 ], [ -87.9123507, 43.0170494 ], [ -87.9115107, 43.0170504 ], [ -87.9112317, 43.0170514 ], [ -87.9112237, 43.0168494 ], [ -87.9112007, 43.0162453 ], [ -87.9111937, 43.0160443 ], [ -87.9111887, 43.0156663 ], [ -87.9111768, 43.0145333 ], [ -87.9111728, 43.014156299999989 ], [ -87.9111708, 43.0139723 ], [ -87.9111678, 43.0136392 ], [ -87.9110668, 43.0134462 ], [ -87.910981800000016, 43.0132842 ], [ -87.91094480000001, 43.0132142 ], [ -87.910834799999989, 43.0130042 ], [ -87.9107988, 43.0129342 ], [ -87.9108378, 43.0128072 ], [ -87.9109538, 43.0124272 ], [ -87.9109938, 43.0123012 ], [ -87.911067800000012, 43.0120592 ], [ -87.9111478, 43.0118002 ], [ -87.9111418, 43.0113122 ], [ -87.9111398, 43.0110592 ], [ -87.9108738, 43.0110552 ], [ -87.9100778, 43.0110452 ], [ -87.909812800000012, 43.0110422 ], [ -87.9096188, 43.0106801 ], [ -87.9093379, 43.010153099999989 ], [ -87.9090889, 43.0096731 ], [ -87.9090459, 43.0095921 ], [ -87.9088549, 43.0092301 ], [ -87.9088269, 43.0091791 ], [ -87.9083338, 43.0082651 ], [ -87.9066149, 43.0090839 ], [ -87.9048574, 43.0125033 ], [ -87.9039819, 43.0140183 ], [ -87.9044598, 43.014156199999988 ], [ -87.9040745, 43.0148694 ], [ -87.9038293, 43.0153288 ], [ -87.903694, 43.0155801 ], [ -87.9034657, 43.0160043 ], [ -87.9033889, 43.0161471 ], [ -87.902946899999989, 43.0169682 ], [ -87.9028425, 43.0171495 ], [ -87.9028146, 43.0172006 ], [ -87.902924200000015, 43.0177402 ], [ -87.903059399999989, 43.0178084 ], [ -87.9075677, 43.0178035 ], [ -87.907605, 43.0179423 ], [ -87.9076382, 43.0180657 ], [ -87.9036175, 43.0180852 ], [ -87.9035119, 43.0181373 ], [ -87.9034237, 43.0182546 ], [ -87.9044742, 43.0193366 ], [ -87.9073759, 43.0193556 ], [ -87.9073684, 43.0196112 ], [ -87.9047742, 43.0195882 ], [ -87.9060456, 43.0213761 ], [ -87.906052699999989, 43.0213866 ], [ -87.9059559, 43.0217553 ], [ -87.9058556, 43.0222017 ], [ -87.9058426, 43.022254 ], [ -87.905807900000013, 43.0223933 ], [ -87.9057678, 43.022551799999988 ], [ -87.9056606, 43.0229785 ], [ -87.9056225, 43.0230267 ], [ -87.9046058, 43.0241236 ], [ -87.9043715, 43.0243851 ], [ -87.9040692, 43.0246085 ], [ -87.9040536, 43.0246565 ], [ -87.9039889, 43.0248525 ], [ -87.903834, 43.0252244 ], [ -87.9038267, 43.0253142 ] ] ] } },
{ "type": "Feature", "properties": { "rep_unit_id": 224, "ward": "City of Milwaukee Ward 224", "county": "MILWAUKEE" }, "geometry": { "type": "Polygon", "coordinates": [ [ [ -87.9329993, 43.0190873 ], [ -87.9342841, 43.0190965 ], [ -87.9345351, 43.0190965 ], [ -87.935291, 43.0190975 ], [ -87.935543, 43.0190985 ], [ -87.935796, 43.0190985 ], [ -87.936559, 43.0190995 ], [ -87.936813, 43.0191005 ], [ -87.937069, 43.0191005 ], [ -87.93784, 43.0191015 ], [ -87.938097, 43.0191025 ], [ -87.938098, 43.0186885 ], [ -87.9381, 43.0174465 ], [ -87.938102, 43.0170335 ], [ -87.938105, 43.0168284 ], [ -87.938116, 43.0162144 ], [ -87.93812, 43.0160104 ], [ -87.938122, 43.0157974 ], [ -87.93813, 43.0151594 ], [ -87.938134, 43.0149474 ], [ -87.938135, 43.0147934 ], [ -87.93814, 43.0143344 ], [ -87.938143, 43.0141814 ], [ -87.938144, 43.0140524 ], [ -87.93815, 43.013664299999988 ], [ -87.938152, 43.0135363 ], [ -87.938152, 43.0134703 ], [ -87.938154, 43.0132733 ], [ -87.938156, 43.0132083 ], [ -87.938158, 43.0130433 ], [ -87.938164, 43.0125483 ], [ -87.938169, 43.0121333 ], [ -87.9379238, 43.0123522 ], [ -87.936479100000014, 43.0123573 ], [ -87.9353001, 43.0134863 ], [ -87.9351711, 43.0136093 ], [ -87.9347861, 43.0139793 ], [ -87.9346581, 43.0141033 ], [ -87.9345521, 43.0142043 ], [ -87.9342381, 43.0145074 ], [ -87.9341331, 43.0146084 ], [ -87.9339811, 43.0147534 ], [ -87.9335271, 43.0151894 ], [ -87.9333761, 43.0153354 ], [ -87.9332911, 43.0154164 ], [ -87.9330371, 43.0156604 ], [ -87.9329531, 43.0157424 ], [ -87.9329321, 43.0160164 ], [ -87.9329241, 43.0164424 ], [ -87.9329451, 43.0167053 ], [ -87.9330061, 43.0170296 ], [ -87.9329993, 43.0190873 ] ] ] } },
{ "type": "Feature", "properties": { "rep_unit_id": 225, "ward": "City of Milwaukee Ward 225", "county": "MILWAUKEE" }, "geometry": { "type": "Polygon", "coordinates": [ [ [ -87.9294643, 43.0122983 ], [ -87.9297383, 43.0123003 ], [ -87.9305613, 43.0123073 ], [ -87.9308362, 43.0123103 ], [ -87.9310802, 43.0123123 ], [ -87.9318152, 43.0123183 ], [ -87.9320612, 43.0123203 ], [ -87.9322602, 43.0123213 ], [ -87.9328572, 43.0123273 ], [ -87.9330562, 43.0123293 ], [ -87.9332842, 43.0123303 ], [ -87.9339712, 43.0123363 ], [ -87.9342002, 43.0123383 ], [ -87.9344271, 43.0123403 ], [ -87.9351101, 43.0123463 ], [ -87.9353381, 43.0123483 ], [ -87.936479100000014, 43.0123573 ], [ -87.9386281, 43.0102842 ], [ -87.9385121, 43.0102822 ], [ -87.9381641, 43.0102762 ], [ -87.9380491, 43.0102752 ], [ -87.9380591, 43.0099152 ], [ -87.9380891, 43.0088352 ], [ -87.9380991, 43.0084752 ], [ -87.9381441, 43.0068301 ], [ -87.9381451, 43.0066213 ], [ -87.9370571, 43.0066091 ], [ -87.936784100000011, 43.0066051 ], [ -87.9365102, 43.0066001 ], [ -87.9356882, 43.0065861 ], [ -87.9354142, 43.006582099999989 ], [ -87.9352052, 43.0065781 ], [ -87.9345812, 43.0065681 ], [ -87.9343732, 43.0065651 ], [ -87.934145199999989, 43.0065611 ], [ -87.9334612, 43.0065491 ], [ -87.933233199999989, 43.0065461 ], [ -87.9330412, 43.0065421 ], [ -87.9324673, 43.0065331 ], [ -87.9322763, 43.0065301 ], [ -87.9320313, 43.0065261 ], [ -87.9312983, 43.0065141 ], [ -87.9310543, 43.0065101 ], [ -87.9307803, 43.0065051 ], [ -87.9299603, 43.0064911 ], [ -87.9296873, 43.0064871 ], [ -87.9296723, 43.0068511 ], [ -87.9296283, 43.0079471 ], [ -87.9296143, 43.0083121 ], [ -87.9296003, 43.0086751 ], [ -87.9295593, 43.0097652 ], [ -87.929546300000013, 43.0101292 ], [ -87.9295373, 43.0103432 ], [ -87.9295133, 43.010987199999988 ], [ -87.9295053, 43.0112022 ], [ -87.9294963, 43.0114212 ], [ -87.9294723, 43.0120783 ], [ -87.9294643, 43.0122983 ] ] ] } },
{ "type": "Feature", "properties": { "rep_unit_id": 226, "ward": "City of Milwaukee Ward 226", "county": "MILWAUKEE" }, "geometry": { "type": "Polygon", "coordinates": [ [ [ -87.9267893, 43.0160244 ], [ -87.9270223, 43.0160234 ], [ -87.9277233, 43.0160234 ], [ -87.9279573, 43.0160234 ], [ -87.9282303, 43.0160224 ], [ -87.929051199999989, 43.0160214 ], [ -87.9293252, 43.0160214 ], [ -87.9295992, 43.016020399999988 ], [ -87.9304242, 43.0160194 ], [ -87.9306992, 43.0160194 ], [ -87.9309442, 43.0160184 ], [ -87.9316782, 43.0160174 ], [ -87.9319242, 43.0160174 ], [ -87.9327851, 43.0160164 ], [ -87.9329321, 43.0160164 ], [ -87.9329531, 43.0157424 ], [ -87.9330371, 43.0156604 ], [ -87.9332911, 43.0154164 ], [ -87.9333761, 43.0153354 ], [ -87.9335271, 43.0151894 ], [ -87.9339811, 43.0147534 ], [ -87.9341331, 43.0146084 ], [ -87.9342381, 43.0145074 ], [ -87.9345521, 43.0142043 ], [ -87.9346581, 43.0141033 ], [ -87.9347861, 43.0139793 ], [ -87.9351711, 43.0136093 ], [ -87.9353001, 43.0134863 ], [ -87.936479100000014, 43.0123573 ], [ -87.9353381, 43.0123483 ], [ -87.9351101, 43.0123463 ], [ -87.9344271, 43.0123403 ], [ -87.9342002, 43.0123383 ], [ -87.9339712, 43.0123363 ], [ -87.9332842, 43.0123303 ], [ -87.9330562, 43.0123293 ], [ -87.9328572, 43.0123273 ], [ -87.9322602, 43.0123213 ], [ -87.9320612, 43.0123203 ], [ -87.9318152, 43.0123183 ], [ -87.9310802, 43.0123123 ], [ -87.9308362, 43.0123103 ], [ -87.9305613, 43.0123073 ], [ -87.9297383, 43.0123003 ], [ -87.9294643, 43.0122983 ], [ -87.9291903, 43.0122913 ], [ -87.9283713, 43.0122713 ], [ -87.9280983, 43.0122653 ], [ -87.9278633, 43.0122673 ], [ -87.9275063, 43.0122723 ], [ -87.9273613, 43.0122763 ], [ -87.9271603, 43.0122813 ], [ -87.9269264, 43.0122873 ], [ -87.9269133, 43.0126663 ], [ -87.9269123, 43.0127133 ], [ -87.9268713, 43.0138043 ], [ -87.9268573, 43.0141843 ], [ -87.9268433, 43.0145513 ], [ -87.9268023, 43.0156554 ], [ -87.9267893, 43.0160244 ] ] ] } },
{ "type": "Feature", "properties": { "rep_unit_id": 227, "ward": "City of Milwaukee Ward 227", "county": "MILWAUKEE" }, "geometry": { "type": "Polygon", "coordinates": [ [ [ -87.9267523, 43.0191005 ], [ -87.9272573, 43.0190925 ], [ -87.928097200000011, 43.0190815 ], [ -87.9287732, 43.0190845 ], [ -87.9292792, 43.0190875 ], [ -87.9295312, 43.0190875 ], [ -87.9302872, 43.0190885 ], [ -87.9305402, 43.0190895 ], [ -87.930779199999989, 43.0190895 ], [ -87.9314961, 43.0190905 ], [ -87.9317361, 43.0190915 ], [ -87.9325751, 43.0190925 ], [ -87.9329993, 43.0190873 ], [ -87.9330061, 43.0170296 ], [ -87.9329451, 43.0167053 ], [ -87.9329241, 43.0164424 ], [ -87.9329321, 43.0160164 ], [ -87.9327851, 43.0160164 ], [ -87.9319242, 43.0160174 ], [ -87.9316782, 43.0160174 ], [ -87.9309442, 43.0160184 ], [ -87.9306992, 43.0160194 ], [ -87.9304242, 43.0160194 ], [ -87.9295992, 43.016020399999988 ], [ -87.9293252, 43.0160214 ], [ -87.929051199999989, 43.0160214 ], [ -87.9282303, 43.0160224 ], [ -87.9279573, 43.0160234 ], [ -87.9277233, 43.0160234 ], [ -87.9270223, 43.0160234 ], [ -87.9267893, 43.0160244 ], [ -87.9267823, 43.0162264 ], [ -87.9267643, 43.0168354 ], [ -87.9267583, 43.0170384 ], [ -87.9267553, 43.0180704 ], [ -87.9267523, 43.0191005 ] ] ] } },
{ "type": "Feature", "properties": { "rep_unit_id": 228, "ward": "City of Milwaukee Ward 228", "county": "MILWAUKEE" }, "geometry": { "type": "Polygon", "coordinates": [ [ [ -87.9253433, 43.0232106 ], [ -87.9256213, 43.0232096 ], [ -87.9264582, 43.0232056 ], [ -87.9267382, 43.0232056 ], [ -87.9272442, 43.0232036 ], [ -87.9280872, 43.0232016 ], [ -87.9284202, 43.0231886 ], [ -87.9287652, 43.0231786 ], [ -87.9292722, 43.0231656 ], [ -87.929524200000017, 43.0231536 ], [ -87.9302831, 43.0231166 ], [ -87.9305361, 43.0231056 ], [ -87.9310271, 43.0230816 ], [ -87.9324991, 43.0230116 ], [ -87.9329911, 43.0229886 ], [ -87.9329911, 43.022826599999988 ], [ -87.9329931, 43.0223406 ], [ -87.9329941, 43.0221796 ], [ -87.9329941, 43.0219736 ], [ -87.9329961, 43.0213586 ], [ -87.9329971, 43.0211536 ], [ -87.9329971, 43.0209496 ], [ -87.932999099999989, 43.0203395 ], [ -87.9330011, 43.0201365 ], [ -87.9330031, 43.0195075 ], [ -87.9329993, 43.0190873 ], [ -87.9325751, 43.0190925 ], [ -87.9317361, 43.0190915 ], [ -87.9314961, 43.0190905 ], [ -87.930779199999989, 43.0190895 ], [ -87.9305402, 43.0190895 ], [ -87.9302872, 43.0190885 ], [ -87.9295312, 43.0190875 ], [ -87.9292792, 43.0190875 ], [ -87.9287732, 43.0190845 ], [ -87.928097200000011, 43.0190815 ], [ -87.9272573, 43.0190925 ], [ -87.9267523, 43.0191005 ], [ -87.926471300000017, 43.0191005 ], [ -87.9256303, 43.0191005 ], [ -87.9253503, 43.0191015 ], [ -87.9253493, 43.0193065 ], [ -87.9253483, 43.0199215 ], [ -87.9253483, 43.0201275 ], [ -87.925347300000013, 43.0203325 ], [ -87.9253463, 43.0209475 ], [ -87.9253463, 43.0211535 ], [ -87.925345299999989, 43.0213566 ], [ -87.925345299999989, 43.0219696 ], [ -87.925345299999989, 43.0221736 ], [ -87.9253443, 43.0223806 ], [ -87.9253433, 43.0230026 ], [ -87.9253433, 43.0232106 ] ] ] } },
{ "type": "Feature", "properties": { "rep_unit_id": 229, "ward": "City of Milwaukee Ward 229", "county": "MILWAUKEE" }, "geometry": { "type": "Polygon", "coordinates": [ [ [ -87.9168235, 43.0263377 ], [ -87.9169955, 43.0263347 ], [ -87.9175114, 43.0263247 ], [ -87.9176844, 43.0263227 ], [ -87.9177874, 43.0263207 ], [ -87.9180964, 43.0263147 ], [ -87.918200399999989, 43.0263137 ], [ -87.9182254, 43.0263127 ], [ -87.9185764, 43.0263127 ], [ -87.9196294, 43.0263147 ], [ -87.9199814, 43.0263157 ], [ -87.9203954, 43.0263157 ], [ -87.9213933, 43.0263187 ], [ -87.9215773, 43.0261577 ], [ -87.9216823, 43.0260667 ], [ -87.9218063, 43.0259587 ], [ -87.9218903, 43.0258857 ], [ -87.921937, 43.025845 ], [ -87.9225313, 43.0253137 ], [ -87.9228113, 43.0253147 ], [ -87.923652300000015, 43.0253197 ], [ -87.9239333, 43.0253217 ], [ -87.9242123, 43.0253227 ], [ -87.9250522, 43.0253267 ], [ -87.9253322, 43.0253287 ], [ -87.9253312, 43.0251087 ], [ -87.9253302, 43.0244507 ], [ -87.9253303, 43.0242316 ], [ -87.9253323, 43.0240266 ], [ -87.9253403, 43.0234146 ], [ -87.9253433, 43.0232106 ], [ -87.9253433, 43.0230026 ], [ -87.9253443, 43.0223806 ], [ -87.925345299999989, 43.0221736 ], [ -87.925345299999989, 43.0219696 ], [ -87.925345299999989, 43.0213566 ], [ -87.9253463, 43.0211535 ], [ -87.9250643, 43.0211545 ], [ -87.9242223, 43.0211585 ], [ -87.9239413, 43.0211605 ], [ -87.9236603, 43.0211665 ], [ -87.9223689, 43.0211723 ], [ -87.9210911, 43.0211648 ], [ -87.919694299999989, 43.0211569 ], [ -87.9183811, 43.0211496 ], [ -87.918233, 43.0211478 ], [ -87.9182328, 43.0201058 ], [ -87.9168346, 43.020095 ], [ -87.9168385, 43.021131499999989 ], [ -87.9168405, 43.0221676 ], [ -87.9168375, 43.0223776 ], [ -87.9168315, 43.0230076 ], [ -87.9168295, 43.0232186 ], [ -87.9168335, 43.0234156 ], [ -87.9168475, 43.0240066 ], [ -87.9168525, 43.0242046 ], [ -87.9168485, 43.0244236 ], [ -87.9168405, 43.0250826 ], [ -87.9168375, 43.0253027 ], [ -87.9168345, 43.0255087 ], [ -87.9168255, 43.026130699999989 ], [ -87.9168235, 43.0263377 ] ] ] } },
{ "type": "Feature", "properties": { "rep_unit_id": 230, "ward": "City of Milwaukee Ward 230", "county": "MILWAUKEE" }, "geometry": { "type": "Polygon", "coordinates": [ [ [ -87.9186267, 43.0331359 ], [ -87.9217167, 43.0321645 ], [ -87.9223865, 43.032149499999989 ], [ -87.922397, 43.0319217 ], [ -87.9223981, 43.0317678 ], [ -87.9224, 43.0314938 ], [ -87.9224003, 43.031452 ], [ -87.922401, 43.0314296 ], [ -87.9224552, 43.0313541 ], [ -87.9224561, 43.0312534 ], [ -87.9224729, 43.0285508 ], [ -87.9224555, 43.0283076 ], [ -87.9207623, 43.0284434 ], [ -87.9222512, 43.0267251 ], [ -87.921937, 43.025845 ], [ -87.9218903, 43.0258857 ], [ -87.9218063, 43.0259587 ], [ -87.9216823, 43.0260667 ], [ -87.9215773, 43.0261577 ], [ -87.9213933, 43.0263187 ], [ -87.9203954, 43.0263157 ], [ -87.9199814, 43.0263157 ], [ -87.9196294, 43.0263147 ], [ -87.9185764, 43.0263127 ], [ -87.9182254, 43.0263127 ], [ -87.918200399999989, 43.0263137 ], [ -87.9180964, 43.0263147 ], [ -87.9177874, 43.0263207 ], [ -87.9176844, 43.0263227 ], [ -87.9175114, 43.0263247 ], [ -87.9169955, 43.0263347 ], [ -87.9168235, 43.0263377 ], [ -87.9168255, 43.026130699999989 ], [ -87.9168345, 43.0255087 ], [ -87.9168375, 43.0253027 ], [ -87.9168405, 43.0250826 ], [ -87.9168485, 43.0244236 ], [ -87.9168525, 43.0242046 ], [ -87.9168475, 43.0240066 ], [ -87.9168335, 43.0234156 ], [ -87.9168295, 43.0232186 ], [ -87.916549500000016, 43.0232176 ], [ -87.9157125, 43.023214599999989 ], [ -87.9154335, 43.0232146 ], [ -87.9151525, 43.0232136 ], [ -87.9143096, 43.0232116 ], [ -87.9140296, 43.0232116 ], [ -87.9137496, 43.0232106 ], [ -87.9129116, 43.0232086 ], [ -87.9126326, 43.0232086 ], [ -87.9123516, 43.0232076 ], [ -87.9115086, 43.0232056 ], [ -87.9112286, 43.0232056 ], [ -87.9109477, 43.0232046 ], [ -87.9101077, 43.0232016 ], [ -87.9098277, 43.0232016 ], [ -87.9096897, 43.0232016 ], [ -87.9092767, 43.0232016 ], [ -87.9091397, 43.0232016 ], [ -87.9089917, 43.0232006 ], [ -87.9085487, 43.0231996 ], [ -87.9084017, 43.0231996 ], [ -87.9081497, 43.0231996 ], [ -87.9080857, 43.0231996 ], [ -87.9073968, 43.0231976 ], [ -87.9071468, 43.0231966 ], [ -87.9070068, 43.0231956 ], [ -87.906590799999989, 43.0231935 ], [ -87.9064518, 43.0231935 ], [ -87.9061808, 43.0236896 ], [ -87.9059048, 43.0241966 ], [ -87.9050248, 43.0248916 ], [ -87.9045818, 43.0252436 ], [ -87.9044268, 43.0252416 ], [ -87.9042418, 43.0252396 ], [ -87.9038267, 43.0253142 ], [ -87.9038442, 43.0254179 ], [ -87.9038455, 43.0254333 ], [ -87.9040483, 43.0260948 ], [ -87.9040533, 43.0261109 ], [ -87.9052792, 43.0275913 ], [ -87.9053304, 43.0276531 ], [ -87.9053627, 43.0276931 ], [ -87.9054144, 43.0277574 ], [ -87.9048341, 43.0280436 ], [ -87.9062336, 43.0291884 ], [ -87.9074909, 43.0300678 ], [ -87.908759, 43.0307144 ], [ -87.9099573, 43.031154699999988 ], [ -87.9104154, 43.0313554 ], [ -87.9105852, 43.031579 ], [ -87.9107207, 43.031880400000013 ], [ -87.9107275, 43.0320493 ], [ -87.9124532, 43.0324481 ], [ -87.915206, 43.0330422 ], [ -87.9186267, 43.0331359 ] ] ] } },
{ "type": "Feature", "properties": { "rep_unit_id": 231, "ward": "City of Milwaukee Ward 231", "county": "MILWAUKEE" }, "geometry": { "type": "Polygon", "coordinates": [ [ [ -87.918233, 43.0211478 ], [ -87.9183811, 43.0211496 ], [ -87.919694299999989, 43.0211569 ], [ -87.9210911, 43.0211648 ], [ -87.9223689, 43.0211723 ], [ -87.9236603, 43.0211665 ], [ -87.9239413, 43.0211605 ], [ -87.9242223, 43.0211585 ], [ -87.9250643, 43.0211545 ], [ -87.9253463, 43.0211535 ], [ -87.9253463, 43.0209475 ], [ -87.925347300000013, 43.0203325 ], [ -87.9253483, 43.0201275 ], [ -87.9253483, 43.0199215 ], [ -87.9253493, 43.0193065 ], [ -87.9253503, 43.0191015 ], [ -87.9256303, 43.0191005 ], [ -87.926471300000017, 43.0191005 ], [ -87.9267523, 43.0191005 ], [ -87.9267553, 43.0180704 ], [ -87.9267583, 43.0170384 ], [ -87.9264773, 43.0170384 ], [ -87.9256343, 43.0170384 ], [ -87.9253533, 43.0170384 ], [ -87.9250703, 43.0170384 ], [ -87.9242244, 43.0170384 ], [ -87.9239424, 43.0170384 ], [ -87.9236584, 43.0170384 ], [ -87.9228074, 43.0170384 ], [ -87.9225244, 43.0170394 ], [ -87.9222384, 43.0170394 ], [ -87.9213824, 43.0170394 ], [ -87.9210975, 43.0170394 ], [ -87.9208135, 43.0170394 ], [ -87.9199615, 43.0170394 ], [ -87.919678499999989, 43.0170394 ], [ -87.9193965, 43.0170394 ], [ -87.9185515, 43.0170424 ], [ -87.9182705, 43.0170434 ], [ -87.9179895, 43.0170434 ], [ -87.9171486, 43.0170444 ], [ -87.9168626, 43.0170391 ], [ -87.916868, 43.0173926 ], [ -87.9168767, 43.0175039 ], [ -87.9168954, 43.017584 ], [ -87.9169679, 43.0177567 ], [ -87.9171566, 43.0180478 ], [ -87.9173016, 43.0182969 ], [ -87.9174458, 43.0185026 ], [ -87.9176412, 43.0188031 ], [ -87.9177373, 43.0189431 ], [ -87.9182326, 43.0190808 ], [ -87.9182328, 43.0201058 ], [ -87.918233, 43.0211478 ] ] ] } },
{ "type": "Feature", "properties": { "rep_unit_id": 232, "ward": "City of Milwaukee Ward 232", "county": "MILWAUKEE" }, "geometry": { "type": "Polygon", "coordinates": [ [ [ -87.9171486, 43.0170444 ], [ -87.9179895, 43.0170434 ], [ -87.9182705, 43.0170434 ], [ -87.9185515, 43.0170424 ], [ -87.9193965, 43.0170394 ], [ -87.919678499999989, 43.0170394 ], [ -87.9199615, 43.0170394 ], [ -87.9208135, 43.0170394 ], [ -87.9210975, 43.0170394 ], [ -87.9213824, 43.0170394 ], [ -87.9222384, 43.0170394 ], [ -87.9225244, 43.0170394 ], [ -87.9228074, 43.0170384 ], [ -87.9236584, 43.0170384 ], [ -87.9239424, 43.0170384 ], [ -87.9242244, 43.0170384 ], [ -87.9250703, 43.0170384 ], [ -87.9253533, 43.0170384 ], [ -87.9256343, 43.0170384 ], [ -87.9264773, 43.0170384 ], [ -87.9267583, 43.0170384 ], [ -87.9267643, 43.0168354 ], [ -87.9267823, 43.0162264 ], [ -87.9267893, 43.0160244 ], [ -87.9268023, 43.0156554 ], [ -87.9268433, 43.0145513 ], [ -87.9268573, 43.0141843 ], [ -87.9268713, 43.0138043 ], [ -87.9269123, 43.0127133 ], [ -87.9269133, 43.0126663 ], [ -87.9269264, 43.0122873 ], [ -87.9266444, 43.0122873 ], [ -87.9258024, 43.0122883 ], [ -87.9255214, 43.0122893 ], [ -87.9252394, 43.0122893 ], [ -87.9243964, 43.0122902 ], [ -87.9241154, 43.0122912 ], [ -87.9238314, 43.0122912 ], [ -87.9229835, 43.0122912 ], [ -87.9227005, 43.0122922 ], [ -87.9224175, 43.0122922 ], [ -87.9215705, 43.012293199999988 ], [ -87.9212885, 43.0122942 ], [ -87.9210055, 43.0122942 ], [ -87.9201565, 43.0122952 ], [ -87.9198745, 43.0122962 ], [ -87.9196066, 43.0123002 ], [ -87.9188056, 43.0123162 ], [ -87.9185396, 43.0123222 ], [ -87.9181936, 43.0123172 ], [ -87.9168075, 43.0122945 ], [ -87.9168626, 43.0170391 ], [ -87.9171486, 43.0170444 ] ] ] } },
{ "type": "Feature", "properties": { "rep_unit_id": 233, "ward": "City of Milwaukee Ward 233", "county": "MILWAUKEE" }, "geometry": { "type": "Polygon", "coordinates": [ [ [ -87.9212885, 43.0122942 ], [ -87.9215705, 43.012293199999988 ], [ -87.9224175, 43.0122922 ], [ -87.9227005, 43.0122922 ], [ -87.9229835, 43.0122912 ], [ -87.9238314, 43.0122912 ], [ -87.9241154, 43.0122912 ], [ -87.9243964, 43.0122902 ], [ -87.9252394, 43.0122893 ], [ -87.9255214, 43.0122893 ], [ -87.9258024, 43.0122883 ], [ -87.9266444, 43.0122873 ], [ -87.9269264, 43.0122873 ], [ -87.9271603, 43.0122813 ], [ -87.9273613, 43.0122763 ], [ -87.9275063, 43.0122723 ], [ -87.9278633, 43.0122673 ], [ -87.9280983, 43.0122653 ], [ -87.9283713, 43.0122713 ], [ -87.9291903, 43.0122913 ], [ -87.9294643, 43.0122983 ], [ -87.9294723, 43.0120783 ], [ -87.9294963, 43.0114212 ], [ -87.9295053, 43.0112022 ], [ -87.9295133, 43.010987199999988 ], [ -87.9295373, 43.0103432 ], [ -87.929546300000013, 43.0101292 ], [ -87.9295593, 43.0097652 ], [ -87.9296003, 43.0086751 ], [ -87.9296143, 43.0083121 ], [ -87.9296283, 43.0079471 ], [ -87.9296723, 43.0068511 ], [ -87.9296873, 43.0064871 ], [ -87.9294144, 43.0064821 ], [ -87.9285974, 43.0064671 ], [ -87.9283254, 43.0064631 ], [ -87.9280874, 43.0064631 ], [ -87.9273734, 43.0064631 ], [ -87.9271364, 43.0064641 ], [ -87.9269294, 43.0064641 ], [ -87.9257277, 43.006459 ], [ -87.9248305, 43.0064621 ], [ -87.9246055, 43.0064661 ], [ -87.9239725, 43.0064661 ], [ -87.9220736, 43.006467 ], [ -87.9214416, 43.006468 ], [ -87.9214376, 43.0066501 ], [ -87.9214266, 43.0071971 ], [ -87.921423600000011, 43.0073801 ], [ -87.9214196, 43.0075621 ], [ -87.9214086, 43.0081101 ], [ -87.9214055, 43.0082931 ], [ -87.9213975, 43.0086581 ], [ -87.9213745, 43.0097532 ], [ -87.9213675, 43.0101192 ], [ -87.9213635, 43.0102112 ], [ -87.9213535, 43.0104902 ], [ -87.9213505, 43.0105832 ], [ -87.9213465, 43.0106712 ], [ -87.9213375, 43.0109372 ], [ -87.9213345, 43.0110262 ], [ -87.9213245, 43.0112792 ], [ -87.9213045, 43.0118632 ], [ -87.9212975, 43.0120402 ], [ -87.9212885, 43.0122942 ] ] ] } },
{ "type": "Feature", "properties": { "rep_unit_id": 234, "ward": "City of Milwaukee Ward 234", "county": "MILWAUKEE" }, "geometry": { "type": "Polygon", "coordinates": [ [ [ -87.9168075, 43.0122945 ], [ -87.9181936, 43.0123172 ], [ -87.9185396, 43.0123222 ], [ -87.9188056, 43.0123162 ], [ -87.9196066, 43.0123002 ], [ -87.9198745, 43.0122962 ], [ -87.9201565, 43.0122952 ], [ -87.9210055, 43.0122942 ], [ -87.9212885, 43.0122942 ], [ -87.9212975, 43.0120402 ], [ -87.9213045, 43.0118632 ], [ -87.9213245, 43.0112792 ], [ -87.9213345, 43.0110262 ], [ -87.9213375, 43.0109372 ], [ -87.9213465, 43.0106712 ], [ -87.9213505, 43.0105832 ], [ -87.9213535, 43.0104902 ], [ -87.9213635, 43.0102112 ], [ -87.9213675, 43.0101192 ], [ -87.9213745, 43.0097532 ], [ -87.9213975, 43.0086581 ], [ -87.9214055, 43.0082931 ], [ -87.9214086, 43.0081101 ], [ -87.9214196, 43.0075621 ], [ -87.921423600000011, 43.0073801 ], [ -87.9214266, 43.0071971 ], [ -87.9214376, 43.0066501 ], [ -87.9214416, 43.006468 ], [ -87.9211586, 43.006468 ], [ -87.9203096, 43.006468 ], [ -87.9200276, 43.006469 ], [ -87.919760599999989, 43.006469 ], [ -87.9189636, 43.00647 ], [ -87.9186976, 43.006471 ], [ -87.9168813, 43.0064731 ], [ -87.9167874, 43.010076399999988 ], [ -87.9168075, 43.0122945 ] ] ] } },
{ "type": "Feature", "properties": { "rep_unit_id": 235, "ward": "City of Milwaukee Ward 235", "county": "MILWAUKEE" }, "geometry": { "type": "Polygon", "coordinates": [ [ [ -87.9112317, 43.0170514 ], [ -87.9115107, 43.0170504 ], [ -87.9123507, 43.0170494 ], [ -87.9126307, 43.0170494 ], [ -87.9129077, 43.0170484 ], [ -87.9137407, 43.0170484 ], [ -87.9140186, 43.0170484 ], [ -87.9142956, 43.0170474 ], [ -87.9151286, 43.0170474 ], [ -87.9154066, 43.017047399999988 ], [ -87.9155636, 43.0170464 ], [ -87.9168626, 43.0170391 ], [ -87.9168075, 43.0122945 ], [ -87.9167874, 43.010076399999988 ], [ -87.9168813, 43.0064731 ], [ -87.9139499, 43.0064839 ], [ -87.9138094, 43.0080549 ], [ -87.9111961, 43.0083441 ], [ -87.9111928, 43.0086281 ], [ -87.9111898, 43.0087121 ], [ -87.9111808, 43.0090211 ], [ -87.9111778, 43.0091241 ], [ -87.9111698, 43.0095101 ], [ -87.9111468, 43.0106712 ], [ -87.9111398, 43.0110592 ], [ -87.9111418, 43.0113122 ], [ -87.9111478, 43.0118002 ], [ -87.911067800000012, 43.0120592 ], [ -87.9109938, 43.0123012 ], [ -87.9109538, 43.0124272 ], [ -87.9108378, 43.0128072 ], [ -87.9107988, 43.0129342 ], [ -87.910834799999989, 43.0130042 ], [ -87.91094480000001, 43.0132142 ], [ -87.910981800000016, 43.0132842 ], [ -87.9110668, 43.0134462 ], [ -87.9111678, 43.0136392 ], [ -87.9111708, 43.0139723 ], [ -87.9111728, 43.014156299999989 ], [ -87.9111768, 43.0145333 ], [ -87.9111887, 43.0156663 ], [ -87.9111937, 43.0160443 ], [ -87.9112007, 43.0162453 ], [ -87.9112237, 43.0168494 ], [ -87.9112317, 43.0170514 ] ] ] } },
{ "type": "Feature", "properties": { "rep_unit_id": 242, "ward": "City of Milwaukee Ward 242", "county": "MILWAUKEE" }, "geometry": { "type": "Polygon", "coordinates": [ [ [ -87.9139499, 43.0064839 ], [ -87.9168813, 43.0064731 ], [ -87.9186976, 43.006471 ], [ -87.9189636, 43.00647 ], [ -87.919760599999989, 43.006469 ], [ -87.9200276, 43.006469 ], [ -87.9203096, 43.006468 ], [ -87.9211586, 43.006468 ], [ -87.9214416, 43.006468 ], [ -87.9220736, 43.006467 ], [ -87.9239725, 43.0064661 ], [ -87.9246055, 43.0064661 ], [ -87.9248305, 43.0064621 ], [ -87.9257277, 43.006459 ], [ -87.9257621, 43.006385800000011 ], [ -87.9257925, 43.005001 ], [ -87.9258075, 43.00464 ], [ -87.9258175, 43.004396 ], [ -87.9258465, 43.003665 ], [ -87.9258575, 43.003422 ], [ -87.9258615, 43.003306 ], [ -87.925875499999989, 43.0029589 ], [ -87.9258815, 43.0028439 ], [ -87.9259125, 43.0028439 ], [ -87.9260065, 43.0028439 ], [ -87.9260385, 43.0028439 ], [ -87.9260455, 43.0025269 ], [ -87.9260665, 43.0015779 ], [ -87.9260745, 43.0012619 ], [ -87.9258325, 43.0012609 ], [ -87.9251055, 43.0012609 ], [ -87.9248645, 43.0012609 ], [ -87.9246225, 43.0012609 ], [ -87.9238966, 43.0012609 ], [ -87.923655599999989, 43.0012609 ], [ -87.9234146, 43.0012599 ], [ -87.9226906, 43.0012599 ], [ -87.9224506, 43.0012599 ], [ -87.9222086, 43.0012589 ], [ -87.9214826, 43.001258899999989 ], [ -87.9212416, 43.0012589 ], [ -87.9209986, 43.0012589 ], [ -87.9202727, 43.0012589 ], [ -87.9200307, 43.0012589 ], [ -87.9197857, 43.0012579 ], [ -87.9190507, 43.0012579 ], [ -87.9188067, 43.0012579 ], [ -87.9188037, 43.0013619 ], [ -87.9187987, 43.0016769 ], [ -87.9187977, 43.0017819 ], [ -87.9186137, 43.0017819 ], [ -87.9183337, 43.0017839 ], [ -87.9180627, 43.0017859 ], [ -87.9178797, 43.0017879 ], [ -87.9177407, 43.0017879 ], [ -87.9173277, 43.0017899 ], [ -87.9171897, 43.001790899999989 ], [ -87.9171457, 43.0017509 ], [ -87.9170167, 43.0016309 ], [ -87.9169738, 43.0015919 ], [ -87.9168458, 43.0014769 ], [ -87.9164618, 43.0011339 ], [ -87.9163348, 43.0010199 ], [ -87.9161758, 43.0008768 ], [ -87.9160868, 43.0007968 ], [ -87.9160058, 43.0007248 ], [ -87.9156998, 43.0004518 ], [ -87.9155408, 43.0003108 ], [ -87.9152928, 43.0000888 ], [ -87.9145508, 42.9994248 ], [ -87.9143039, 42.9992038 ], [ -87.9142769, 42.9991798 ], [ -87.9141959, 42.9991078 ], [ -87.9141699, 42.9990838 ], [ -87.9138829, 42.9988268 ], [ -87.9137869, 42.9987408 ], [ -87.9135999, 42.9985458 ], [ -87.9134069, 42.9983268 ], [ -87.9132239, 42.9981038 ], [ -87.9131189, 42.9979618 ], [ -87.9130059, 42.9978088 ], [ -87.9129019, 42.997644799999989 ], [ -87.9128529, 42.9975668 ], [ -87.9127059, 42.9973358 ], [ -87.9126569, 42.9972588 ], [ -87.9125954, 42.997546 ], [ -87.9123361, 42.9979679 ], [ -87.9117809, 42.9991584 ], [ -87.911657, 42.9997503 ], [ -87.9114759, 43.0012698 ], [ -87.9114079, 43.0021519 ], [ -87.9114019, 43.0022399 ], [ -87.9113949, 43.002328899999988 ], [ -87.9113929, 43.0023509 ], [ -87.9113819, 43.0024359 ], [ -87.9113739, 43.0025029 ], [ -87.9113429, 43.0027579 ], [ -87.9113299, 43.002865899999989 ], [ -87.9119358, 43.002857399999989 ], [ -87.9140228, 43.005222 ], [ -87.9139499, 43.0064839 ] ] ] } },
{ "type": "Feature", "properties": { "rep_unit_id": 243, "ward": "City of Milwaukee Ward 243", "county": "MILWAUKEE" }, "geometry": { "type": "Polygon", "coordinates": [ [ [ -87.9188718, 42.9976408 ], [ -87.9191158, 42.9976398 ], [ -87.9198497, 42.9976398 ], [ -87.9200947, 42.9976398 ], [ -87.9203367, 42.9976388 ], [ -87.9210627, 42.9976388 ], [ -87.9213057, 42.9976388 ], [ -87.9215477, 42.9976378 ], [ -87.9222737, 42.9976378 ], [ -87.9225167, 42.9976378 ], [ -87.9227576, 42.9976368 ], [ -87.9234816, 42.9976358 ], [ -87.9237236, 42.9976358 ], [ -87.9239656, 42.9976348 ], [ -87.9246936, 42.9976348 ], [ -87.9249366, 42.9976348 ], [ -87.9249366, 42.9975978 ], [ -87.9249386, 42.9974898 ], [ -87.9249406, 42.9974538 ], [ -87.9249416, 42.9973558 ], [ -87.9249486, 42.9969938 ], [ -87.9249696, 42.9959108 ], [ -87.9249776, 42.9955498 ], [ -87.9252196, 42.9955488 ], [ -87.925946599999989, 42.9955468 ], [ -87.926189600000015, 42.9955468 ], [ -87.9264316, 42.9955458 ], [ -87.9271576, 42.9955438 ], [ -87.9274006, 42.9955438 ], [ -87.9276455, 42.9955428 ], [ -87.9283795, 42.9955408 ], [ -87.9286255, 42.9955408 ], [ -87.9286315, 42.9955409 ], [ -87.9299825, 42.9955648 ], [ -87.9299915, 42.9952588 ], [ -87.9300205, 42.9943438 ], [ -87.9300315, 42.9940388 ], [ -87.9300305, 42.9940148 ], [ -87.9300275, 42.9939428 ], [ -87.9300275, 42.9939198 ], [ -87.9297535, 42.9939418 ], [ -87.9289355, 42.9940098 ], [ -87.9286581, 42.9940328 ], [ -87.9286613, 42.993899299999988 ], [ -87.9286685, 42.993732799999989 ], [ -87.9286705, 42.9936588 ], [ -87.9286786, 42.9933128 ], [ -87.9287026, 42.9922737 ], [ -87.9287116, 42.9919287 ], [ -87.9284676, 42.9919287 ], [ -87.9277366, 42.9919307 ], [ -87.9274936, 42.9919317 ], [ -87.9272496, 42.9919317 ], [ -87.9265186, 42.9919347 ], [ -87.926275600000011, 42.9919357 ], [ -87.9260327, 42.9919357 ], [ -87.9253077, 42.9919377 ], [ -87.9250657, 42.9919387 ], [ -87.9248227, 42.9919387 ], [ -87.9240977, 42.9919407 ], [ -87.9238557, 42.9919417 ], [ -87.9236127, 42.9919417 ], [ -87.9228847, 42.9919447 ], [ -87.9226427, 42.9919457 ], [ -87.9223998, 42.9919457 ], [ -87.9216728, 42.9919477 ], [ -87.9214308, 42.9919487 ], [ -87.9211898, 42.991948699999988 ], [ -87.9204668, 42.9919517 ], [ -87.9202268, 42.9919527 ], [ -87.9199818, 42.9919527 ], [ -87.9192468, 42.9919547 ], [ -87.9190028, 42.9919557 ], [ -87.918998800000011, 42.9921017 ], [ -87.9189878, 42.9925427 ], [ -87.9189848, 42.9926707 ], [ -87.9189838, 42.9926897 ], [ -87.9189336, 42.9944144 ], [ -87.9189327, 42.994533 ], [ -87.9189324, 42.9945463 ], [ -87.9189289, 42.9946826 ], [ -87.9189256, 42.9948103 ], [ -87.9189253, 42.9948224 ], [ -87.9189088, 42.9956068 ], [ -87.9188988, 42.9962808 ], [ -87.9188978, 42.9963418 ], [ -87.9188728, 42.9976108 ], [ -87.9188718, 42.9976408 ] ] ] } },
{ "type": "Feature", "properties": { "rep_unit_id": 244, "ward": "City of Milwaukee Ward 244", "county": "MILWAUKEE" }, "geometry": { "type": "Polygon", "coordinates": [ [ [ -87.9248645, 43.0012609 ], [ -87.9251055, 43.0012609 ], [ -87.9258325, 43.0012609 ], [ -87.9260745, 43.0012619 ], [ -87.9263155, 43.0012619 ], [ -87.9270405, 43.0012619 ], [ -87.9272825, 43.0012619 ], [ -87.9275265, 43.0012609 ], [ -87.9282584, 43.0012589 ], [ -87.9285034, 43.0012589 ], [ -87.9287744, 43.0012629 ], [ -87.9295904, 43.0012779 ], [ -87.9298624, 43.0012829 ], [ -87.9301394, 43.0012879 ], [ -87.9309704, 43.0013029 ], [ -87.9312484, 43.001307900000015 ], [ -87.9314054, 43.001309899999988 ], [ -87.9318773, 43.0013189 ], [ -87.9320353, 43.0013219 ], [ -87.9321233, 43.0012459 ], [ -87.9323873, 43.0010189 ], [ -87.9324763, 43.0009439 ], [ -87.9326663, 43.000780899999988 ], [ -87.9332353, 43.0002919 ], [ -87.9334263, 43.0001299 ], [ -87.9334483, 42.9999579 ], [ -87.9335143, 42.9994419 ], [ -87.9335373, 42.9992709 ], [ -87.9335093, 42.9992699 ], [ -87.9334263, 42.9992689 ], [ -87.9333993, 42.9992689 ], [ -87.9332203, 42.9992659 ], [ -87.9326853, 42.9992569 ], [ -87.9325074, 42.9992539 ], [ -87.9322634, 42.9992499 ], [ -87.9315324, 42.9992379 ], [ -87.9312894, 42.9992349 ], [ -87.9310124, 42.9992299 ], [ -87.9301814, 42.9992159 ], [ -87.9299054, 42.9992119 ], [ -87.9296334, 42.9992068 ], [ -87.9288185, 42.9991938 ], [ -87.9285475, 42.9991898 ], [ -87.9283025, 42.9991908 ], [ -87.9275695, 42.9991948 ], [ -87.9273255, 42.9991968 ], [ -87.9270835, 42.9991968 ], [ -87.9263575, 42.9991978 ], [ -87.9261165, 42.9991988 ], [ -87.9258735, 42.9991988 ], [ -87.925147600000017, 42.9991988 ], [ -87.9249056, 42.9991998 ], [ -87.9248966, 42.9996118 ], [ -87.9248725, 43.0008479 ], [ -87.9248645, 43.0012609 ] ] ] } },
{ "type": "Feature", "properties": { "rep_unit_id": 245, "ward": "City of Milwaukee Ward 245", "county": "MILWAUKEE" }, "geometry": { "type": "Polygon", "coordinates": [ [ [ -87.9257277, 43.006459 ], [ -87.9269294, 43.0064641 ], [ -87.9271364, 43.0064641 ], [ -87.9273734, 43.0064631 ], [ -87.9280874, 43.0064631 ], [ -87.9283254, 43.0064631 ], [ -87.9285974, 43.0064671 ], [ -87.9294144, 43.0064821 ], [ -87.9296873, 43.0064871 ], [ -87.9297013, 43.0061221 ], [ -87.9297454, 43.005028 ], [ -87.9297604, 43.004664 ], [ -87.9297714, 43.00438 ], [ -87.9298044, 43.003531 ], [ -87.9298164, 43.003248 ], [ -87.9299014, 43.003174 ], [ -87.9301554, 43.002954 ], [ -87.9302414, 43.002881 ], [ -87.9304394, 43.002706 ], [ -87.9310354, 43.0021819 ], [ -87.9312344, 43.0020079 ], [ -87.9312364, 43.0018679 ], [ -87.9312454, 43.0014469 ], [ -87.9312484, 43.001307900000015 ], [ -87.9309704, 43.0013029 ], [ -87.9301394, 43.0012879 ], [ -87.9298624, 43.0012829 ], [ -87.9295904, 43.0012779 ], [ -87.9287744, 43.0012629 ], [ -87.9285034, 43.0012589 ], [ -87.9282584, 43.0012589 ], [ -87.9275265, 43.0012609 ], [ -87.9272825, 43.0012619 ], [ -87.9270405, 43.0012619 ], [ -87.9263155, 43.0012619 ], [ -87.9260745, 43.0012619 ], [ -87.9260665, 43.0015779 ], [ -87.9260455, 43.0025269 ], [ -87.9260385, 43.0028439 ], [ -87.9260065, 43.0028439 ], [ -87.9259125, 43.0028439 ], [ -87.9258815, 43.0028439 ], [ -87.925875499999989, 43.0029589 ], [ -87.9258615, 43.003306 ], [ -87.9258575, 43.003422 ], [ -87.9258465, 43.003665 ], [ -87.9258175, 43.004396 ], [ -87.9258075, 43.00464 ], [ -87.9257925, 43.005001 ], [ -87.9257621, 43.006385800000011 ], [ -87.9257277, 43.006459 ] ] ] } },
{ "type": "Feature", "properties": { "rep_unit_id": 246, "ward": "City of Milwaukee Ward 246", "county": "MILWAUKEE" }, "geometry": { "type": "Polygon", "coordinates": [ [ [ -87.9296873, 43.0064871 ], [ -87.9299603, 43.0064911 ], [ -87.9307803, 43.0065051 ], [ -87.9310543, 43.0065101 ], [ -87.9312983, 43.0065141 ], [ -87.9320313, 43.0065261 ], [ -87.9322763, 43.0065301 ], [ -87.9324673, 43.0065331 ], [ -87.9330412, 43.0065421 ], [ -87.933233199999989, 43.0065461 ], [ -87.9334612, 43.0065491 ], [ -87.934145199999989, 43.0065611 ], [ -87.9343732, 43.0065651 ], [ -87.9345812, 43.0065681 ], [ -87.9352052, 43.0065781 ], [ -87.9354142, 43.006582099999989 ], [ -87.9354252, 43.0062161 ], [ -87.9354592, 43.0051211 ], [ -87.9354712, 43.004757 ], [ -87.9352642, 43.004753 ], [ -87.9346432, 43.004743 ], [ -87.9344372, 43.00474 ], [ -87.9342082, 43.004736 ], [ -87.9335233, 43.004725 ], [ -87.9332953, 43.004722 ], [ -87.9333093, 43.004364 ], [ -87.9333533, 43.003289 ], [ -87.9333683, 43.002932 ], [ -87.9333753, 43.002576 ], [ -87.9333973, 43.0015069 ], [ -87.9334053, 43.0011519 ], [ -87.9334093, 43.0009469 ], [ -87.9334213, 43.0003339 ], [ -87.9334263, 43.0001299 ], [ -87.9332353, 43.0002919 ], [ -87.9326663, 43.000780899999988 ], [ -87.9324763, 43.0009439 ], [ -87.9323873, 43.0010189 ], [ -87.9321233, 43.0012459 ], [ -87.9320353, 43.0013219 ], [ -87.9318773, 43.0013189 ], [ -87.9314054, 43.001309899999988 ], [ -87.9312484, 43.001307900000015 ], [ -87.9312454, 43.0014469 ], [ -87.9312364, 43.0018679 ], [ -87.9312344, 43.0020079 ], [ -87.9310354, 43.0021819 ], [ -87.9304394, 43.002706 ], [ -87.9302414, 43.002881 ], [ -87.9301554, 43.002954 ], [ -87.9299014, 43.003174 ], [ -87.9298164, 43.003248 ], [ -87.9298044, 43.003531 ], [ -87.9297714, 43.00438 ], [ -87.9297604, 43.004664 ], [ -87.9297454, 43.005028 ], [ -87.9297013, 43.0061221 ], [ -87.9296873, 43.0064871 ] ] ] } },
{ "type": "Feature", "properties": { "rep_unit_id": 247, "ward": "City of Milwaukee Ward 247", "county": "MILWAUKEE" }, "geometry": { "type": "Polygon", "coordinates": [ [ [ -87.9354142, 43.006582099999989 ], [ -87.9356882, 43.0065861 ], [ -87.9365102, 43.0066001 ], [ -87.936784100000011, 43.0066051 ], [ -87.9370571, 43.0066091 ], [ -87.9381451, 43.0066213 ], [ -87.9382011, 43.004802 ], [ -87.9382501, 43.003012 ], [ -87.9382852, 43.0011879 ], [ -87.9382912, 43.0008189 ], [ -87.9383112, 42.9997149 ], [ -87.9383182, 42.9993469 ], [ -87.9383242, 42.9989969 ], [ -87.9383422, 42.9979479 ], [ -87.9383492, 42.9975989 ], [ -87.9383522, 42.9974219 ], [ -87.938362200000014, 42.9968908 ], [ -87.9383662, 42.9967148 ], [ -87.9383692, 42.9965138 ], [ -87.9383802, 42.9959138 ], [ -87.9383852, 42.9957138 ], [ -87.9381483, 42.9957088 ], [ -87.9374373, 42.9956968 ], [ -87.9372013, 42.9956928 ], [ -87.933602, 42.9956235 ], [ -87.9335673, 42.9977098 ], [ -87.9335603, 42.9980218 ], [ -87.9335433, 42.9989579 ], [ -87.9335373, 42.9992709 ], [ -87.9335143, 42.9994419 ], [ -87.9334483, 42.9999579 ], [ -87.9334263, 43.0001299 ], [ -87.9334213, 43.0003339 ], [ -87.9334093, 43.0009469 ], [ -87.9334053, 43.0011519 ], [ -87.9333973, 43.0015069 ], [ -87.9333753, 43.002576 ], [ -87.9333683, 43.002932 ], [ -87.9333533, 43.003289 ], [ -87.9333093, 43.004364 ], [ -87.9332953, 43.004722 ], [ -87.9335233, 43.004725 ], [ -87.9342082, 43.004736 ], [ -87.9344372, 43.00474 ], [ -87.9346432, 43.004743 ], [ -87.9352642, 43.004753 ], [ -87.9354712, 43.004757 ], [ -87.9354592, 43.0051211 ], [ -87.9354252, 43.0062161 ], [ -87.9354142, 43.006582099999989 ] ] ] } },
{ "type": "Feature", "properties": { "rep_unit_id": 280, "ward": "City of Milwaukee Ward 280", "county": "MILWAUKEE" }, "geometry": { "type": "Polygon", "coordinates": [ [ [ -87.9150433, 42.9950452 ], [ -87.9151719, 42.9950157 ], [ -87.9157866, 42.9948364 ], [ -87.9160733, 42.9947492 ], [ -87.9163182, 42.9946616 ], [ -87.9165068, 42.994585 ], [ -87.9167066, 42.9944965 ], [ -87.9170835, 42.9942873 ], [ -87.9173501, 42.9944046 ], [ -87.9174549, 42.9944365 ], [ -87.917566, 42.9944607 ], [ -87.9177724, 42.9944822 ], [ -87.9178934, 42.9944811 ], [ -87.9189336, 42.9944144 ], [ -87.9189838, 42.9926897 ], [ -87.9189848, 42.9926707 ], [ -87.9189878, 42.9925427 ], [ -87.918998800000011, 42.9921017 ], [ -87.9190028, 42.9919557 ], [ -87.9190119, 42.9915937 ], [ -87.9190399, 42.9905087 ], [ -87.9190499, 42.9901477 ], [ -87.9190589, 42.9897747 ], [ -87.9190879, 42.9886566 ], [ -87.9190979, 42.9882846 ], [ -87.9193409, 42.9882836 ], [ -87.9200699, 42.9882816 ], [ -87.9203139, 42.9882816 ], [ -87.9203219, 42.9879276 ], [ -87.9203479, 42.9868656 ], [ -87.9203569, 42.9865126 ], [ -87.9205989, 42.9865116 ], [ -87.9213239, 42.9865096 ], [ -87.9215669, 42.9865096 ], [ -87.9215729, 42.9861466 ], [ -87.9215899, 42.9850586 ], [ -87.9215969, 42.9846966 ], [ -87.9218389, 42.9846956 ], [ -87.9225659, 42.9846956 ], [ -87.9228089, 42.9846956 ], [ -87.9230539, 42.9846946 ], [ -87.9237878, 42.9846946 ], [ -87.924033799999989, 42.9846946 ], [ -87.9242728, 42.9846936 ], [ -87.9249918, 42.9846936 ], [ -87.9252318, 42.9846936 ], [ -87.9254738, 42.9846926 ], [ -87.9261988, 42.9846926 ], [ -87.9264418, 42.9846926 ], [ -87.926448800000017, 42.9843316 ], [ -87.9264698, 42.9832486 ], [ -87.9264778, 42.9828886 ], [ -87.9264848, 42.9825216 ], [ -87.9265068, 42.9814206 ], [ -87.9265148, 42.9810545 ], [ -87.9262708, 42.9810545 ], [ -87.9255418, 42.9810545 ], [ -87.9252988, 42.981055499999989 ], [ -87.9250609, 42.9810535 ], [ -87.924347900000015, 42.9810475 ], [ -87.9241109, 42.9810465 ], [ -87.9238929, 42.9810705 ], [ -87.9232389, 42.9811465 ], [ -87.9230219, 42.9811715 ], [ -87.9224039, 42.9812405 ], [ -87.9216539, 42.9813255 ], [ -87.920551, 42.9814535 ], [ -87.919934, 42.9815265 ], [ -87.919792, 42.9815415 ], [ -87.919369, 42.9815905 ], [ -87.919228, 42.9816075 ], [ -87.91907, 42.9816285 ], [ -87.918596, 42.9816935 ], [ -87.918439, 42.9817155 ], [ -87.918409, 42.9817195 ], [ -87.918303, 42.9817385 ], [ -87.917898, 42.9818125 ], [ -87.917764, 42.9818375 ], [ -87.9177281, 42.9818435 ], [ -87.9176211, 42.981863499999989 ], [ -87.9175861, 42.9818705 ], [ -87.9174731, 42.9818985 ], [ -87.9171371, 42.9819825 ], [ -87.917025099999989, 42.9820115 ], [ -87.9169891, 42.9820205 ], [ -87.9165711, 42.9821225 ], [ -87.9164541, 42.9826675 ], [ -87.9162861, 42.9831775 ], [ -87.9160651, 42.9836756 ], [ -87.9157931, 42.9842266 ], [ -87.915552100000014, 42.9846816 ], [ -87.9154191, 42.9849486 ], [ -87.9151691, 42.9854646 ], [ -87.9150371, 42.9857136 ], [ -87.9148831, 42.9859876 ], [ -87.9147961, 42.9861386 ], [ -87.9145521, 42.9867126 ], [ -87.9144341, 42.9871876 ], [ -87.914355, 42.9876116 ], [ -87.914353, 42.9877196 ], [ -87.914354, 42.9878096 ], [ -87.914364, 42.9880446 ], [ -87.914369, 42.9881526 ], [ -87.914379, 42.9883246 ], [ -87.9150433, 42.9950452 ] ] ] } },
{ "type": "Feature", "properties": { "rep_unit_id": 283, "ward": "City of Milwaukee Ward 283", "county": "MILWAUKEE" }, "geometry": { "type": "Polygon", "coordinates": [ [ [ -87.9094052, 42.9881146 ], [ -87.9097522, 42.9879186 ], [ -87.9100192, 42.9877716 ], [ -87.9106742, 42.9874146 ], [ -87.9118611, 42.9867586 ], [ -87.9124751, 42.9864206 ], [ -87.9126901, 42.9862956 ], [ -87.9128271, 42.9862246 ], [ -87.9128571, 42.9862106 ], [ -87.9130241, 42.9861396 ], [ -87.9132331, 42.9860666 ], [ -87.9134841, 42.9859986 ], [ -87.9137091, 42.9859556 ], [ -87.9139571, 42.9859266 ], [ -87.9139911, 42.9859246 ], [ -87.914166100000017, 42.9859166 ], [ -87.9143951, 42.9859176 ], [ -87.9144941, 42.9859256 ], [ -87.9145831, 42.9859386 ], [ -87.9146381, 42.9859476 ], [ -87.9147991, 42.9859736 ], [ -87.9148831, 42.9859876 ], [ -87.9150371, 42.9857136 ], [ -87.9151691, 42.9854646 ], [ -87.9154191, 42.9849486 ], [ -87.915552100000014, 42.9846816 ], [ -87.9157931, 42.9842266 ], [ -87.9160651, 42.9836756 ], [ -87.9162861, 42.9831775 ], [ -87.9164541, 42.9826675 ], [ -87.9165711, 42.9821225 ], [ -87.9155868, 42.9823259 ], [ -87.9155791, 42.9810465 ], [ -87.9146352, 42.9810445 ], [ -87.9143992, 42.9810445 ], [ -87.9141572, 42.9810435 ], [ -87.9134312, 42.9810425 ], [ -87.9131902, 42.9810425 ], [ -87.9129412, 42.9810415 ], [ -87.912196200000011, 42.9810405 ], [ -87.9119482, 42.9810405 ], [ -87.9117022, 42.9810395 ], [ -87.9109663, 42.9810375 ], [ -87.9107213, 42.9810375 ], [ -87.9104733, 42.9810365 ], [ -87.9097293, 42.9810355 ], [ -87.909476, 42.9810302 ], [ -87.9094751, 42.9824076 ], [ -87.9094596, 42.9840663 ], [ -87.9094596, 42.9840711 ], [ -87.9094582, 42.9841905 ], [ -87.9094571, 42.9842882 ], [ -87.9094542, 42.9845537 ], [ -87.9094364, 42.9864738 ], [ -87.9094052, 42.9881146 ] ] ] } },
{ "type": "Feature", "properties": { "rep_unit_id": 305, "ward": "City of Milwaukee Ward 305", "county": "MILWAUKEE" }, "geometry": { "type": "Polygon", "coordinates": [ [ [ -87.9329911, 43.0229886 ], [ -87.9329973, 43.0229883 ], [ -87.9332491, 43.022975599999988 ], [ -87.934026, 43.0229386 ], [ -87.934285, 43.0229266 ], [ -87.934535, 43.0229146 ], [ -87.935288, 43.0228786 ], [ -87.935539, 43.0228676 ], [ -87.935792, 43.0228546 ], [ -87.936553, 43.0228176 ], [ -87.936807, 43.0228066 ], [ -87.937062, 43.0227966 ], [ -87.9378299, 43.0227666 ], [ -87.9380869, 43.0227576 ], [ -87.9380909, 43.0211866 ], [ -87.938094, 43.0201736 ], [ -87.938097, 43.0191025 ], [ -87.93784, 43.0191015 ], [ -87.937069, 43.0191005 ], [ -87.936813, 43.0191005 ], [ -87.936559, 43.0190995 ], [ -87.935796, 43.0190985 ], [ -87.935543, 43.0190985 ], [ -87.935291, 43.0190975 ], [ -87.9345351, 43.0190965 ], [ -87.9342841, 43.0190965 ], [ -87.9329993, 43.0190873 ], [ -87.9330031, 43.0195075 ], [ -87.9330011, 43.0201365 ], [ -87.932999099999989, 43.0203395 ], [ -87.9329971, 43.0209496 ], [ -87.9329971, 43.0211536 ], [ -87.9329961, 43.0213586 ], [ -87.9329941, 43.0219736 ], [ -87.9329941, 43.0221796 ], [ -87.9329931, 43.0223406 ], [ -87.9329911, 43.022826599999988 ], [ -87.9329911, 43.0229886 ] ] ] } },
{ "type": "Feature", "properties": { "rep_unit_id": 306, "ward": "City of Milwaukee Ward 306", "county": "MILWAUKEE" }, "geometry": { "type": "Polygon", "coordinates": [ [ [ -87.9380869, 43.0227576 ], [ -87.9383639, 43.0227396 ], [ -87.9391939, 43.0226866 ], [ -87.9394719, 43.0226696 ], [ -87.9397479, 43.0226536 ], [ -87.9405779, 43.0226056 ], [ -87.9408549, 43.0225906 ], [ -87.9411308, 43.0225746 ], [ -87.9419618, 43.0225266 ], [ -87.9422388, 43.0225116 ], [ -87.9425158, 43.0224946 ], [ -87.94334880000001, 43.0224466 ], [ -87.9436268, 43.0224317 ], [ -87.9436268, 43.0221696 ], [ -87.9436288, 43.0213836 ], [ -87.9436298, 43.0211226 ], [ -87.9436298, 43.0209196 ], [ -87.9436318, 43.0203116 ], [ -87.943632799999989, 43.0201096 ], [ -87.943632799999989, 43.0199056 ], [ -87.9436348, 43.0192925 ], [ -87.9436358, 43.0190895 ], [ -87.9433578, 43.0190895 ], [ -87.942525800000013, 43.0190925 ], [ -87.9422489, 43.0190935 ], [ -87.9408629, 43.0190965 ], [ -87.9394799, 43.0190995 ], [ -87.9392029, 43.0190995 ], [ -87.938373, 43.0191015 ], [ -87.938097, 43.0191025 ], [ -87.938094, 43.0201736 ], [ -87.9380909, 43.0211866 ], [ -87.9380869, 43.0227576 ] ] ] } },
{ "type": "Feature", "properties": { "rep_unit_id": 307, "ward": "City of Milwaukee Ward 307", "county": "MILWAUKEE" }, "geometry": { "type": "Polygon", "coordinates": [ [ [ -87.9249366, 42.9976348 ], [ -87.9251786, 42.9976338 ], [ -87.9259046, 42.9976338 ], [ -87.9261476, 42.9976338 ], [ -87.9263885, 42.9976328 ], [ -87.9271145, 42.9976328 ], [ -87.9273575, 42.9976328 ], [ -87.9276015, 42.9976318 ], [ -87.9283365, 42.9976278 ], [ -87.9285815, 42.9976278 ], [ -87.9288525, 42.9976318 ], [ -87.9296665, 42.9976458 ], [ -87.9299384, 42.9976508 ], [ -87.9302144, 42.9976548 ], [ -87.9310434, 42.9976678 ], [ -87.9313204, 42.997672799999989 ], [ -87.9315634, 42.9976768 ], [ -87.9322914, 42.9976888 ], [ -87.9325354, 42.9976928 ], [ -87.9327414, 42.9976958 ], [ -87.9333604, 42.9977058 ], [ -87.9335673, 42.9977098 ], [ -87.933602, 42.9956235 ], [ -87.9299825, 42.9955648 ], [ -87.9286315, 42.9955409 ], [ -87.9286255, 42.9955408 ], [ -87.9283795, 42.9955408 ], [ -87.9276455, 42.9955428 ], [ -87.9274006, 42.9955438 ], [ -87.9271576, 42.9955438 ], [ -87.9264316, 42.9955458 ], [ -87.926189600000015, 42.9955468 ], [ -87.925946599999989, 42.9955468 ], [ -87.9252196, 42.9955488 ], [ -87.9249776, 42.9955498 ], [ -87.9249696, 42.9959108 ], [ -87.9249486, 42.9969938 ], [ -87.9249416, 42.9973558 ], [ -87.9249406, 42.9974538 ], [ -87.9249386, 42.9974898 ], [ -87.9249366, 42.9975978 ], [ -87.9249366, 42.9976348 ] ] ] } },
{ "type": "Feature", "properties": { "rep_unit_id": 308, "ward": "City of Milwaukee Ward 308", "county": "MILWAUKEE" }, "geometry": { "type": "Polygon", "coordinates": [ [ [ -87.9249056, 42.9991998 ], [ -87.925147600000017, 42.9991988 ], [ -87.9258735, 42.9991988 ], [ -87.9261165, 42.9991988 ], [ -87.9263575, 42.9991978 ], [ -87.9270835, 42.9991968 ], [ -87.9273255, 42.9991968 ], [ -87.9275695, 42.9991948 ], [ -87.9283025, 42.9991908 ], [ -87.9285475, 42.9991898 ], [ -87.9288185, 42.9991938 ], [ -87.9296334, 42.9992068 ], [ -87.9299054, 42.9992119 ], [ -87.9301814, 42.9992159 ], [ -87.9310124, 42.9992299 ], [ -87.9312894, 42.9992349 ], [ -87.9315324, 42.9992379 ], [ -87.9322634, 42.9992499 ], [ -87.9325074, 42.9992539 ], [ -87.9326853, 42.9992569 ], [ -87.9332203, 42.9992659 ], [ -87.9333993, 42.9992689 ], [ -87.9334263, 42.9992689 ], [ -87.9335093, 42.9992699 ], [ -87.9335373, 42.9992709 ], [ -87.9335433, 42.9989579 ], [ -87.9335603, 42.9980218 ], [ -87.9335673, 42.9977098 ], [ -87.9333604, 42.9977058 ], [ -87.9327414, 42.9976958 ], [ -87.9325354, 42.9976928 ], [ -87.9322914, 42.9976888 ], [ -87.9315634, 42.9976768 ], [ -87.9313204, 42.997672799999989 ], [ -87.9310434, 42.9976678 ], [ -87.9302144, 42.9976548 ], [ -87.9299384, 42.9976508 ], [ -87.9296665, 42.9976458 ], [ -87.9288525, 42.9976318 ], [ -87.9285815, 42.9976278 ], [ -87.9283365, 42.9976278 ], [ -87.9276015, 42.9976318 ], [ -87.9273575, 42.9976328 ], [ -87.9271145, 42.9976328 ], [ -87.9263885, 42.9976328 ], [ -87.9261476, 42.9976338 ], [ -87.9259046, 42.9976338 ], [ -87.9251786, 42.9976338 ], [ -87.9249366, 42.9976348 ], [ -87.9249296, 42.9979468 ], [ -87.9249116, 42.9988868 ], [ -87.9249056, 42.9991998 ] ] ] } },
{ "type": "Feature", "properties": { "rep_unit_id": 309, "ward": "City of Milwaukee Ward 309", "county": "MILWAUKEE" }, "geometry": { "type": "Polygon", "coordinates": [ [ [ -87.9171897, 43.001790899999989 ], [ -87.9173277, 43.0017899 ], [ -87.9177407, 43.0017879 ], [ -87.9178797, 43.0017879 ], [ -87.9180627, 43.0017859 ], [ -87.9183337, 43.0017839 ], [ -87.9186137, 43.0017819 ], [ -87.9187977, 43.0017819 ], [ -87.9187987, 43.0016769 ], [ -87.9188037, 43.0013619 ], [ -87.9188067, 43.0012579 ], [ -87.9190507, 43.0012579 ], [ -87.9197857, 43.0012579 ], [ -87.9200307, 43.0012589 ], [ -87.9202727, 43.0012589 ], [ -87.9209986, 43.0012589 ], [ -87.9212416, 43.0012589 ], [ -87.9214826, 43.001258899999989 ], [ -87.9222086, 43.0012589 ], [ -87.9224506, 43.0012599 ], [ -87.9226906, 43.0012599 ], [ -87.9234146, 43.0012599 ], [ -87.923655599999989, 43.0012609 ], [ -87.9238966, 43.0012609 ], [ -87.9246225, 43.0012609 ], [ -87.9248645, 43.0012609 ], [ -87.9248725, 43.0008479 ], [ -87.9248966, 42.9996118 ], [ -87.9249056, 42.9991998 ], [ -87.9249116, 42.9988868 ], [ -87.9249296, 42.9979468 ], [ -87.9249366, 42.9976348 ], [ -87.9246936, 42.9976348 ], [ -87.9239656, 42.9976348 ], [ -87.9237236, 42.9976358 ], [ -87.9234816, 42.9976358 ], [ -87.9227576, 42.9976368 ], [ -87.9225167, 42.9976378 ], [ -87.9222737, 42.9976378 ], [ -87.9215477, 42.9976378 ], [ -87.9213057, 42.9976388 ], [ -87.9210627, 42.9976388 ], [ -87.9203367, 42.9976388 ], [ -87.9200947, 42.9976398 ], [ -87.9198497, 42.9976398 ], [ -87.9191158, 42.9976398 ], [ -87.9188718, 42.9976408 ], [ -87.9188728, 42.9976108 ], [ -87.9188978, 42.9963418 ], [ -87.9188988, 42.9962808 ], [ -87.9189088, 42.9956068 ], [ -87.9189253, 42.9948224 ], [ -87.9189256, 42.9948103 ], [ -87.9189289, 42.9946826 ], [ -87.9189324, 42.9945463 ], [ -87.9189327, 42.994533 ], [ -87.9189336, 42.9944144 ], [ -87.9178934, 42.9944811 ], [ -87.9177724, 42.9944822 ], [ -87.917566, 42.9944607 ], [ -87.9174549, 42.9944365 ], [ -87.9173501, 42.9944046 ], [ -87.9170835, 42.9942873 ], [ -87.9167066, 42.9944965 ], [ -87.9165068, 42.994585 ], [ -87.9163182, 42.9946616 ], [ -87.9160733, 42.9947492 ], [ -87.9157866, 42.9948364 ], [ -87.9151719, 42.9950157 ], [ -87.9150433, 42.9950452 ], [ -87.9119647, 42.9959082 ], [ -87.9124909, 42.9969208 ], [ -87.9125169, 42.9969738 ], [ -87.9125239, 42.9969878 ], [ -87.9126229, 42.9971908 ], [ -87.9126569, 42.9972588 ], [ -87.9127059, 42.9973358 ], [ -87.9128529, 42.9975668 ], [ -87.9129019, 42.997644799999989 ], [ -87.9130059, 42.9978088 ], [ -87.9131189, 42.9979618 ], [ -87.9132239, 42.9981038 ], [ -87.9134069, 42.9983268 ], [ -87.9135999, 42.9985458 ], [ -87.9137869, 42.9987408 ], [ -87.9138829, 42.9988268 ], [ -87.9141699, 42.9990838 ], [ -87.9141959, 42.9991078 ], [ -87.9142769, 42.9991798 ], [ -87.9143039, 42.9992038 ], [ -87.9145508, 42.9994248 ], [ -87.9152928, 43.0000888 ], [ -87.9155408, 43.0003108 ], [ -87.9156998, 43.0004518 ], [ -87.9160058, 43.0007248 ], [ -87.9160868, 43.0007968 ], [ -87.9161758, 43.0008768 ], [ -87.9163348, 43.0010199 ], [ -87.9164618, 43.0011339 ], [ -87.9168458, 43.0014769 ], [ -87.9169738, 43.0015919 ], [ -87.9170167, 43.0016309 ], [ -87.9171457, 43.0017509 ], [ -87.9171897, 43.001790899999989 ] ] ] } },
{ "type": "Feature", "properties": { "rep_unit_id": 310, "ward": "City of Milwaukee Ward 310", "county": "MILWAUKEE" }, "geometry": { "type": "Polygon", "coordinates": [ [ [ -87.906930300000013, 43.0028862 ], [ -87.9089621, 43.002875 ], [ -87.9092419, 43.0028779 ], [ -87.9100679, 43.0028719 ], [ -87.910342899999989, 43.0028709 ], [ -87.9104309, 43.0028699 ], [ -87.910539899999989, 43.0028689 ], [ -87.9111319, 43.0028659 ], [ -87.9113299, 43.002865899999989 ], [ -87.9113429, 43.0027579 ], [ -87.9113739, 43.0025029 ], [ -87.9113819, 43.0024359 ], [ -87.9113929, 43.0023509 ], [ -87.9113949, 43.002328899999988 ], [ -87.9114019, 43.0022399 ], [ -87.9114079, 43.0021519 ], [ -87.9114759, 43.0012698 ], [ -87.911657, 42.9997503 ], [ -87.9117809, 42.9991584 ], [ -87.9123361, 42.9979679 ], [ -87.9125954, 42.997546 ], [ -87.9126569, 42.9972588 ], [ -87.9126229, 42.9971908 ], [ -87.9125239, 42.9969878 ], [ -87.9125169, 42.9969738 ], [ -87.9124909, 42.9969208 ], [ -87.9119647, 42.9959082 ], [ -87.9150433, 42.9950452 ], [ -87.914379, 42.9883246 ], [ -87.914369, 42.9881526 ], [ -87.914364, 42.9880446 ], [ -87.914354, 42.9878096 ], [ -87.914353, 42.9877196 ], [ -87.914355, 42.9876116 ], [ -87.9144341, 42.9871876 ], [ -87.9145521, 42.9867126 ], [ -87.9147961, 42.9861386 ], [ -87.9148831, 42.9859876 ], [ -87.9147991, 42.9859736 ], [ -87.9146381, 42.9859476 ], [ -87.9145831, 42.9859386 ], [ -87.9144941, 42.9859256 ], [ -87.9143951, 42.9859176 ], [ -87.914166100000017, 42.9859166 ], [ -87.9139911, 42.9859246 ], [ -87.9139571, 42.9859266 ], [ -87.9137091, 42.9859556 ], [ -87.9134841, 42.9859986 ], [ -87.9132331, 42.9860666 ], [ -87.9130241, 42.9861396 ], [ -87.9128571, 42.9862106 ], [ -87.9128271, 42.9862246 ], [ -87.9126901, 42.9862956 ], [ -87.9124751, 42.9864206 ], [ -87.9118611, 42.9867586 ], [ -87.9106742, 42.9874146 ], [ -87.9100192, 42.9877716 ], [ -87.9097522, 42.9879186 ], [ -87.9094052, 42.9881146 ], [ -87.9093131, 42.9882757 ], [ -87.9093164, 42.9891829 ], [ -87.9093082, 42.9900192 ], [ -87.9093332, 42.990699 ], [ -87.9098574, 42.991713 ], [ -87.9102965, 42.9925541 ], [ -87.910917, 42.993747 ], [ -87.9099961, 42.9937518 ], [ -87.9099724, 42.995201 ], [ -87.9093114, 42.9951945 ], [ -87.9081392, 42.9952018 ], [ -87.9067551, 42.9952027 ], [ -87.9068591, 42.9953467 ], [ -87.9070541, 42.9956157 ], [ -87.9070561, 42.9958197 ], [ -87.9070591, 42.9959987 ], [ -87.9070541, 42.9961467 ], [ -87.9070421, 42.9965917 ], [ -87.9070381, 42.996740699999989 ], [ -87.9070331, 42.9969757 ], [ -87.9070221, 42.9976817 ], [ -87.9070181, 42.9979178 ], [ -87.9070131, 42.9981848 ], [ -87.9070001, 42.9989868 ], [ -87.9069961, 42.9992548 ], [ -87.9069931, 42.9994168 ], [ -87.906985, 42.9999048 ], [ -87.906983, 43.0000678 ], [ -87.906979, 43.0002698 ], [ -87.906969, 43.0008778 ], [ -87.906966, 43.0010808 ], [ -87.906959, 43.0014428 ], [ -87.906941, 43.0025289 ], [ -87.906930300000013, 43.0028862 ] ] ] } },
{ "type": "Feature", "properties": { "rep_unit_id": 337, "ward": "City of Milwaukee Ward 337", "county": "MILWAUKEE" }, "geometry": { "type": "Polygon", "coordinates": [ [ [ -87.9329606, 43.0327732 ], [ -87.9329774, 43.0314263 ], [ -87.932429, 43.0314279 ], [ -87.930772, 43.0314139 ], [ -87.93022, 43.0314099 ], [ -87.9292321, 43.0314039 ], [ -87.9262701, 43.0313879 ], [ -87.9252832, 43.0313829 ], [ -87.9250222, 43.0313819 ], [ -87.9247692, 43.0313799 ], [ -87.9232272, 43.0313679 ], [ -87.9231992, 43.0313679 ], [ -87.9230212, 43.0313659 ], [ -87.9224552, 43.0313541 ], [ -87.922401, 43.0314296 ], [ -87.9224003, 43.031452 ], [ -87.9224, 43.0314938 ], [ -87.9223981, 43.0317678 ], [ -87.922397, 43.0319217 ], [ -87.9223865, 43.032149499999989 ], [ -87.9278547, 43.0320539 ], [ -87.9292679, 43.0324788 ], [ -87.9329606, 43.0327732 ] ] ] } },
{ "type": "Feature", "properties": { "rep_unit_id": 339, "ward": "City of Milwaukee Ward 339", "county": "MILWAUKEE" }, "geometry": { "type": "Polygon", "coordinates": [ [ [ -87.9230212, 43.0313659 ], [ -87.9231992, 43.0313679 ], [ -87.9232272, 43.0313679 ], [ -87.9247692, 43.0313799 ], [ -87.9250222, 43.0313819 ], [ -87.9252832, 43.0313829 ], [ -87.9262701, 43.0313879 ], [ -87.9292321, 43.0314039 ], [ -87.93022, 43.0314099 ], [ -87.930772, 43.0314139 ], [ -87.932429, 43.0314279 ], [ -87.9329774, 43.0314263 ], [ -87.932993599999989, 43.0305346 ], [ -87.9330001, 43.0294912 ], [ -87.9330006, 43.0293535 ], [ -87.933008700000016, 43.0281149 ], [ -87.9330107, 43.0275391 ], [ -87.9330165, 43.027069 ], [ -87.9330162, 43.026827399999988 ], [ -87.9330246, 43.0253599 ], [ -87.9330308, 43.0247246 ], [ -87.9330313, 43.0242376 ], [ -87.9330023, 43.0240053 ], [ -87.9329911, 43.0229886 ], [ -87.9324991, 43.0230116 ], [ -87.9310271, 43.0230816 ], [ -87.9305361, 43.0231056 ], [ -87.9302831, 43.0231166 ], [ -87.929524200000017, 43.0231536 ], [ -87.9292722, 43.0231656 ], [ -87.9287652, 43.0231786 ], [ -87.9284202, 43.0231886 ], [ -87.9280872, 43.0232016 ], [ -87.9272442, 43.0232036 ], [ -87.9267382, 43.0232056 ], [ -87.9264582, 43.0232056 ], [ -87.9256213, 43.0232096 ], [ -87.9253433, 43.0232106 ], [ -87.9253403, 43.0234146 ], [ -87.9253323, 43.0240266 ], [ -87.9253303, 43.0242316 ], [ -87.9253302, 43.0244507 ], [ -87.9253312, 43.0251087 ], [ -87.9253322, 43.0253287 ], [ -87.9250522, 43.0253267 ], [ -87.9242123, 43.0253227 ], [ -87.9239333, 43.0253217 ], [ -87.923652300000015, 43.0253197 ], [ -87.9228113, 43.0253147 ], [ -87.9225313, 43.0253137 ], [ -87.921937, 43.025845 ], [ -87.9222512, 43.0267251 ], [ -87.9207623, 43.0284434 ], [ -87.9224555, 43.0283076 ], [ -87.9224729, 43.0285508 ], [ -87.9224561, 43.0312534 ], [ -87.9224552, 43.0313541 ], [ -87.9230212, 43.0313659 ] ] ] } },
{ "type": "Feature", "properties": { "rep_unit_id": 342, "ward": "City of Milwaukee Ward 342", "county": "MILWAUKEE" }, "geometry": { "type": "Polygon", "coordinates": [ [ [ -87.909812800000012, 43.0110422 ], [ -87.9100778, 43.0110452 ], [ -87.9108738, 43.0110552 ], [ -87.9111398, 43.0110592 ], [ -87.9111468, 43.0106712 ], [ -87.9111698, 43.0095101 ], [ -87.9111778, 43.0091241 ], [ -87.9111808, 43.0090211 ], [ -87.9111898, 43.0087121 ], [ -87.9111928, 43.0086281 ], [ -87.9111961, 43.0083441 ], [ -87.9138094, 43.0080549 ], [ -87.9139499, 43.0064839 ], [ -87.9140228, 43.005222 ], [ -87.9119358, 43.002857399999989 ], [ -87.9113299, 43.002865899999989 ], [ -87.9111319, 43.0028659 ], [ -87.910539899999989, 43.0028689 ], [ -87.9104309, 43.0028699 ], [ -87.910342899999989, 43.0028709 ], [ -87.9100679, 43.0028719 ], [ -87.9092419, 43.0028779 ], [ -87.9089621, 43.002875 ], [ -87.9088819, 43.0072341 ], [ -87.9088782, 43.0077343 ], [ -87.9083337, 43.008265 ], [ -87.9083338, 43.0082651 ], [ -87.9088269, 43.0091791 ], [ -87.9088549, 43.0092301 ], [ -87.9090459, 43.0095921 ], [ -87.9090889, 43.0096731 ], [ -87.9093379, 43.010153099999989 ], [ -87.9096188, 43.0106801 ], [ -87.909812800000012, 43.0110422 ] ] ] } }
]
}
