{
"type": "FeatureCollection",
"name": "candidate-votes",
"crs": { "type": "name", "properties": { "name": "urn:ogc:def:crs:OGC:1.3:CRS84" } },
"features": [
{ "type": "Feature", "properties": { "ward": "City of Milwaukee Ward 126", "candidate": "write-in:", "votes": 0, "color": "#4DAF4A", "popup": "<div><strong>City of Milwaukee Ward 126</strong><div><strong>Representative to the Assembly, District 19</strong><table style='border-collapse:collapse;margin-top:4px;'><tr><th></th><th style='text-align:right;padding-right:8px;'>Votes</th><th style='text-align:right;'>Percent</th></tr><tr><td style='padding-right:8px;'>Ryan Clancy</td><td style='text-align:right;padding-right:8px;'>33</td><td style='text-align:right;'>39.3%</td></tr><tr><td style='padding-right:8px;'>Bridget Maniaci</td><td style='text-align:right;padding-right:8px;'>51</td><td style='text-align:right;'>60.7%</td></tr><tr><td style='padding-right:8px;'>write-in:</td><td style='text-align:right;padding-right:8px;'>0</td><td style='text-align:right;'>0.0%</td></tr></table></div>" }, "geometry": { "type": "Point", "coordinates": [ -87.880343866354451, 43.080054331376417 ] } },
{ "type": "Feature", "properties": { "ward": "City of Milwaukee Ward 128", "candidate": "write-in:", "votes": 0, "color": "#4DAF4A", "popup": "<div><strong>City of Milwaukee Ward 128</strong><div><strong>Representative to the Assembly, District 19</strong><table style='border-collapse:collapse;margin-top:4px;'><tr><th></th><th style='text-align:right;padding-right:8px;'>Votes</th><th style='text-align:right;'>Percent</th></tr><tr><td style='padding-right:8px;'>Ryan Clancy</td><td style='text-align:right;padding-right:8px;'>401</td><td style='text-align:right;'>42.3%</td></tr><tr><td style='padding-right:8px;'>Bridget Maniaci</td><td style='text-align:right;padding-right:8px;'>547</td><td style='text-align:right;'>57.7%</td></tr><tr><td style='padding-right:8px;'>write-in:</td><td style='text-align:right;padding-right:8px;'>0</td><td style='text-align:right;'>0.0%</td></tr></table></div>" }, "geometry": { "type": "Point", "coordinates": [ -87.872562971617683, 43.068750916440891 ] } },
{ "type": "Feature", "properties": { "ward": "City of Milwaukee Ward 129", "candidate": "write-in:", "votes": 0, "color": "#4DAF4A", "popup": "<div><strong>City of Milwaukee Ward 129</strong><div><strong>Representative to the Assembly, District 19</strong><table style='border-collapse:collapse;margin-top:4px;'><tr><th></th><th style='text-align:right;padding-right:8px;'>Votes</th><th style='text-align:right;'>Percent</th></tr><tr><td style='padding-right:8px;'>Ryan Clancy</td><td style='text-align:right;padding-right:8px;'>187</td><td style='text-align:right;'>49.5%</td></tr><tr><td style='padding-right:8px;'>Bridget Maniaci</td><td style='text-align:right;padding-right:8px;'>191</td><td style='text-align:right;'>50.5%</td></tr><tr><td style='padding-right:8px;'>write-in:</td><td style='text-align:right;padding-right:8px;'>0</td><td style='text-align:right;'>0.0%</td></tr></table></div>" }, "geometry": { "type": "Point", "coordinates": [ -87.88004861983444, 43.066070441166069 ] } },
{ "type": "Feature", "properties": { "ward": "City of Milwaukee Ward 133", "candidate": "write-in:", "votes": 0, "color": "#4DAF4A", "popup": "<div><strong>City of Milwaukee Ward 133</strong><div><strong>Representative to the Assembly, District 19</strong><table style='border-collapse:collapse;margin-top:4px;'><tr><th></th><th style='text-align:right;padding-right:8px;'>Votes</th><th style='text-align:right;'>Percent</th></tr><tr><td style='padding-right:8px;'>Ryan Clancy</td><td style='text-align:right;padding-right:8px;'>210</td><td style='text-align:right;'>62.3%</td></tr><tr><td style='padding-right:8px;'>Bridget Maniaci</td><td style='text-align:right;padding-right:8px;'>127</td><td style='text-align:right;'>37.7%</td></tr><tr><td style='padding-right:8px;'>write-in:</td><td style='text-align:right;padding-right:8px;'>0</td><td style='text-align:right;'>0.0%</td></tr></table></div>" }, "geometry": { "type": "Point", "coordinates": [ -87.895414924638644, 43.063162778974537 ] } },
{ "type": "Feature", "properties": { "ward": "City of Milwaukee Ward 174", "candidate": "write-in:", "votes": 0, "color": "#4DAF4A", "popup": "<div><strong>City of Milwaukee Ward 174</strong><div><strong>Representative to the Assembly, District 19</strong><table style='border-collapse:collapse;margin-top:4px;'><tr><th></th><th style='text-align:right;padding-right:8px;'>Votes</th><th style='text-align:right;'>Percent</th></tr><tr><td style='padding-right:8px;'>Ryan Clancy</td><td style='text-align:right;padding-right:8px;'>320</td><td style='text-align:right;'>50.4%</td></tr><tr><td style='padding-right:8px;'>Bridget Maniaci</td><td style='text-align:right;padding-right:8px;'>315</td><td style='text-align:right;'>49.6%</td></tr><tr><td style='padding-right:8px;'>write-in:</td><td style='text-align:right;padding-right:8px;'>0</td><td style='text-align:right;'>0.0%</td></tr></table></div>" }, "geometry": { "type": "Point", "coordinates": [ -87.899716604466917, 43.054794012001985 ] } },
{ "type": "Feature", "properties": { "ward": "City of Milwaukee Ward 179", "candidate": "write-in:", "votes": 0, "color": "#4DAF4A", "popup": "<div><strong>City of Milwaukee Ward 179</strong><div><strong>Representative to the Assembly, District 19</strong><table style='border-collapse:collapse;margin-top:4px;'><tr><th></th><th style='text-align:right;padding-right:8px;'>Votes</th><th style='text-align:right;'>Percent</th></tr><tr><td style='padding-right:8px;'>Ryan Clancy</td><td style='text-align:right;padding-right:8px;'>207</td><td style='text-align:right;'>55.8%</td></tr><tr><td style='padding-right:8px;'>Bridget Maniaci</td><td style='text-align:right;padding-right:8px;'>164</td><td style='text-align:right;'>44.2%</td></tr><tr><td style='padding-right:8px;'>write-in:</td><td style='text-align:right;padding-right:8px;'>0</td><td style='text-align:right;'>0.0%</td></tr></table></div>" }, "geometry": { "type": "Point", "coordinates": [ -87.904750049116984, 43.051994454002063 ] } },
{ "type": "Feature", "properties": { "ward": "City of Milwaukee Ward 237", "candidate": "write-in:", "votes": 0, "color": "#4DAF4A", "popup": "<div><strong>City of Milwaukee Ward 237</strong><div><strong>Representative to the Assembly, District 19</strong><table style='border-collapse:collapse;margin-top:4px;'><tr><th></th><th style='text-align:right;padding-right:8px;'>Votes</th><th style='text-align:right;'>Percent</th></tr><tr><td style='padding-right:8px;'>Ryan Clancy</td><td style='text-align:right;padding-right:8px;'>285</td><td style='text-align:right;'>68.3%</td></tr><tr><td style='padding-right:8px;'>Bridget Maniaci</td><td style='text-align:right;padding-right:8px;'>132</td><td style='text-align:right;'>31.7%</td></tr><tr><td style='padding-right:8px;'>write-in:</td><td style='text-align:right;padding-right:8px;'>0</td><td style='text-align:right;'>0.0%</td></tr></table></div>" }, "geometry": { "type": "Point", "coordinates": [ -87.89419138502214, 43.000228307767777 ] } },
{ "type": "Feature", "properties": { "ward": "City of Milwaukee Ward 340", "candidate": "Ryan Clancy", "votes": 0, "color": "#E41A1C", "popup": "<div><strong>City of Milwaukee Ward 340</strong><div><strong>Representative to the Assembly, District 19</strong><table style='border-collapse:collapse;margin-top:4px;'><tr><th></th><th style='text-align:right;padding-right:8px;'>Votes</th><th style='text-align:right;'>Percent</th></tr><tr><td style='padding-right:8px;'>Ryan Clancy</td><td style='text-align:right;padding-right:8px;'>0</td><td style='text-align:right;'>NaN%</td></tr><tr><td style='padding-right:8px;'>Bridget Maniaci</td><td style='text-align:right;padding-right:8px;'>0</td><td style='text-align:right;'>NaN%</td></tr><tr><td style='padding-right:8px;'>write-in:</td><td style='text-align:right;padding-right:8px;'>0</td><td style='text-align:right;'>NaN%</td></tr></table></div>" }, "geometry": { "type": "Point", "coordinates": [ -87.903472743472506, 43.025701515863133 ] } },
{ "type": "Feature", "properties": { "ward": "City of Milwaukee Ward 340", "candidate": "Bridget Maniaci", "votes": 0, "color": "#377EB8", "popup": "<div><strong>City of Milwaukee Ward 340</strong><div><strong>Representative to the Assembly, District 19</strong><table style='border-collapse:collapse;margin-top:4px;'><tr><th></th><th style='text-align:right;padding-right:8px;'>Votes</th><th style='text-align:right;'>Percent</th></tr><tr><td style='padding-right:8px;'>Ryan Clancy</td><td style='text-align:right;padding-right:8px;'>0</td><td style='text-align:right;'>NaN%</td></tr><tr><td style='padding-right:8px;'>Bridget Maniaci</td><td style='text-align:right;padding-right:8px;'>0</td><td style='text-align:right;'>NaN%</td></tr><tr><td style='padding-right:8px;'>write-in:</td><td style='text-align:right;padding-right:8px;'>0</td><td style='text-align:right;'>NaN%</td></tr></table></div>" }, "geometry": { "type": "Point", "coordinates": [ -87.903472743472506, 43.025701515863133 ] } },
{ "type": "Feature", "properties": { "ward": "City of Milwaukee Ward 340", "candidate": "write-in:", "votes": 0, "color": "#4DAF4A", "popup": "<div><strong>City of Milwaukee Ward 340</strong><div><strong>Representative to the Assembly, District 19</strong><table style='border-collapse:collapse;margin-top:4px;'><tr><th></th><th style='text-align:right;padding-right:8px;'>Votes</th><th style='text-align:right;'>Percent</th></tr><tr><td style='padding-right:8px;'>Ryan Clancy</td><td style='text-align:right;padding-right:8px;'>0</td><td style='text-align:right;'>NaN%</td></tr><tr><td style='padding-right:8px;'>Bridget Maniaci</td><td style='text-align:right;padding-right:8px;'>0</td><td style='text-align:right;'>NaN%</td></tr><tr><td style='padding-right:8px;'>write-in:</td><td style='text-align:right;padding-right:8px;'>0</td><td style='text-align:right;'>NaN%</td></tr></table></div>" }, "geometry": { "type": "Point", "coordinates": [ -87.903472743472506, 43.025701515863133 ] } },
{ "type": "Feature", "properties": { "ward": "City of Milwaukee Ward 341", "candidate": "Ryan Clancy", "votes": 0, "color": "#E41A1C", "popup": "<div><strong>City of Milwaukee Ward 341</strong><div><strong>Representative to the Assembly, District 19</strong><table style='border-collapse:collapse;margin-top:4px;'><tr><th></th><th style='text-align:right;padding-right:8px;'>Votes</th><th style='text-align:right;'>Percent</th></tr><tr><td style='padding-right:8px;'>Ryan Clancy</td><td style='text-align:right;padding-right:8px;'>0</td><td style='text-align:right;'>NaN%</td></tr><tr><td style='padding-right:8px;'>Bridget Maniaci</td><td style='text-align:right;padding-right:8px;'>0</td><td style='text-align:right;'>NaN%</td></tr><tr><td style='padding-right:8px;'>write-in:</td><td style='text-align:right;padding-right:8px;'>0</td><td style='text-align:right;'>NaN%</td></tr></table></div>" }, "geometry": { "type": "Point", "coordinates": [ -87.905288703408232, 43.021467792453699 ] } },
{ "type": "Feature", "properties": { "ward": "City of Milwaukee Ward 341", "candidate": "Bridget Maniaci", "votes": 0, "color": "#377EB8", "popup": "<div><strong>City of Milwaukee Ward 341</strong><div><strong>Representative to the Assembly, District 19</strong><table style='border-collapse:collapse;margin-top:4px;'><tr><th></th><th style='text-align:right;padding-right:8px;'>Votes</th><th style='text-align:right;'>Percent</th></tr><tr><td style='padding-right:8px;'>Ryan Clancy</td><td style='text-align:right;padding-right:8px;'>0</td><td style='text-align:right;'>NaN%</td></tr><tr><td style='padding-right:8px;'>Bridget Maniaci</td><td style='text-align:right;padding-right:8px;'>0</td><td style='text-align:right;'>NaN%</td></tr><tr><td style='padding-right:8px;'>write-in:</td><td style='text-align:right;padding-right:8px;'>0</td><td style='text-align:right;'>NaN%</td></tr></table></div>" }, "geometry": { "type": "Point", "coordinates": [ -87.905288703408232, 43.021467792453699 ] } },
{ "type": "Feature", "properties": { "ward": "City of Milwaukee Ward 341", "candidate": "write-in:", "votes": 0, "color": "#4DAF4A", "popup": "<div><strong>City of Milwaukee Ward 341</strong><div><strong>Representative to the Assembly, District 19</strong><table style='border-collapse:collapse;margin-top:4px;'><tr><th></th><th style='text-align:right;padding-right:8px;'>Votes</th><th style='text-align:right;'>Percent</th></tr><tr><td style='padding-right:8px;'>Ryan Clancy</td><td style='text-align:right;padding-right:8px;'>0</td><td style='text-align:right;'>NaN%</td></tr><tr><td style='padding-right:8px;'>Bridget Maniaci</td><td style='text-align:right;padding-right:8px;'>0</td><td style='text-align:right;'>NaN%</td></tr><tr><td style='padding-right:8px;'>write-in:</td><td style='text-align:right;padding-right:8px;'>0</td><td style='text-align:right;'>NaN%</td></tr></table></div>" }, "geometry": { "type": "Point", "coordinates": [ -87.905288703408232, 43.021467792453699 ] } },
{ "type": "Feature", "properties": { "ward": "City of Milwaukee Ward 122", "candidate": "write-in:", "votes": 1, "color": "#4DAF4A", "popup": "<div><strong>City of Milwaukee Ward 122</strong><div><strong>Representative to the Assembly, District 19</strong><table style='border-collapse:collapse;margin-top:4px;'><tr><th></th><th style='text-align:right;padding-right:8px;'>Votes</th><th style='text-align:right;'>Percent</th></tr><tr><td style='padding-right:8px;'>Ryan Clancy</td><td style='text-align:right;padding-right:8px;'>282</td><td style='text-align:right;'>61.3%</td></tr><tr><td style='padding-right:8px;'>Bridget Maniaci</td><td style='text-align:right;padding-right:8px;'>177</td><td style='text-align:right;'>38.5%</td></tr><tr><td style='padding-right:8px;'>write-in:</td><td style='text-align:right;padding-right:8px;'>1</td><td style='text-align:right;'>0.2%</td></tr></table></div>" }, "geometry": { "type": "Point", "coordinates": [ -87.89522171646594, 43.074203704562699 ] } },
{ "type": "Feature", "properties": { "ward": "City of Milwaukee Ward 123", "candidate": "write-in:", "votes": 1, "color": "#4DAF4A", "popup": "<div><strong>City of Milwaukee Ward 123</strong><div><strong>Representative to the Assembly, District 19</strong><table style='border-collapse:collapse;margin-top:4px;'><tr><th></th><th style='text-align:right;padding-right:8px;'>Votes</th><th style='text-align:right;'>Percent</th></tr><tr><td style='padding-right:8px;'>Ryan Clancy</td><td style='text-align:right;padding-right:8px;'>384</td><td style='text-align:right;'>59.8%</td></tr><tr><td style='padding-right:8px;'>Bridget Maniaci</td><td style='text-align:right;padding-right:8px;'>257</td><td style='text-align:right;'>40.0%</td></tr><tr><td style='padding-right:8px;'>write-in:</td><td style='text-align:right;padding-right:8px;'>1</td><td style='text-align:right;'>0.2%</td></tr></table></div>" }, "geometry": { "type": "Point", "coordinates": [ -87.888359621622612, 43.078090391152742 ] } },
{ "type": "Feature", "properties": { "ward": "City of Milwaukee Ward 124", "candidate": "write-in:", "votes": 1, "color": "#4DAF4A", "popup": "<div><strong>City of Milwaukee Ward 124</strong><div><strong>Representative to the Assembly, District 19</strong><table style='border-collapse:collapse;margin-top:4px;'><tr><th></th><th style='text-align:right;padding-right:8px;'>Votes</th><th style='text-align:right;'>Percent</th></tr><tr><td style='padding-right:8px;'>Ryan Clancy</td><td style='text-align:right;padding-right:8px;'>330</td><td style='text-align:right;'>52.1%</td></tr><tr><td style='padding-right:8px;'>Bridget Maniaci</td><td style='text-align:right;padding-right:8px;'>302</td><td style='text-align:right;'>47.7%</td></tr><tr><td style='padding-right:8px;'>write-in:</td><td style='text-align:right;padding-right:8px;'>1</td><td style='text-align:right;'>0.2%</td></tr></table></div>" }, "geometry": { "type": "Point", "coordinates": [ -87.889170629278212, 43.071914476353662 ] } },
{ "type": "Feature", "properties": { "ward": "City of Milwaukee Ward 125", "candidate": "write-in:", "votes": 1, "color": "#4DAF4A", "popup": "<div><strong>City of Milwaukee Ward 125</strong><div><strong>Representative to the Assembly, District 19</strong><table style='border-collapse:collapse;margin-top:4px;'><tr><th></th><th style='text-align:right;padding-right:8px;'>Votes</th><th style='text-align:right;'>Percent</th></tr><tr><td style='padding-right:8px;'>Ryan Clancy</td><td style='text-align:right;padding-right:8px;'>237</td><td style='text-align:right;'>46.4%</td></tr><tr><td style='padding-right:8px;'>Bridget Maniaci</td><td style='text-align:right;padding-right:8px;'>273</td><td style='text-align:right;'>53.4%</td></tr><tr><td style='padding-right:8px;'>write-in:</td><td style='text-align:right;padding-right:8px;'>1</td><td style='text-align:right;'>0.2%</td></tr></table></div>" }, "geometry": { "type": "Point", "coordinates": [ -87.880452675140916, 43.072788776381209 ] } },
{ "type": "Feature", "properties": { "ward": "City of Milwaukee Ward 127", "candidate": "write-in:", "votes": 1, "color": "#4DAF4A", "popup": "<div><strong>City of Milwaukee Ward 127</strong><div><strong>Representative to the Assembly, District 19</strong><table style='border-collapse:collapse;margin-top:4px;'><tr><th></th><th style='text-align:right;padding-right:8px;'>Votes</th><th style='text-align:right;'>Percent</th></tr><tr><td style='padding-right:8px;'>Ryan Clancy</td><td style='text-align:right;padding-right:8px;'>236</td><td style='text-align:right;'>40.5%</td></tr><tr><td style='padding-right:8px;'>Bridget Maniaci</td><td style='text-align:right;padding-right:8px;'>345</td><td style='text-align:right;'>59.3%</td></tr><tr><td style='padding-right:8px;'>write-in:</td><td style='text-align:right;padding-right:8px;'>1</td><td style='text-align:right;'>0.2%</td></tr></table></div>" }, "geometry": { "type": "Point", "coordinates": [ -87.873465684022364, 43.077645423176378 ] } },
{ "type": "Feature", "properties": { "ward": "City of Milwaukee Ward 130", "candidate": "write-in:", "votes": 1, "color": "#4DAF4A", "popup": "<div><strong>City of Milwaukee Ward 130</strong><div><strong>Representative to the Assembly, District 19</strong><table style='border-collapse:collapse;margin-top:4px;'><tr><th></th><th style='text-align:right;padding-right:8px;'>Votes</th><th style='text-align:right;'>Percent</th></tr><tr><td style='padding-right:8px;'>Ryan Clancy</td><td style='text-align:right;padding-right:8px;'>209</td><td style='text-align:right;'>49.6%</td></tr><tr><td style='padding-right:8px;'>Bridget Maniaci</td><td style='text-align:right;padding-right:8px;'>211</td><td style='text-align:right;'>50.1%</td></tr><tr><td style='padding-right:8px;'>write-in:</td><td style='text-align:right;padding-right:8px;'>1</td><td style='text-align:right;'>0.2%</td></tr></table></div>" }, "geometry": { "type": "Point", "coordinates": [ -87.88375761963168, 43.066084465063426 ] } },
{ "type": "Feature", "properties": { "ward": "City of Milwaukee Ward 131", "candidate": "write-in:", "votes": 1, "color": "#4DAF4A", "popup": "<div><strong>City of Milwaukee Ward 131</strong><div><strong>Representative to the Assembly, District 19</strong><table style='border-collapse:collapse;margin-top:4px;'><tr><th></th><th style='text-align:right;padding-right:8px;'>Votes</th><th style='text-align:right;'>Percent</th></tr><tr><td style='padding-right:8px;'>Ryan Clancy</td><td style='text-align:right;padding-right:8px;'>275</td><td style='text-align:right;'>52.6%</td></tr><tr><td style='padding-right:8px;'>Bridget Maniaci</td><td style='text-align:right;padding-right:8px;'>247</td><td style='text-align:right;'>47.2%</td></tr><tr><td style='padding-right:8px;'>write-in:</td><td style='text-align:right;padding-right:8px;'>1</td><td style='text-align:right;'>0.2%</td></tr></table></div>" }, "geometry": { "type": "Point", "coordinates": [ -87.885926123313652, 43.061648169700547 ] } },
{ "type": "Feature", "properties": { "ward": "City of Milwaukee Ward 141", "candidate": "write-in:", "votes": 1, "color": "#4DAF4A", "popup": "<div><strong>City of Milwaukee Ward 141</strong><div><strong>Representative to the Assembly, District 19</strong><table style='border-collapse:collapse;margin-top:4px;'><tr><th></th><th style='text-align:right;padding-right:8px;'>Votes</th><th style='text-align:right;'>Percent</th></tr><tr><td style='padding-right:8px;'>Ryan Clancy</td><td style='text-align:right;padding-right:8px;'>70</td><td style='text-align:right;'>55.1%</td></tr><tr><td style='padding-right:8px;'>Bridget Maniaci</td><td style='text-align:right;padding-right:8px;'>56</td><td style='text-align:right;'>44.1%</td></tr><tr><td style='padding-right:8px;'>write-in:</td><td style='text-align:right;padding-right:8px;'>1</td><td style='text-align:right;'>0.8%</td></tr></table></div>" }, "geometry": { "type": "Point", "coordinates": [ -87.906629570602178, 43.039693841744835 ] } },
{ "type": "Feature", "properties": { "ward": "City of Milwaukee Ward 156", "candidate": "write-in:", "votes": 1, "color": "#4DAF4A", "popup": "<div><strong>City of Milwaukee Ward 156</strong><div><strong>Representative to the Assembly, District 19</strong><table style='border-collapse:collapse;margin-top:4px;'><tr><th></th><th style='text-align:right;padding-right:8px;'>Votes</th><th style='text-align:right;'>Percent</th></tr><tr><td style='padding-right:8px;'>Ryan Clancy</td><td style='text-align:right;padding-right:8px;'>211</td><td style='text-align:right;'>53.7%</td></tr><tr><td style='padding-right:8px;'>Bridget Maniaci</td><td style='text-align:right;padding-right:8px;'>181</td><td style='text-align:right;'>46.1%</td></tr><tr><td style='padding-right:8px;'>write-in:</td><td style='text-align:right;padding-right:8px;'>1</td><td style='text-align:right;'>0.3%</td></tr></table></div>" }, "geometry": { "type": "Point", "coordinates": [ -87.900441460513434, 43.027706020592426 ] } },
{ "type": "Feature", "properties": { "ward": "City of Milwaukee Ward 162", "candidate": "write-in:", "votes": 1, "color": "#4DAF4A", "popup": "<div><strong>City of Milwaukee Ward 162</strong><div><strong>Representative to the Assembly, District 19</strong><table style='border-collapse:collapse;margin-top:4px;'><tr><th></th><th style='text-align:right;padding-right:8px;'>Votes</th><th style='text-align:right;'>Percent</th></tr><tr><td style='padding-right:8px;'>Ryan Clancy</td><td style='text-align:right;padding-right:8px;'>258</td><td style='text-align:right;'>52.8%</td></tr><tr><td style='padding-right:8px;'>Bridget Maniaci</td><td style='text-align:right;padding-right:8px;'>230</td><td style='text-align:right;'>47.0%</td></tr><tr><td style='padding-right:8px;'>write-in:</td><td style='text-align:right;padding-right:8px;'>1</td><td style='text-align:right;'>0.2%</td></tr></table></div>" }, "geometry": { "type": "Point", "coordinates": [ -87.90717671852552, 43.049569198077968 ] } },
{ "type": "Feature", "properties": { "ward": "City of Milwaukee Ward 176", "candidate": "write-in:", "votes": 1, "color": "#4DAF4A", "popup": "<div><strong>City of Milwaukee Ward 176</strong><div><strong>Representative to the Assembly, District 19</strong><table style='border-collapse:collapse;margin-top:4px;'><tr><th></th><th style='text-align:right;padding-right:8px;'>Votes</th><th style='text-align:right;'>Percent</th></tr><tr><td style='padding-right:8px;'>Ryan Clancy</td><td style='text-align:right;padding-right:8px;'>231</td><td style='text-align:right;'>46.9%</td></tr><tr><td style='padding-right:8px;'>Bridget Maniaci</td><td style='text-align:right;padding-right:8px;'>261</td><td style='text-align:right;'>52.9%</td></tr><tr><td style='padding-right:8px;'>write-in:</td><td style='text-align:right;padding-right:8px;'>1</td><td style='text-align:right;'>0.2%</td></tr></table></div>" }, "geometry": { "type": "Point", "coordinates": [ -87.880980434781691, 43.057741346988003 ] } },
{ "type": "Feature", "properties": { "ward": "City of Milwaukee Ward 178", "candidate": "write-in:", "votes": 1, "color": "#4DAF4A", "popup": "<div><strong>City of Milwaukee Ward 178</strong><div><strong>Representative to the Assembly, District 19</strong><table style='border-collapse:collapse;margin-top:4px;'><tr><th></th><th style='text-align:right;padding-right:8px;'>Votes</th><th style='text-align:right;'>Percent</th></tr><tr><td style='padding-right:8px;'>Ryan Clancy</td><td style='text-align:right;padding-right:8px;'>247</td><td style='text-align:right;'>53.1%</td></tr><tr><td style='padding-right:8px;'>Bridget Maniaci</td><td style='text-align:right;padding-right:8px;'>217</td><td style='text-align:right;'>46.7%</td></tr><tr><td style='padding-right:8px;'>write-in:</td><td style='text-align:right;padding-right:8px;'>1</td><td style='text-align:right;'>0.2%</td></tr></table></div>" }, "geometry": { "type": "Point", "coordinates": [ -87.894739031103384, 43.051374648239538 ] } },
{ "type": "Feature", "properties": { "ward": "City of Milwaukee Ward 236", "candidate": "write-in:", "votes": 1, "color": "#4DAF4A", "popup": "<div><strong>City of Milwaukee Ward 236</strong><div><strong>Representative to the Assembly, District 19</strong><table style='border-collapse:collapse;margin-top:4px;'><tr><th></th><th style='text-align:right;padding-right:8px;'>Votes</th><th style='text-align:right;'>Percent</th></tr><tr><td style='padding-right:8px;'>Ryan Clancy</td><td style='text-align:right;padding-right:8px;'>387</td><td style='text-align:right;'>68.3%</td></tr><tr><td style='padding-right:8px;'>Bridget Maniaci</td><td style='text-align:right;padding-right:8px;'>179</td><td style='text-align:right;'>31.6%</td></tr><tr><td style='padding-right:8px;'>write-in:</td><td style='text-align:right;padding-right:8px;'>1</td><td style='text-align:right;'>0.2%</td></tr></table></div>" }, "geometry": { "type": "Point", "coordinates": [ -87.899486211503771, 43.008079908184577 ] } },
{ "type": "Feature", "properties": { "ward": "City of Milwaukee Ward 238", "candidate": "write-in:", "votes": 1, "color": "#4DAF4A", "popup": "<div><strong>City of Milwaukee Ward 238</strong><div><strong>Representative to the Assembly, District 19</strong><table style='border-collapse:collapse;margin-top:4px;'><tr><th></th><th style='text-align:right;padding-right:8px;'>Votes</th><th style='text-align:right;'>Percent</th></tr><tr><td style='padding-right:8px;'>Ryan Clancy</td><td style='text-align:right;padding-right:8px;'>359</td><td style='text-align:right;'>60.8%</td></tr><tr><td style='padding-right:8px;'>Bridget Maniaci</td><td style='text-align:right;padding-right:8px;'>230</td><td style='text-align:right;'>39.0%</td></tr><tr><td style='padding-right:8px;'>write-in:</td><td style='text-align:right;padding-right:8px;'>1</td><td style='text-align:right;'>0.2%</td></tr></table></div>" }, "geometry": { "type": "Point", "coordinates": [ -87.888142850520154, 42.996335994125737 ] } },
{ "type": "Feature", "properties": { "ward": "City of Milwaukee Ward 241", "candidate": "write-in:", "votes": 1, "color": "#4DAF4A", "popup": "<div><strong>City of Milwaukee Ward 241</strong><div><strong>Representative to the Assembly, District 19</strong><table style='border-collapse:collapse;margin-top:4px;'><tr><th></th><th style='text-align:right;padding-right:8px;'>Votes</th><th style='text-align:right;'>Percent</th></tr><tr><td style='padding-right:8px;'>Ryan Clancy</td><td style='text-align:right;padding-right:8px;'>430</td><td style='text-align:right;'>71.8%</td></tr><tr><td style='padding-right:8px;'>Bridget Maniaci</td><td style='text-align:right;padding-right:8px;'>168</td><td style='text-align:right;'>28.0%</td></tr><tr><td style='padding-right:8px;'>write-in:</td><td style='text-align:right;padding-right:8px;'>1</td><td style='text-align:right;'>0.2%</td></tr></table></div>" }, "geometry": { "type": "Point", "coordinates": [ -87.903831430040071, 42.997960951648899 ] } },
{ "type": "Feature", "properties": { "ward": "City of Milwaukee Ward 158", "candidate": "write-in:", "votes": 2, "color": "#4DAF4A", "popup": "<div><strong>City of Milwaukee Ward 158</strong><div><strong>Representative to the Assembly, District 19</strong><table style='border-collapse:collapse;margin-top:4px;'><tr><th></th><th style='text-align:right;padding-right:8px;'>Votes</th><th style='text-align:right;'>Percent</th></tr><tr><td style='padding-right:8px;'>Ryan Clancy</td><td style='text-align:right;padding-right:8px;'>161</td><td style='text-align:right;'>56.1%</td></tr><tr><td style='padding-right:8px;'>Bridget Maniaci</td><td style='text-align:right;padding-right:8px;'>124</td><td style='text-align:right;'>43.2%</td></tr><tr><td style='padding-right:8px;'>write-in:</td><td style='text-align:right;padding-right:8px;'>2</td><td style='text-align:right;'>0.7%</td></tr></table></div>" }, "geometry": { "type": "Point", "coordinates": [ -87.910489597525427, 43.044273790874591 ] } },
{ "type": "Feature", "properties": { "ward": "City of Milwaukee Ward 175", "candidate": "write-in:", "votes": 2, "color": "#4DAF4A", "popup": "<div><strong>City of Milwaukee Ward 175</strong><div><strong>Representative to the Assembly, District 19</strong><table style='border-collapse:collapse;margin-top:4px;'><tr><th></th><th style='text-align:right;padding-right:8px;'>Votes</th><th style='text-align:right;'>Percent</th></tr><tr><td style='padding-right:8px;'>Ryan Clancy</td><td style='text-align:right;padding-right:8px;'>413</td><td style='text-align:right;'>54.0%</td></tr><tr><td style='padding-right:8px;'>Bridget Maniaci</td><td style='text-align:right;padding-right:8px;'>350</td><td style='text-align:right;'>45.8%</td></tr><tr><td style='padding-right:8px;'>write-in:</td><td style='text-align:right;padding-right:8px;'>2</td><td style='text-align:right;'>0.3%</td></tr></table></div>" }, "geometry": { "type": "Point", "coordinates": [ -87.890011633417785, 43.056619900824593 ] } },
{ "type": "Feature", "properties": { "ward": "City of Milwaukee Ward 180", "candidate": "write-in:", "votes": 2, "color": "#4DAF4A", "popup": "<div><strong>City of Milwaukee Ward 180</strong><div><strong>Representative to the Assembly, District 19</strong><table style='border-collapse:collapse;margin-top:4px;'><tr><th></th><th style='text-align:right;padding-right:8px;'>Votes</th><th style='text-align:right;'>Percent</th></tr><tr><td style='padding-right:8px;'>Ryan Clancy</td><td style='text-align:right;padding-right:8px;'>299</td><td style='text-align:right;'>50.5%</td></tr><tr><td style='padding-right:8px;'>Bridget Maniaci</td><td style='text-align:right;padding-right:8px;'>291</td><td style='text-align:right;'>49.2%</td></tr><tr><td style='padding-right:8px;'>write-in:</td><td style='text-align:right;padding-right:8px;'>2</td><td style='text-align:right;'>0.3%</td></tr></table></div>" }, "geometry": { "type": "Point", "coordinates": [ -87.899810137925527, 43.046908679979808 ] } },
{ "type": "Feature", "properties": { "ward": "City of Milwaukee Ward 182", "candidate": "write-in:", "votes": 2, "color": "#4DAF4A", "popup": "<div><strong>City of Milwaukee Ward 182</strong><div><strong>Representative to the Assembly, District 19</strong><table style='border-collapse:collapse;margin-top:4px;'><tr><th></th><th style='text-align:right;padding-right:8px;'>Votes</th><th style='text-align:right;'>Percent</th></tr><tr><td style='padding-right:8px;'>Ryan Clancy</td><td style='text-align:right;padding-right:8px;'>164</td><td style='text-align:right;'>50.3%</td></tr><tr><td style='padding-right:8px;'>Bridget Maniaci</td><td style='text-align:right;padding-right:8px;'>160</td><td style='text-align:right;'>49.1%</td></tr><tr><td style='padding-right:8px;'>write-in:</td><td style='text-align:right;padding-right:8px;'>2</td><td style='text-align:right;'>0.6%</td></tr></table></div>" }, "geometry": { "type": "Point", "coordinates": [ -87.90683805170201, 43.03366087260175 ] } },
{ "type": "Feature", "properties": { "ward": "City of Milwaukee Ward 239", "candidate": "write-in:", "votes": 2, "color": "#4DAF4A", "popup": "<div><strong>City of Milwaukee Ward 239</strong><div><strong>Representative to the Assembly, District 19</strong><table style='border-collapse:collapse;margin-top:4px;'><tr><th></th><th style='text-align:right;padding-right:8px;'>Votes</th><th style='text-align:right;'>Percent</th></tr><tr><td style='padding-right:8px;'>Ryan Clancy</td><td style='text-align:right;padding-right:8px;'>532</td><td style='text-align:right;'>63.0%</td></tr><tr><td style='padding-right:8px;'>Bridget Maniaci</td><td style='text-align:right;padding-right:8px;'>310</td><td style='text-align:right;'>36.7%</td></tr><tr><td style='padding-right:8px;'>write-in:</td><td style='text-align:right;padding-right:8px;'>2</td><td style='text-align:right;'>0.2%</td></tr></table></div>" }, "geometry": { "type": "Point", "coordinates": [ -87.882540672140081, 42.991224070180579 ] } },
{ "type": "Feature", "properties": { "ward": "City of Milwaukee Ward 132", "candidate": "write-in:", "votes": 3, "color": "#4DAF4A", "popup": "<div><strong>City of Milwaukee Ward 132</strong><div><strong>Representative to the Assembly, District 19</strong><table style='border-collapse:collapse;margin-top:4px;'><tr><th></th><th style='text-align:right;padding-right:8px;'>Votes</th><th style='text-align:right;'>Percent</th></tr><tr><td style='padding-right:8px;'>Ryan Clancy</td><td style='text-align:right;padding-right:8px;'>228</td><td style='text-align:right;'>55.1%</td></tr><tr><td style='padding-right:8px;'>Bridget Maniaci</td><td style='text-align:right;padding-right:8px;'>183</td><td style='text-align:right;'>44.2%</td></tr><tr><td style='padding-right:8px;'>write-in:</td><td style='text-align:right;padding-right:8px;'>3</td><td style='text-align:right;'>0.7%</td></tr></table></div>" }, "geometry": { "type": "Point", "coordinates": [ -87.891399419313714, 43.065536813833049 ] } },
{ "type": "Feature", "properties": { "ward": "City of Milwaukee Ward 177", "candidate": "write-in:", "votes": 3, "color": "#4DAF4A", "popup": "<div><strong>City of Milwaukee Ward 177</strong><div><strong>Representative to the Assembly, District 19</strong><table style='border-collapse:collapse;margin-top:4px;'><tr><th></th><th style='text-align:right;padding-right:8px;'>Votes</th><th style='text-align:right;'>Percent</th></tr><tr><td style='padding-right:8px;'>Ryan Clancy</td><td style='text-align:right;padding-right:8px;'>409</td><td style='text-align:right;'>50.8%</td></tr><tr><td style='padding-right:8px;'>Bridget Maniaci</td><td style='text-align:right;padding-right:8px;'>393</td><td style='text-align:right;'>48.8%</td></tr><tr><td style='padding-right:8px;'>write-in:</td><td style='text-align:right;padding-right:8px;'>3</td><td style='text-align:right;'>0.4%</td></tr></table></div>" }, "geometry": { "type": "Point", "coordinates": [ -87.893470609177754, 43.045208808165945 ] } },
{ "type": "Feature", "properties": { "ward": "City of Milwaukee Ward 181", "candidate": "write-in:", "votes": 3, "color": "#4DAF4A", "popup": "<div><strong>City of Milwaukee Ward 181</strong><div><strong>Representative to the Assembly, District 19</strong><table style='border-collapse:collapse;margin-top:4px;'><tr><th></th><th style='text-align:right;padding-right:8px;'>Votes</th><th style='text-align:right;'>Percent</th></tr><tr><td style='padding-right:8px;'>Ryan Clancy</td><td style='text-align:right;padding-right:8px;'>262</td><td style='text-align:right;'>51.7%</td></tr><tr><td style='padding-right:8px;'>Bridget Maniaci</td><td style='text-align:right;padding-right:8px;'>242</td><td style='text-align:right;'>47.7%</td></tr><tr><td style='padding-right:8px;'>write-in:</td><td style='text-align:right;padding-right:8px;'>3</td><td style='text-align:right;'>0.6%</td></tr></table></div>" }, "geometry": { "type": "Point", "coordinates": [ -87.901406734306519, 43.044303508875046 ] } },
{ "type": "Feature", "properties": { "ward": "City of Milwaukee Ward 126", "candidate": "Ryan Clancy", "votes": 33, "color": "#E41A1C", "popup": "<div><strong>City of Milwaukee Ward 126</strong><div><strong>Representative to the Assembly, District 19</strong><table style='border-collapse:collapse;margin-top:4px;'><tr><th></th><th style='text-align:right;padding-right:8px;'>Votes</th><th style='text-align:right;'>Percent</th></tr><tr><td style='padding-right:8px;'>Ryan Clancy</td><td style='text-align:right;padding-right:8px;'>33</td><td style='text-align:right;'>39.3%</td></tr><tr><td style='padding-right:8px;'>Bridget Maniaci</td><td style='text-align:right;padding-right:8px;'>51</td><td style='text-align:right;'>60.7%</td></tr><tr><td style='padding-right:8px;'>write-in:</td><td style='text-align:right;padding-right:8px;'>0</td><td style='text-align:right;'>0.0%</td></tr></table></div>" }, "geometry": { "type": "Point", "coordinates": [ -87.880343866354451, 43.080054331376417 ] } },
{ "type": "Feature", "properties": { "ward": "City of Milwaukee Ward 126", "candidate": "Bridget Maniaci", "votes": 51, "color": "#377EB8", "popup": "<div><strong>City of Milwaukee Ward 126</strong><div><strong>Representative to the Assembly, District 19</strong><table style='border-collapse:collapse;margin-top:4px;'><tr><th></th><th style='text-align:right;padding-right:8px;'>Votes</th><th style='text-align:right;'>Percent</th></tr><tr><td style='padding-right:8px;'>Ryan Clancy</td><td style='text-align:right;padding-right:8px;'>33</td><td style='text-align:right;'>39.3%</td></tr><tr><td style='padding-right:8px;'>Bridget Maniaci</td><td style='text-align:right;padding-right:8px;'>51</td><td style='text-align:right;'>60.7%</td></tr><tr><td style='padding-right:8px;'>write-in:</td><td style='text-align:right;padding-right:8px;'>0</td><td style='text-align:right;'>0.0%</td></tr></table></div>" }, "geometry": { "type": "Point", "coordinates": [ -87.880343866354451, 43.080054331376417 ] } },
{ "type": "Feature", "properties": { "ward": "City of Milwaukee Ward 141", "candidate": "Bridget Maniaci", "votes": 56, "color": "#377EB8", "popup": "<div><strong>City of Milwaukee Ward 141</strong><div><strong>Representative to the Assembly, District 19</strong><table style='border-collapse:collapse;margin-top:4px;'><tr><th></th><th style='text-align:right;padding-right:8px;'>Votes</th><th style='text-align:right;'>Percent</th></tr><tr><td style='padding-right:8px;'>Ryan Clancy</td><td style='text-align:right;padding-right:8px;'>70</td><td style='text-align:right;'>55.1%</td></tr><tr><td style='padding-right:8px;'>Bridget Maniaci</td><td style='text-align:right;padding-right:8px;'>56</td><td style='text-align:right;'>44.1%</td></tr><tr><td style='padding-right:8px;'>write-in:</td><td style='text-align:right;padding-right:8px;'>1</td><td style='text-align:right;'>0.8%</td></tr></table></div>" }, "geometry": { "type": "Point", "coordinates": [ -87.906629570602178, 43.039693841744835 ] } },
{ "type": "Feature", "properties": { "ward": "City of Milwaukee Ward 141", "candidate": "Ryan Clancy", "votes": 70, "color": "#E41A1C", "popup": "<div><strong>City of Milwaukee Ward 141</strong><div><strong>Representative to the Assembly, District 19</strong><table style='border-collapse:collapse;margin-top:4px;'><tr><th></th><th style='text-align:right;padding-right:8px;'>Votes</th><th style='text-align:right;'>Percent</th></tr><tr><td style='padding-right:8px;'>Ryan Clancy</td><td style='text-align:right;padding-right:8px;'>70</td><td style='text-align:right;'>55.1%</td></tr><tr><td style='padding-right:8px;'>Bridget Maniaci</td><td style='text-align:right;padding-right:8px;'>56</td><td style='text-align:right;'>44.1%</td></tr><tr><td style='padding-right:8px;'>write-in:</td><td style='text-align:right;padding-right:8px;'>1</td><td style='text-align:right;'>0.8%</td></tr></table></div>" }, "geometry": { "type": "Point", "coordinates": [ -87.906629570602178, 43.039693841744835 ] } },
{ "type": "Feature", "properties": { "ward": "City of Milwaukee Ward 158", "candidate": "Bridget Maniaci", "votes": 124, "color": "#377EB8", "popup": "<div><strong>City of Milwaukee Ward 158</strong><div><strong>Representative to the Assembly, District 19</strong><table style='border-collapse:collapse;margin-top:4px;'><tr><th></th><th style='text-align:right;padding-right:8px;'>Votes</th><th style='text-align:right;'>Percent</th></tr><tr><td style='padding-right:8px;'>Ryan Clancy</td><td style='text-align:right;padding-right:8px;'>161</td><td style='text-align:right;'>56.1%</td></tr><tr><td style='padding-right:8px;'>Bridget Maniaci</td><td style='text-align:right;padding-right:8px;'>124</td><td style='text-align:right;'>43.2%</td></tr><tr><td style='padding-right:8px;'>write-in:</td><td style='text-align:right;padding-right:8px;'>2</td><td style='text-align:right;'>0.7%</td></tr></table></div>" }, "geometry": { "type": "Point", "coordinates": [ -87.910489597525427, 43.044273790874591 ] } },
{ "type": "Feature", "properties": { "ward": "City of Milwaukee Ward 133", "candidate": "Bridget Maniaci", "votes": 127, "color": "#377EB8", "popup": "<div><strong>City of Milwaukee Ward 133</strong><div><strong>Representative to the Assembly, District 19</strong><table style='border-collapse:collapse;margin-top:4px;'><tr><th></th><th style='text-align:right;padding-right:8px;'>Votes</th><th style='text-align:right;'>Percent</th></tr><tr><td style='padding-right:8px;'>Ryan Clancy</td><td style='text-align:right;padding-right:8px;'>210</td><td style='text-align:right;'>62.3%</td></tr><tr><td style='padding-right:8px;'>Bridget Maniaci</td><td style='text-align:right;padding-right:8px;'>127</td><td style='text-align:right;'>37.7%</td></tr><tr><td style='padding-right:8px;'>write-in:</td><td style='text-align:right;padding-right:8px;'>0</td><td style='text-align:right;'>0.0%</td></tr></table></div>" }, "geometry": { "type": "Point", "coordinates": [ -87.895414924638644, 43.063162778974537 ] } },
{ "type": "Feature", "properties": { "ward": "City of Milwaukee Ward 237", "candidate": "Bridget Maniaci", "votes": 132, "color": "#377EB8", "popup": "<div><strong>City of Milwaukee Ward 237</strong><div><strong>Representative to the Assembly, District 19</strong><table style='border-collapse:collapse;margin-top:4px;'><tr><th></th><th style='text-align:right;padding-right:8px;'>Votes</th><th style='text-align:right;'>Percent</th></tr><tr><td style='padding-right:8px;'>Ryan Clancy</td><td style='text-align:right;padding-right:8px;'>285</td><td style='text-align:right;'>68.3%</td></tr><tr><td style='padding-right:8px;'>Bridget Maniaci</td><td style='text-align:right;padding-right:8px;'>132</td><td style='text-align:right;'>31.7%</td></tr><tr><td style='padding-right:8px;'>write-in:</td><td style='text-align:right;padding-right:8px;'>0</td><td style='text-align:right;'>0.0%</td></tr></table></div>" }, "geometry": { "type": "Point", "coordinates": [ -87.89419138502214, 43.000228307767777 ] } },
{ "type": "Feature", "properties": { "ward": "City of Milwaukee Ward 182", "candidate": "Bridget Maniaci", "votes": 160, "color": "#377EB8", "popup": "<div><strong>City of Milwaukee Ward 182</strong><div><strong>Representative to the Assembly, District 19</strong><table style='border-collapse:collapse;margin-top:4px;'><tr><th></th><th style='text-align:right;padding-right:8px;'>Votes</th><th style='text-align:right;'>Percent</th></tr><tr><td style='padding-right:8px;'>Ryan Clancy</td><td style='text-align:right;padding-right:8px;'>164</td><td style='text-align:right;'>50.3%</td></tr><tr><td style='padding-right:8px;'>Bridget Maniaci</td><td style='text-align:right;padding-right:8px;'>160</td><td style='text-align:right;'>49.1%</td></tr><tr><td style='padding-right:8px;'>write-in:</td><td style='text-align:right;padding-right:8px;'>2</td><td style='text-align:right;'>0.6%</td></tr></table></div>" }, "geometry": { "type": "Point", "coordinates": [ -87.90683805170201, 43.03366087260175 ] } },
{ "type": "Feature", "properties": { "ward": "City of Milwaukee Ward 158", "candidate": "Ryan Clancy", "votes": 161, "color": "#E41A1C", "popup": "<div><strong>City of Milwaukee Ward 158</strong><div><strong>Representative to the Assembly, District 19</strong><table style='border-collapse:collapse;margin-top:4px;'><tr><th></th><th style='text-align:right;padding-right:8px;'>Votes</th><th style='text-align:right;'>Percent</th></tr><tr><td style='padding-right:8px;'>Ryan Clancy</td><td style='text-align:right;padding-right:8px;'>161</td><td style='text-align:right;'>56.1%</td></tr><tr><td style='padding-right:8px;'>Bridget Maniaci</td><td style='text-align:right;padding-right:8px;'>124</td><td style='text-align:right;'>43.2%</td></tr><tr><td style='padding-right:8px;'>write-in:</td><td style='text-align:right;padding-right:8px;'>2</td><td style='text-align:right;'>0.7%</td></tr></table></div>" }, "geometry": { "type": "Point", "coordinates": [ -87.910489597525427, 43.044273790874591 ] } },
{ "type": "Feature", "properties": { "ward": "City of Milwaukee Ward 179", "candidate": "Bridget Maniaci", "votes": 164, "color": "#377EB8", "popup": "<div><strong>City of Milwaukee Ward 179</strong><div><strong>Representative to the Assembly, District 19</strong><table style='border-collapse:collapse;margin-top:4px;'><tr><th></th><th style='text-align:right;padding-right:8px;'>Votes</th><th style='text-align:right;'>Percent</th></tr><tr><td style='padding-right:8px;'>Ryan Clancy</td><td style='text-align:right;padding-right:8px;'>207</td><td style='text-align:right;'>55.8%</td></tr><tr><td style='padding-right:8px;'>Bridget Maniaci</td><td style='text-align:right;padding-right:8px;'>164</td><td style='text-align:right;'>44.2%</td></tr><tr><td style='padding-right:8px;'>write-in:</td><td style='text-align:right;padding-right:8px;'>0</td><td style='text-align:right;'>0.0%</td></tr></table></div>" }, "geometry": { "type": "Point", "coordinates": [ -87.904750049116984, 43.051994454002063 ] } },
{ "type": "Feature", "properties": { "ward": "City of Milwaukee Ward 182", "candidate": "Ryan Clancy", "votes": 164, "color": "#E41A1C", "popup": "<div><strong>City of Milwaukee Ward 182</strong><div><strong>Representative to the Assembly, District 19</strong><table style='border-collapse:collapse;margin-top:4px;'><tr><th></th><th style='text-align:right;padding-right:8px;'>Votes</th><th style='text-align:right;'>Percent</th></tr><tr><td style='padding-right:8px;'>Ryan Clancy</td><td style='text-align:right;padding-right:8px;'>164</td><td style='text-align:right;'>50.3%</td></tr><tr><td style='padding-right:8px;'>Bridget Maniaci</td><td style='text-align:right;padding-right:8px;'>160</td><td style='text-align:right;'>49.1%</td></tr><tr><td style='padding-right:8px;'>write-in:</td><td style='text-align:right;padding-right:8px;'>2</td><td style='text-align:right;'>0.6%</td></tr></table></div>" }, "geometry": { "type": "Point", "coordinates": [ -87.90683805170201, 43.03366087260175 ] } },
{ "type": "Feature", "properties": { "ward": "City of Milwaukee Ward 241", "candidate": "Bridget Maniaci", "votes": 168, "color": "#377EB8", "popup": "<div><strong>City of Milwaukee Ward 241</strong><div><strong>Representative to the Assembly, District 19</strong><table style='border-collapse:collapse;margin-top:4px;'><tr><th></th><th style='text-align:right;padding-right:8px;'>Votes</th><th style='text-align:right;'>Percent</th></tr><tr><td style='padding-right:8px;'>Ryan Clancy</td><td style='text-align:right;padding-right:8px;'>430</td><td style='text-align:right;'>71.8%</td></tr><tr><td style='padding-right:8px;'>Bridget Maniaci</td><td style='text-align:right;padding-right:8px;'>168</td><td style='text-align:right;'>28.0%</td></tr><tr><td style='padding-right:8px;'>write-in:</td><td style='text-align:right;padding-right:8px;'>1</td><td style='text-align:right;'>0.2%</td></tr></table></div>" }, "geometry": { "type": "Point", "coordinates": [ -87.903831430040071, 42.997960951648899 ] } },
{ "type": "Feature", "properties": { "ward": "City of Milwaukee Ward 122", "candidate": "Bridget Maniaci", "votes": 177, "color": "#377EB8", "popup": "<div><strong>City of Milwaukee Ward 122</strong><div><strong>Representative to the Assembly, District 19</strong><table style='border-collapse:collapse;margin-top:4px;'><tr><th></th><th style='text-align:right;padding-right:8px;'>Votes</th><th style='text-align:right;'>Percent</th></tr><tr><td style='padding-right:8px;'>Ryan Clancy</td><td style='text-align:right;padding-right:8px;'>282</td><td style='text-align:right;'>61.3%</td></tr><tr><td style='padding-right:8px;'>Bridget Maniaci</td><td style='text-align:right;padding-right:8px;'>177</td><td style='text-align:right;'>38.5%</td></tr><tr><td style='padding-right:8px;'>write-in:</td><td style='text-align:right;padding-right:8px;'>1</td><td style='text-align:right;'>0.2%</td></tr></table></div>" }, "geometry": { "type": "Point", "coordinates": [ -87.89522171646594, 43.074203704562699 ] } },
{ "type": "Feature", "properties": { "ward": "City of Milwaukee Ward 236", "candidate": "Bridget Maniaci", "votes": 179, "color": "#377EB8", "popup": "<div><strong>City of Milwaukee Ward 236</strong><div><strong>Representative to the Assembly, District 19</strong><table style='border-collapse:collapse;margin-top:4px;'><tr><th></th><th style='text-align:right;padding-right:8px;'>Votes</th><th style='text-align:right;'>Percent</th></tr><tr><td style='padding-right:8px;'>Ryan Clancy</td><td style='text-align:right;padding-right:8px;'>387</td><td style='text-align:right;'>68.3%</td></tr><tr><td style='padding-right:8px;'>Bridget Maniaci</td><td style='text-align:right;padding-right:8px;'>179</td><td style='text-align:right;'>31.6%</td></tr><tr><td style='padding-right:8px;'>write-in:</td><td style='text-align:right;padding-right:8px;'>1</td><td style='text-align:right;'>0.2%</td></tr></table></div>" }, "geometry": { "type": "Point", "coordinates": [ -87.899486211503771, 43.008079908184577 ] } },
{ "type": "Feature", "properties": { "ward": "City of Milwaukee Ward 156", "candidate": "Bridget Maniaci", "votes": 181, "color": "#377EB8", "popup": "<div><strong>City of Milwaukee Ward 156</strong><div><strong>Representative to the Assembly, District 19</strong><table style='border-collapse:collapse;margin-top:4px;'><tr><th></th><th style='text-align:right;padding-right:8px;'>Votes</th><th style='text-align:right;'>Percent</th></tr><tr><td style='padding-right:8px;'>Ryan Clancy</td><td style='text-align:right;padding-right:8px;'>211</td><td style='text-align:right;'>53.7%</td></tr><tr><td style='padding-right:8px;'>Bridget Maniaci</td><td style='text-align:right;padding-right:8px;'>181</td><td style='text-align:right;'>46.1%</td></tr><tr><td style='padding-right:8px;'>write-in:</td><td style='text-align:right;padding-right:8px;'>1</td><td style='text-align:right;'>0.3%</td></tr></table></div>" }, "geometry": { "type": "Point", "coordinates": [ -87.900441460513434, 43.027706020592426 ] } },
{ "type": "Feature", "properties": { "ward": "City of Milwaukee Ward 132", "candidate": "Bridget Maniaci", "votes": 183, "color": "#377EB8", "popup": "<div><strong>City of Milwaukee Ward 132</strong><div><strong>Representative to the Assembly, District 19</strong><table style='border-collapse:collapse;margin-top:4px;'><tr><th></th><th style='text-align:right;padding-right:8px;'>Votes</th><th style='text-align:right;'>Percent</th></tr><tr><td style='padding-right:8px;'>Ryan Clancy</td><td style='text-align:right;padding-right:8px;'>228</td><td style='text-align:right;'>55.1%</td></tr><tr><td style='padding-right:8px;'>Bridget Maniaci</td><td style='text-align:right;padding-right:8px;'>183</td><td style='text-align:right;'>44.2%</td></tr><tr><td style='padding-right:8px;'>write-in:</td><td style='text-align:right;padding-right:8px;'>3</td><td style='text-align:right;'>0.7%</td></tr></table></div>" }, "geometry": { "type": "Point", "coordinates": [ -87.891399419313714, 43.065536813833049 ] } },
{ "type": "Feature", "properties": { "ward": "City of Milwaukee Ward 129", "candidate": "Ryan Clancy", "votes": 187, "color": "#E41A1C", "popup": "<div><strong>City of Milwaukee Ward 129</strong><div><strong>Representative to the Assembly, District 19</strong><table style='border-collapse:collapse;margin-top:4px;'><tr><th></th><th style='text-align:right;padding-right:8px;'>Votes</th><th style='text-align:right;'>Percent</th></tr><tr><td style='padding-right:8px;'>Ryan Clancy</td><td style='text-align:right;padding-right:8px;'>187</td><td style='text-align:right;'>49.5%</td></tr><tr><td style='padding-right:8px;'>Bridget Maniaci</td><td style='text-align:right;padding-right:8px;'>191</td><td style='text-align:right;'>50.5%</td></tr><tr><td style='padding-right:8px;'>write-in:</td><td style='text-align:right;padding-right:8px;'>0</td><td style='text-align:right;'>0.0%</td></tr></table></div>" }, "geometry": { "type": "Point", "coordinates": [ -87.88004861983444, 43.066070441166069 ] } },
{ "type": "Feature", "properties": { "ward": "City of Milwaukee Ward 129", "candidate": "Bridget Maniaci", "votes": 191, "color": "#377EB8", "popup": "<div><strong>City of Milwaukee Ward 129</strong><div><strong>Representative to the Assembly, District 19</strong><table style='border-collapse:collapse;margin-top:4px;'><tr><th></th><th style='text-align:right;padding-right:8px;'>Votes</th><th style='text-align:right;'>Percent</th></tr><tr><td style='padding-right:8px;'>Ryan Clancy</td><td style='text-align:right;padding-right:8px;'>187</td><td style='text-align:right;'>49.5%</td></tr><tr><td style='padding-right:8px;'>Bridget Maniaci</td><td style='text-align:right;padding-right:8px;'>191</td><td style='text-align:right;'>50.5%</td></tr><tr><td style='padding-right:8px;'>write-in:</td><td style='text-align:right;padding-right:8px;'>0</td><td style='text-align:right;'>0.0%</td></tr></table></div>" }, "geometry": { "type": "Point", "coordinates": [ -87.88004861983444, 43.066070441166069 ] } },
{ "type": "Feature", "properties": { "ward": "City of Milwaukee Ward 179", "candidate": "Ryan Clancy", "votes": 207, "color": "#E41A1C", "popup": "<div><strong>City of Milwaukee Ward 179</strong><div><strong>Representative to the Assembly, District 19</strong><table style='border-collapse:collapse;margin-top:4px;'><tr><th></th><th style='text-align:right;padding-right:8px;'>Votes</th><th style='text-align:right;'>Percent</th></tr><tr><td style='padding-right:8px;'>Ryan Clancy</td><td style='text-align:right;padding-right:8px;'>207</td><td style='text-align:right;'>55.8%</td></tr><tr><td style='padding-right:8px;'>Bridget Maniaci</td><td style='text-align:right;padding-right:8px;'>164</td><td style='text-align:right;'>44.2%</td></tr><tr><td style='padding-right:8px;'>write-in:</td><td style='text-align:right;padding-right:8px;'>0</td><td style='text-align:right;'>0.0%</td></tr></table></div>" }, "geometry": { "type": "Point", "coordinates": [ -87.904750049116984, 43.051994454002063 ] } },
{ "type": "Feature", "properties": { "ward": "City of Milwaukee Ward 130", "candidate": "Ryan Clancy", "votes": 209, "color": "#E41A1C", "popup": "<div><strong>City of Milwaukee Ward 130</strong><div><strong>Representative to the Assembly, District 19</strong><table style='border-collapse:collapse;margin-top:4px;'><tr><th></th><th style='text-align:right;padding-right:8px;'>Votes</th><th style='text-align:right;'>Percent</th></tr><tr><td style='padding-right:8px;'>Ryan Clancy</td><td style='text-align:right;padding-right:8px;'>209</td><td style='text-align:right;'>49.6%</td></tr><tr><td style='padding-right:8px;'>Bridget Maniaci</td><td style='text-align:right;padding-right:8px;'>211</td><td style='text-align:right;'>50.1%</td></tr><tr><td style='padding-right:8px;'>write-in:</td><td style='text-align:right;padding-right:8px;'>1</td><td style='text-align:right;'>0.2%</td></tr></table></div>" }, "geometry": { "type": "Point", "coordinates": [ -87.88375761963168, 43.066084465063426 ] } },
{ "type": "Feature", "properties": { "ward": "City of Milwaukee Ward 133", "candidate": "Ryan Clancy", "votes": 210, "color": "#E41A1C", "popup": "<div><strong>City of Milwaukee Ward 133</strong><div><strong>Representative to the Assembly, District 19</strong><table style='border-collapse:collapse;margin-top:4px;'><tr><th></th><th style='text-align:right;padding-right:8px;'>Votes</th><th style='text-align:right;'>Percent</th></tr><tr><td style='padding-right:8px;'>Ryan Clancy</td><td style='text-align:right;padding-right:8px;'>210</td><td style='text-align:right;'>62.3%</td></tr><tr><td style='padding-right:8px;'>Bridget Maniaci</td><td style='text-align:right;padding-right:8px;'>127</td><td style='text-align:right;'>37.7%</td></tr><tr><td style='padding-right:8px;'>write-in:</td><td style='text-align:right;padding-right:8px;'>0</td><td style='text-align:right;'>0.0%</td></tr></table></div>" }, "geometry": { "type": "Point", "coordinates": [ -87.895414924638644, 43.063162778974537 ] } },
{ "type": "Feature", "properties": { "ward": "City of Milwaukee Ward 130", "candidate": "Bridget Maniaci", "votes": 211, "color": "#377EB8", "popup": "<div><strong>City of Milwaukee Ward 130</strong><div><strong>Representative to the Assembly, District 19</strong><table style='border-collapse:collapse;margin-top:4px;'><tr><th></th><th style='text-align:right;padding-right:8px;'>Votes</th><th style='text-align:right;'>Percent</th></tr><tr><td style='padding-right:8px;'>Ryan Clancy</td><td style='text-align:right;padding-right:8px;'>209</td><td style='text-align:right;'>49.6%</td></tr><tr><td style='padding-right:8px;'>Bridget Maniaci</td><td style='text-align:right;padding-right:8px;'>211</td><td style='text-align:right;'>50.1%</td></tr><tr><td style='padding-right:8px;'>write-in:</td><td style='text-align:right;padding-right:8px;'>1</td><td style='text-align:right;'>0.2%</td></tr></table></div>" }, "geometry": { "type": "Point", "coordinates": [ -87.88375761963168, 43.066084465063426 ] } },
{ "type": "Feature", "properties": { "ward": "City of Milwaukee Ward 156", "candidate": "Ryan Clancy", "votes": 211, "color": "#E41A1C", "popup": "<div><strong>City of Milwaukee Ward 156</strong><div><strong>Representative to the Assembly, District 19</strong><table style='border-collapse:collapse;margin-top:4px;'><tr><th></th><th style='text-align:right;padding-right:8px;'>Votes</th><th style='text-align:right;'>Percent</th></tr><tr><td style='padding-right:8px;'>Ryan Clancy</td><td style='text-align:right;padding-right:8px;'>211</td><td style='text-align:right;'>53.7%</td></tr><tr><td style='padding-right:8px;'>Bridget Maniaci</td><td style='text-align:right;padding-right:8px;'>181</td><td style='text-align:right;'>46.1%</td></tr><tr><td style='padding-right:8px;'>write-in:</td><td style='text-align:right;padding-right:8px;'>1</td><td style='text-align:right;'>0.3%</td></tr></table></div>" }, "geometry": { "type": "Point", "coordinates": [ -87.900441460513434, 43.027706020592426 ] } },
{ "type": "Feature", "properties": { "ward": "City of Milwaukee Ward 178", "candidate": "Bridget Maniaci", "votes": 217, "color": "#377EB8", "popup": "<div><strong>City of Milwaukee Ward 178</strong><div><strong>Representative to the Assembly, District 19</strong><table style='border-collapse:collapse;margin-top:4px;'><tr><th></th><th style='text-align:right;padding-right:8px;'>Votes</th><th style='text-align:right;'>Percent</th></tr><tr><td style='padding-right:8px;'>Ryan Clancy</td><td style='text-align:right;padding-right:8px;'>247</td><td style='text-align:right;'>53.1%</td></tr><tr><td style='padding-right:8px;'>Bridget Maniaci</td><td style='text-align:right;padding-right:8px;'>217</td><td style='text-align:right;'>46.7%</td></tr><tr><td style='padding-right:8px;'>write-in:</td><td style='text-align:right;padding-right:8px;'>1</td><td style='text-align:right;'>0.2%</td></tr></table></div>" }, "geometry": { "type": "Point", "coordinates": [ -87.894739031103384, 43.051374648239538 ] } },
{ "type": "Feature", "properties": { "ward": "City of Milwaukee Ward 132", "candidate": "Ryan Clancy", "votes": 228, "color": "#E41A1C", "popup": "<div><strong>City of Milwaukee Ward 132</strong><div><strong>Representative to the Assembly, District 19</strong><table style='border-collapse:collapse;margin-top:4px;'><tr><th></th><th style='text-align:right;padding-right:8px;'>Votes</th><th style='text-align:right;'>Percent</th></tr><tr><td style='padding-right:8px;'>Ryan Clancy</td><td style='text-align:right;padding-right:8px;'>228</td><td style='text-align:right;'>55.1%</td></tr><tr><td style='padding-right:8px;'>Bridget Maniaci</td><td style='text-align:right;padding-right:8px;'>183</td><td style='text-align:right;'>44.2%</td></tr><tr><td style='padding-right:8px;'>write-in:</td><td style='text-align:right;padding-right:8px;'>3</td><td style='text-align:right;'>0.7%</td></tr></table></div>" }, "geometry": { "type": "Point", "coordinates": [ -87.891399419313714, 43.065536813833049 ] } },
{ "type": "Feature", "properties": { "ward": "City of Milwaukee Ward 162", "candidate": "Bridget Maniaci", "votes": 230, "color": "#377EB8", "popup": "<div><strong>City of Milwaukee Ward 162</strong><div><strong>Representative to the Assembly, District 19</strong><table style='border-collapse:collapse;margin-top:4px;'><tr><th></th><th style='text-align:right;padding-right:8px;'>Votes</th><th style='text-align:right;'>Percent</th></tr><tr><td style='padding-right:8px;'>Ryan Clancy</td><td style='text-align:right;padding-right:8px;'>258</td><td style='text-align:right;'>52.8%</td></tr><tr><td style='padding-right:8px;'>Bridget Maniaci</td><td style='text-align:right;padding-right:8px;'>230</td><td style='text-align:right;'>47.0%</td></tr><tr><td style='padding-right:8px;'>write-in:</td><td style='text-align:right;padding-right:8px;'>1</td><td style='text-align:right;'>0.2%</td></tr></table></div>" }, "geometry": { "type": "Point", "coordinates": [ -87.90717671852552, 43.049569198077968 ] } },
{ "type": "Feature", "properties": { "ward": "City of Milwaukee Ward 238", "candidate": "Bridget Maniaci", "votes": 230, "color": "#377EB8", "popup": "<div><strong>City of Milwaukee Ward 238</strong><div><strong>Representative to the Assembly, District 19</strong><table style='border-collapse:collapse;margin-top:4px;'><tr><th></th><th style='text-align:right;padding-right:8px;'>Votes</th><th style='text-align:right;'>Percent</th></tr><tr><td style='padding-right:8px;'>Ryan Clancy</td><td style='text-align:right;padding-right:8px;'>359</td><td style='text-align:right;'>60.8%</td></tr><tr><td style='padding-right:8px;'>Bridget Maniaci</td><td style='text-align:right;padding-right:8px;'>230</td><td style='text-align:right;'>39.0%</td></tr><tr><td style='padding-right:8px;'>write-in:</td><td style='text-align:right;padding-right:8px;'>1</td><td style='text-align:right;'>0.2%</td></tr></table></div>" }, "geometry": { "type": "Point", "coordinates": [ -87.888142850520154, 42.996335994125737 ] } },
{ "type": "Feature", "properties": { "ward": "City of Milwaukee Ward 176", "candidate": "Ryan Clancy", "votes": 231, "color": "#E41A1C", "popup": "<div><strong>City of Milwaukee Ward 176</strong><div><strong>Representative to the Assembly, District 19</strong><table style='border-collapse:collapse;margin-top:4px;'><tr><th></th><th style='text-align:right;padding-right:8px;'>Votes</th><th style='text-align:right;'>Percent</th></tr><tr><td style='padding-right:8px;'>Ryan Clancy</td><td style='text-align:right;padding-right:8px;'>231</td><td style='text-align:right;'>46.9%</td></tr><tr><td style='padding-right:8px;'>Bridget Maniaci</td><td style='text-align:right;padding-right:8px;'>261</td><td style='text-align:right;'>52.9%</td></tr><tr><td style='padding-right:8px;'>write-in:</td><td style='text-align:right;padding-right:8px;'>1</td><td style='text-align:right;'>0.2%</td></tr></table></div>" }, "geometry": { "type": "Point", "coordinates": [ -87.880980434781691, 43.057741346988003 ] } },
{ "type": "Feature", "properties": { "ward": "City of Milwaukee Ward 127", "candidate": "Ryan Clancy", "votes": 236, "color": "#E41A1C", "popup": "<div><strong>City of Milwaukee Ward 127</strong><div><strong>Representative to the Assembly, District 19</strong><table style='border-collapse:collapse;margin-top:4px;'><tr><th></th><th style='text-align:right;padding-right:8px;'>Votes</th><th style='text-align:right;'>Percent</th></tr><tr><td style='padding-right:8px;'>Ryan Clancy</td><td style='text-align:right;padding-right:8px;'>236</td><td style='text-align:right;'>40.5%</td></tr><tr><td style='padding-right:8px;'>Bridget Maniaci</td><td style='text-align:right;padding-right:8px;'>345</td><td style='text-align:right;'>59.3%</td></tr><tr><td style='padding-right:8px;'>write-in:</td><td style='text-align:right;padding-right:8px;'>1</td><td style='text-align:right;'>0.2%</td></tr></table></div>" }, "geometry": { "type": "Point", "coordinates": [ -87.873465684022364, 43.077645423176378 ] } },
{ "type": "Feature", "properties": { "ward": "City of Milwaukee Ward 125", "candidate": "Ryan Clancy", "votes": 237, "color": "#E41A1C", "popup": "<div><strong>City of Milwaukee Ward 125</strong><div><strong>Representative to the Assembly, District 19</strong><table style='border-collapse:collapse;margin-top:4px;'><tr><th></th><th style='text-align:right;padding-right:8px;'>Votes</th><th style='text-align:right;'>Percent</th></tr><tr><td style='padding-right:8px;'>Ryan Clancy</td><td style='text-align:right;padding-right:8px;'>237</td><td style='text-align:right;'>46.4%</td></tr><tr><td style='padding-right:8px;'>Bridget Maniaci</td><td style='text-align:right;padding-right:8px;'>273</td><td style='text-align:right;'>53.4%</td></tr><tr><td style='padding-right:8px;'>write-in:</td><td style='text-align:right;padding-right:8px;'>1</td><td style='text-align:right;'>0.2%</td></tr></table></div>" }, "geometry": { "type": "Point", "coordinates": [ -87.880452675140916, 43.072788776381209 ] } },
{ "type": "Feature", "properties": { "ward": "City of Milwaukee Ward 181", "candidate": "Bridget Maniaci", "votes": 242, "color": "#377EB8", "popup": "<div><strong>City of Milwaukee Ward 181</strong><div><strong>Representative to the Assembly, District 19</strong><table style='border-collapse:collapse;margin-top:4px;'><tr><th></th><th style='text-align:right;padding-right:8px;'>Votes</th><th style='text-align:right;'>Percent</th></tr><tr><td style='padding-right:8px;'>Ryan Clancy</td><td style='text-align:right;padding-right:8px;'>262</td><td style='text-align:right;'>51.7%</td></tr><tr><td style='padding-right:8px;'>Bridget Maniaci</td><td style='text-align:right;padding-right:8px;'>242</td><td style='text-align:right;'>47.7%</td></tr><tr><td style='padding-right:8px;'>write-in:</td><td style='text-align:right;padding-right:8px;'>3</td><td style='text-align:right;'>0.6%</td></tr></table></div>" }, "geometry": { "type": "Point", "coordinates": [ -87.901406734306519, 43.044303508875046 ] } },
{ "type": "Feature", "properties": { "ward": "City of Milwaukee Ward 131", "candidate": "Bridget Maniaci", "votes": 247, "color": "#377EB8", "popup": "<div><strong>City of Milwaukee Ward 131</strong><div><strong>Representative to the Assembly, District 19</strong><table style='border-collapse:collapse;margin-top:4px;'><tr><th></th><th style='text-align:right;padding-right:8px;'>Votes</th><th style='text-align:right;'>Percent</th></tr><tr><td style='padding-right:8px;'>Ryan Clancy</td><td style='text-align:right;padding-right:8px;'>275</td><td style='text-align:right;'>52.6%</td></tr><tr><td style='padding-right:8px;'>Bridget Maniaci</td><td style='text-align:right;padding-right:8px;'>247</td><td style='text-align:right;'>47.2%</td></tr><tr><td style='padding-right:8px;'>write-in:</td><td style='text-align:right;padding-right:8px;'>1</td><td style='text-align:right;'>0.2%</td></tr></table></div>" }, "geometry": { "type": "Point", "coordinates": [ -87.885926123313652, 43.061648169700547 ] } },
{ "type": "Feature", "properties": { "ward": "City of Milwaukee Ward 178", "candidate": "Ryan Clancy", "votes": 247, "color": "#E41A1C", "popup": "<div><strong>City of Milwaukee Ward 178</strong><div><strong>Representative to the Assembly, District 19</strong><table style='border-collapse:collapse;margin-top:4px;'><tr><th></th><th style='text-align:right;padding-right:8px;'>Votes</th><th style='text-align:right;'>Percent</th></tr><tr><td style='padding-right:8px;'>Ryan Clancy</td><td style='text-align:right;padding-right:8px;'>247</td><td style='text-align:right;'>53.1%</td></tr><tr><td style='padding-right:8px;'>Bridget Maniaci</td><td style='text-align:right;padding-right:8px;'>217</td><td style='text-align:right;'>46.7%</td></tr><tr><td style='padding-right:8px;'>write-in:</td><td style='text-align:right;padding-right:8px;'>1</td><td style='text-align:right;'>0.2%</td></tr></table></div>" }, "geometry": { "type": "Point", "coordinates": [ -87.894739031103384, 43.051374648239538 ] } },
{ "type": "Feature", "properties": { "ward": "City of Milwaukee Ward 123", "candidate": "Bridget Maniaci", "votes": 257, "color": "#377EB8", "popup": "<div><strong>City of Milwaukee Ward 123</strong><div><strong>Representative to the Assembly, District 19</strong><table style='border-collapse:collapse;margin-top:4px;'><tr><th></th><th style='text-align:right;padding-right:8px;'>Votes</th><th style='text-align:right;'>Percent</th></tr><tr><td style='padding-right:8px;'>Ryan Clancy</td><td style='text-align:right;padding-right:8px;'>384</td><td style='text-align:right;'>59.8%</td></tr><tr><td style='padding-right:8px;'>Bridget Maniaci</td><td style='text-align:right;padding-right:8px;'>257</td><td style='text-align:right;'>40.0%</td></tr><tr><td style='padding-right:8px;'>write-in:</td><td style='text-align:right;padding-right:8px;'>1</td><td style='text-align:right;'>0.2%</td></tr></table></div>" }, "geometry": { "type": "Point", "coordinates": [ -87.888359621622612, 43.078090391152742 ] } },
{ "type": "Feature", "properties": { "ward": "City of Milwaukee Ward 162", "candidate": "Ryan Clancy", "votes": 258, "color": "#E41A1C", "popup": "<div><strong>City of Milwaukee Ward 162</strong><div><strong>Representative to the Assembly, District 19</strong><table style='border-collapse:collapse;margin-top:4px;'><tr><th></th><th style='text-align:right;padding-right:8px;'>Votes</th><th style='text-align:right;'>Percent</th></tr><tr><td style='padding-right:8px;'>Ryan Clancy</td><td style='text-align:right;padding-right:8px;'>258</td><td style='text-align:right;'>52.8%</td></tr><tr><td style='padding-right:8px;'>Bridget Maniaci</td><td style='text-align:right;padding-right:8px;'>230</td><td style='text-align:right;'>47.0%</td></tr><tr><td style='padding-right:8px;'>write-in:</td><td style='text-align:right;padding-right:8px;'>1</td><td style='text-align:right;'>0.2%</td></tr></table></div>" }, "geometry": { "type": "Point", "coordinates": [ -87.90717671852552, 43.049569198077968 ] } },
{ "type": "Feature", "properties": { "ward": "City of Milwaukee Ward 176", "candidate": "Bridget Maniaci", "votes": 261, "color": "#377EB8", "popup": "<div><strong>City of Milwaukee Ward 176</strong><div><strong>Representative to the Assembly, District 19</strong><table style='border-collapse:collapse;margin-top:4px;'><tr><th></th><th style='text-align:right;padding-right:8px;'>Votes</th><th style='text-align:right;'>Percent</th></tr><tr><td style='padding-right:8px;'>Ryan Clancy</td><td style='text-align:right;padding-right:8px;'>231</td><td style='text-align:right;'>46.9%</td></tr><tr><td style='padding-right:8px;'>Bridget Maniaci</td><td style='text-align:right;padding-right:8px;'>261</td><td style='text-align:right;'>52.9%</td></tr><tr><td style='padding-right:8px;'>write-in:</td><td style='text-align:right;padding-right:8px;'>1</td><td style='text-align:right;'>0.2%</td></tr></table></div>" }, "geometry": { "type": "Point", "coordinates": [ -87.880980434781691, 43.057741346988003 ] } },
{ "type": "Feature", "properties": { "ward": "City of Milwaukee Ward 181", "candidate": "Ryan Clancy", "votes": 262, "color": "#E41A1C", "popup": "<div><strong>City of Milwaukee Ward 181</strong><div><strong>Representative to the Assembly, District 19</strong><table style='border-collapse:collapse;margin-top:4px;'><tr><th></th><th style='text-align:right;padding-right:8px;'>Votes</th><th style='text-align:right;'>Percent</th></tr><tr><td style='padding-right:8px;'>Ryan Clancy</td><td style='text-align:right;padding-right:8px;'>262</td><td style='text-align:right;'>51.7%</td></tr><tr><td style='padding-right:8px;'>Bridget Maniaci</td><td style='text-align:right;padding-right:8px;'>242</td><td style='text-align:right;'>47.7%</td></tr><tr><td style='padding-right:8px;'>write-in:</td><td style='text-align:right;padding-right:8px;'>3</td><td style='text-align:right;'>0.6%</td></tr></table></div>" }, "geometry": { "type": "Point", "coordinates": [ -87.901406734306519, 43.044303508875046 ] } },
{ "type": "Feature", "properties": { "ward": "City of Milwaukee Ward 125", "candidate": "Bridget Maniaci", "votes": 273, "color": "#377EB8", "popup": "<div><strong>City of Milwaukee Ward 125</strong><div><strong>Representative to the Assembly, District 19</strong><table style='border-collapse:collapse;margin-top:4px;'><tr><th></th><th style='text-align:right;padding-right:8px;'>Votes</th><th style='text-align:right;'>Percent</th></tr><tr><td style='padding-right:8px;'>Ryan Clancy</td><td style='text-align:right;padding-right:8px;'>237</td><td style='text-align:right;'>46.4%</td></tr><tr><td style='padding-right:8px;'>Bridget Maniaci</td><td style='text-align:right;padding-right:8px;'>273</td><td style='text-align:right;'>53.4%</td></tr><tr><td style='padding-right:8px;'>write-in:</td><td style='text-align:right;padding-right:8px;'>1</td><td style='text-align:right;'>0.2%</td></tr></table></div>" }, "geometry": { "type": "Point", "coordinates": [ -87.880452675140916, 43.072788776381209 ] } },
{ "type": "Feature", "properties": { "ward": "City of Milwaukee Ward 131", "candidate": "Ryan Clancy", "votes": 275, "color": "#E41A1C", "popup": "<div><strong>City of Milwaukee Ward 131</strong><div><strong>Representative to the Assembly, District 19</strong><table style='border-collapse:collapse;margin-top:4px;'><tr><th></th><th style='text-align:right;padding-right:8px;'>Votes</th><th style='text-align:right;'>Percent</th></tr><tr><td style='padding-right:8px;'>Ryan Clancy</td><td style='text-align:right;padding-right:8px;'>275</td><td style='text-align:right;'>52.6%</td></tr><tr><td style='padding-right:8px;'>Bridget Maniaci</td><td style='text-align:right;padding-right:8px;'>247</td><td style='text-align:right;'>47.2%</td></tr><tr><td style='padding-right:8px;'>write-in:</td><td style='text-align:right;padding-right:8px;'>1</td><td style='text-align:right;'>0.2%</td></tr></table></div>" }, "geometry": { "type": "Point", "coordinates": [ -87.885926123313652, 43.061648169700547 ] } },
{ "type": "Feature", "properties": { "ward": "City of Milwaukee Ward 122", "candidate": "Ryan Clancy", "votes": 282, "color": "#E41A1C", "popup": "<div><strong>City of Milwaukee Ward 122</strong><div><strong>Representative to the Assembly, District 19</strong><table style='border-collapse:collapse;margin-top:4px;'><tr><th></th><th style='text-align:right;padding-right:8px;'>Votes</th><th style='text-align:right;'>Percent</th></tr><tr><td style='padding-right:8px;'>Ryan Clancy</td><td style='text-align:right;padding-right:8px;'>282</td><td style='text-align:right;'>61.3%</td></tr><tr><td style='padding-right:8px;'>Bridget Maniaci</td><td style='text-align:right;padding-right:8px;'>177</td><td style='text-align:right;'>38.5%</td></tr><tr><td style='padding-right:8px;'>write-in:</td><td style='text-align:right;padding-right:8px;'>1</td><td style='text-align:right;'>0.2%</td></tr></table></div>" }, "geometry": { "type": "Point", "coordinates": [ -87.89522171646594, 43.074203704562699 ] } },
{ "type": "Feature", "properties": { "ward": "City of Milwaukee Ward 237", "candidate": "Ryan Clancy", "votes": 285, "color": "#E41A1C", "popup": "<div><strong>City of Milwaukee Ward 237</strong><div><strong>Representative to the Assembly, District 19</strong><table style='border-collapse:collapse;margin-top:4px;'><tr><th></th><th style='text-align:right;padding-right:8px;'>Votes</th><th style='text-align:right;'>Percent</th></tr><tr><td style='padding-right:8px;'>Ryan Clancy</td><td style='text-align:right;padding-right:8px;'>285</td><td style='text-align:right;'>68.3%</td></tr><tr><td style='padding-right:8px;'>Bridget Maniaci</td><td style='text-align:right;padding-right:8px;'>132</td><td style='text-align:right;'>31.7%</td></tr><tr><td style='padding-right:8px;'>write-in:</td><td style='text-align:right;padding-right:8px;'>0</td><td style='text-align:right;'>0.0%</td></tr></table></div>" }, "geometry": { "type": "Point", "coordinates": [ -87.89419138502214, 43.000228307767777 ] } },
{ "type": "Feature", "properties": { "ward": "City of Milwaukee Ward 180", "candidate": "Bridget Maniaci", "votes": 291, "color": "#377EB8", "popup": "<div><strong>City of Milwaukee Ward 180</strong><div><strong>Representative to the Assembly, District 19</strong><table style='border-collapse:collapse;margin-top:4px;'><tr><th></th><th style='text-align:right;padding-right:8px;'>Votes</th><th style='text-align:right;'>Percent</th></tr><tr><td style='padding-right:8px;'>Ryan Clancy</td><td style='text-align:right;padding-right:8px;'>299</td><td style='text-align:right;'>50.5%</td></tr><tr><td style='padding-right:8px;'>Bridget Maniaci</td><td style='text-align:right;padding-right:8px;'>291</td><td style='text-align:right;'>49.2%</td></tr><tr><td style='padding-right:8px;'>write-in:</td><td style='text-align:right;padding-right:8px;'>2</td><td style='text-align:right;'>0.3%</td></tr></table></div>" }, "geometry": { "type": "Point", "coordinates": [ -87.899810137925527, 43.046908679979808 ] } },
{ "type": "Feature", "properties": { "ward": "City of Milwaukee Ward 180", "candidate": "Ryan Clancy", "votes": 299, "color": "#E41A1C", "popup": "<div><strong>City of Milwaukee Ward 180</strong><div><strong>Representative to the Assembly, District 19</strong><table style='border-collapse:collapse;margin-top:4px;'><tr><th></th><th style='text-align:right;padding-right:8px;'>Votes</th><th style='text-align:right;'>Percent</th></tr><tr><td style='padding-right:8px;'>Ryan Clancy</td><td style='text-align:right;padding-right:8px;'>299</td><td style='text-align:right;'>50.5%</td></tr><tr><td style='padding-right:8px;'>Bridget Maniaci</td><td style='text-align:right;padding-right:8px;'>291</td><td style='text-align:right;'>49.2%</td></tr><tr><td style='padding-right:8px;'>write-in:</td><td style='text-align:right;padding-right:8px;'>2</td><td style='text-align:right;'>0.3%</td></tr></table></div>" }, "geometry": { "type": "Point", "coordinates": [ -87.899810137925527, 43.046908679979808 ] } },
{ "type": "Feature", "properties": { "ward": "City of Milwaukee Ward 124", "candidate": "Bridget Maniaci", "votes": 302, "color": "#377EB8", "popup": "<div><strong>City of Milwaukee Ward 124</strong><div><strong>Representative to the Assembly, District 19</strong><table style='border-collapse:collapse;margin-top:4px;'><tr><th></th><th style='text-align:right;padding-right:8px;'>Votes</th><th style='text-align:right;'>Percent</th></tr><tr><td style='padding-right:8px;'>Ryan Clancy</td><td style='text-align:right;padding-right:8px;'>330</td><td style='text-align:right;'>52.1%</td></tr><tr><td style='padding-right:8px;'>Bridget Maniaci</td><td style='text-align:right;padding-right:8px;'>302</td><td style='text-align:right;'>47.7%</td></tr><tr><td style='padding-right:8px;'>write-in:</td><td style='text-align:right;padding-right:8px;'>1</td><td style='text-align:right;'>0.2%</td></tr></table></div>" }, "geometry": { "type": "Point", "coordinates": [ -87.889170629278212, 43.071914476353662 ] } },
{ "type": "Feature", "properties": { "ward": "City of Milwaukee Ward 239", "candidate": "Bridget Maniaci", "votes": 310, "color": "#377EB8", "popup": "<div><strong>City of Milwaukee Ward 239</strong><div><strong>Representative to the Assembly, District 19</strong><table style='border-collapse:collapse;margin-top:4px;'><tr><th></th><th style='text-align:right;padding-right:8px;'>Votes</th><th style='text-align:right;'>Percent</th></tr><tr><td style='padding-right:8px;'>Ryan Clancy</td><td style='text-align:right;padding-right:8px;'>532</td><td style='text-align:right;'>63.0%</td></tr><tr><td style='padding-right:8px;'>Bridget Maniaci</td><td style='text-align:right;padding-right:8px;'>310</td><td style='text-align:right;'>36.7%</td></tr><tr><td style='padding-right:8px;'>write-in:</td><td style='text-align:right;padding-right:8px;'>2</td><td style='text-align:right;'>0.2%</td></tr></table></div>" }, "geometry": { "type": "Point", "coordinates": [ -87.882540672140081, 42.991224070180579 ] } },
{ "type": "Feature", "properties": { "ward": "City of Milwaukee Ward 174", "candidate": "Bridget Maniaci", "votes": 315, "color": "#377EB8", "popup": "<div><strong>City of Milwaukee Ward 174</strong><div><strong>Representative to the Assembly, District 19</strong><table style='border-collapse:collapse;margin-top:4px;'><tr><th></th><th style='text-align:right;padding-right:8px;'>Votes</th><th style='text-align:right;'>Percent</th></tr><tr><td style='padding-right:8px;'>Ryan Clancy</td><td style='text-align:right;padding-right:8px;'>320</td><td style='text-align:right;'>50.4%</td></tr><tr><td style='padding-right:8px;'>Bridget Maniaci</td><td style='text-align:right;padding-right:8px;'>315</td><td style='text-align:right;'>49.6%</td></tr><tr><td style='padding-right:8px;'>write-in:</td><td style='text-align:right;padding-right:8px;'>0</td><td style='text-align:right;'>0.0%</td></tr></table></div>" }, "geometry": { "type": "Point", "coordinates": [ -87.899716604466917, 43.054794012001985 ] } },
{ "type": "Feature", "properties": { "ward": "City of Milwaukee Ward 174", "candidate": "Ryan Clancy", "votes": 320, "color": "#E41A1C", "popup": "<div><strong>City of Milwaukee Ward 174</strong><div><strong>Representative to the Assembly, District 19</strong><table style='border-collapse:collapse;margin-top:4px;'><tr><th></th><th style='text-align:right;padding-right:8px;'>Votes</th><th style='text-align:right;'>Percent</th></tr><tr><td style='padding-right:8px;'>Ryan Clancy</td><td style='text-align:right;padding-right:8px;'>320</td><td style='text-align:right;'>50.4%</td></tr><tr><td style='padding-right:8px;'>Bridget Maniaci</td><td style='text-align:right;padding-right:8px;'>315</td><td style='text-align:right;'>49.6%</td></tr><tr><td style='padding-right:8px;'>write-in:</td><td style='text-align:right;padding-right:8px;'>0</td><td style='text-align:right;'>0.0%</td></tr></table></div>" }, "geometry": { "type": "Point", "coordinates": [ -87.899716604466917, 43.054794012001985 ] } },
{ "type": "Feature", "properties": { "ward": "City of Milwaukee Ward 124", "candidate": "Ryan Clancy", "votes": 330, "color": "#E41A1C", "popup": "<div><strong>City of Milwaukee Ward 124</strong><div><strong>Representative to the Assembly, District 19</strong><table style='border-collapse:collapse;margin-top:4px;'><tr><th></th><th style='text-align:right;padding-right:8px;'>Votes</th><th style='text-align:right;'>Percent</th></tr><tr><td style='padding-right:8px;'>Ryan Clancy</td><td style='text-align:right;padding-right:8px;'>330</td><td style='text-align:right;'>52.1%</td></tr><tr><td style='padding-right:8px;'>Bridget Maniaci</td><td style='text-align:right;padding-right:8px;'>302</td><td style='text-align:right;'>47.7%</td></tr><tr><td style='padding-right:8px;'>write-in:</td><td style='text-align:right;padding-right:8px;'>1</td><td style='text-align:right;'>0.2%</td></tr></table></div>" }, "geometry": { "type": "Point", "coordinates": [ -87.889170629278212, 43.071914476353662 ] } },
{ "type": "Feature", "properties": { "ward": "City of Milwaukee Ward 127", "candidate": "Bridget Maniaci", "votes": 345, "color": "#377EB8", "popup": "<div><strong>City of Milwaukee Ward 127</strong><div><strong>Representative to the Assembly, District 19</strong><table style='border-collapse:collapse;margin-top:4px;'><tr><th></th><th style='text-align:right;padding-right:8px;'>Votes</th><th style='text-align:right;'>Percent</th></tr><tr><td style='padding-right:8px;'>Ryan Clancy</td><td style='text-align:right;padding-right:8px;'>236</td><td style='text-align:right;'>40.5%</td></tr><tr><td style='padding-right:8px;'>Bridget Maniaci</td><td style='text-align:right;padding-right:8px;'>345</td><td style='text-align:right;'>59.3%</td></tr><tr><td style='padding-right:8px;'>write-in:</td><td style='text-align:right;padding-right:8px;'>1</td><td style='text-align:right;'>0.2%</td></tr></table></div>" }, "geometry": { "type": "Point", "coordinates": [ -87.873465684022364, 43.077645423176378 ] } },
{ "type": "Feature", "properties": { "ward": "City of Milwaukee Ward 175", "candidate": "Bridget Maniaci", "votes": 350, "color": "#377EB8", "popup": "<div><strong>City of Milwaukee Ward 175</strong><div><strong>Representative to the Assembly, District 19</strong><table style='border-collapse:collapse;margin-top:4px;'><tr><th></th><th style='text-align:right;padding-right:8px;'>Votes</th><th style='text-align:right;'>Percent</th></tr><tr><td style='padding-right:8px;'>Ryan Clancy</td><td style='text-align:right;padding-right:8px;'>413</td><td style='text-align:right;'>54.0%</td></tr><tr><td style='padding-right:8px;'>Bridget Maniaci</td><td style='text-align:right;padding-right:8px;'>350</td><td style='text-align:right;'>45.8%</td></tr><tr><td style='padding-right:8px;'>write-in:</td><td style='text-align:right;padding-right:8px;'>2</td><td style='text-align:right;'>0.3%</td></tr></table></div>" }, "geometry": { "type": "Point", "coordinates": [ -87.890011633417785, 43.056619900824593 ] } },
{ "type": "Feature", "properties": { "ward": "City of Milwaukee Ward 238", "candidate": "Ryan Clancy", "votes": 359, "color": "#E41A1C", "popup": "<div><strong>City of Milwaukee Ward 238</strong><div><strong>Representative to the Assembly, District 19</strong><table style='border-collapse:collapse;margin-top:4px;'><tr><th></th><th style='text-align:right;padding-right:8px;'>Votes</th><th style='text-align:right;'>Percent</th></tr><tr><td style='padding-right:8px;'>Ryan Clancy</td><td style='text-align:right;padding-right:8px;'>359</td><td style='text-align:right;'>60.8%</td></tr><tr><td style='padding-right:8px;'>Bridget Maniaci</td><td style='text-align:right;padding-right:8px;'>230</td><td style='text-align:right;'>39.0%</td></tr><tr><td style='padding-right:8px;'>write-in:</td><td style='text-align:right;padding-right:8px;'>1</td><td style='text-align:right;'>0.2%</td></tr></table></div>" }, "geometry": { "type": "Point", "coordinates": [ -87.888142850520154, 42.996335994125737 ] } },
{ "type": "Feature", "properties": { "ward": "City of Milwaukee Ward 123", "candidate": "Ryan Clancy", "votes": 384, "color": "#E41A1C", "popup": "<div><strong>City of Milwaukee Ward 123</strong><div><strong>Representative to the Assembly, District 19</strong><table style='border-collapse:collapse;margin-top:4px;'><tr><th></th><th style='text-align:right;padding-right:8px;'>Votes</th><th style='text-align:right;'>Percent</th></tr><tr><td style='padding-right:8px;'>Ryan Clancy</td><td style='text-align:right;padding-right:8px;'>384</td><td style='text-align:right;'>59.8%</td></tr><tr><td style='padding-right:8px;'>Bridget Maniaci</td><td style='text-align:right;padding-right:8px;'>257</td><td style='text-align:right;'>40.0%</td></tr><tr><td style='padding-right:8px;'>write-in:</td><td style='text-align:right;padding-right:8px;'>1</td><td style='text-align:right;'>0.2%</td></tr></table></div>" }, "geometry": { "type": "Point", "coordinates": [ -87.888359621622612, 43.078090391152742 ] } },
{ "type": "Feature", "properties": { "ward": "City of Milwaukee Ward 236", "candidate": "Ryan Clancy", "votes": 387, "color": "#E41A1C", "popup": "<div><strong>City of Milwaukee Ward 236</strong><div><strong>Representative to the Assembly, District 19</strong><table style='border-collapse:collapse;margin-top:4px;'><tr><th></th><th style='text-align:right;padding-right:8px;'>Votes</th><th style='text-align:right;'>Percent</th></tr><tr><td style='padding-right:8px;'>Ryan Clancy</td><td style='text-align:right;padding-right:8px;'>387</td><td style='text-align:right;'>68.3%</td></tr><tr><td style='padding-right:8px;'>Bridget Maniaci</td><td style='text-align:right;padding-right:8px;'>179</td><td style='text-align:right;'>31.6%</td></tr><tr><td style='padding-right:8px;'>write-in:</td><td style='text-align:right;padding-right:8px;'>1</td><td style='text-align:right;'>0.2%</td></tr></table></div>" }, "geometry": { "type": "Point", "coordinates": [ -87.899486211503771, 43.008079908184577 ] } },
{ "type": "Feature", "properties": { "ward": "City of Milwaukee Ward 177", "candidate": "Bridget Maniaci", "votes": 393, "color": "#377EB8", "popup": "<div><strong>City of Milwaukee Ward 177</strong><div><strong>Representative to the Assembly, District 19</strong><table style='border-collapse:collapse;margin-top:4px;'><tr><th></th><th style='text-align:right;padding-right:8px;'>Votes</th><th style='text-align:right;'>Percent</th></tr><tr><td style='padding-right:8px;'>Ryan Clancy</td><td style='text-align:right;padding-right:8px;'>409</td><td style='text-align:right;'>50.8%</td></tr><tr><td style='padding-right:8px;'>Bridget Maniaci</td><td style='text-align:right;padding-right:8px;'>393</td><td style='text-align:right;'>48.8%</td></tr><tr><td style='padding-right:8px;'>write-in:</td><td style='text-align:right;padding-right:8px;'>3</td><td style='text-align:right;'>0.4%</td></tr></table></div>" }, "geometry": { "type": "Point", "coordinates": [ -87.893470609177754, 43.045208808165945 ] } },
{ "type": "Feature", "properties": { "ward": "City of Milwaukee Ward 128", "candidate": "Ryan Clancy", "votes": 401, "color": "#E41A1C", "popup": "<div><strong>City of Milwaukee Ward 128</strong><div><strong>Representative to the Assembly, District 19</strong><table style='border-collapse:collapse;margin-top:4px;'><tr><th></th><th style='text-align:right;padding-right:8px;'>Votes</th><th style='text-align:right;'>Percent</th></tr><tr><td style='padding-right:8px;'>Ryan Clancy</td><td style='text-align:right;padding-right:8px;'>401</td><td style='text-align:right;'>42.3%</td></tr><tr><td style='padding-right:8px;'>Bridget Maniaci</td><td style='text-align:right;padding-right:8px;'>547</td><td style='text-align:right;'>57.7%</td></tr><tr><td style='padding-right:8px;'>write-in:</td><td style='text-align:right;padding-right:8px;'>0</td><td style='text-align:right;'>0.0%</td></tr></table></div>" }, "geometry": { "type": "Point", "coordinates": [ -87.872562971617683, 43.068750916440891 ] } },
{ "type": "Feature", "properties": { "ward": "City of Milwaukee Ward 177", "candidate": "Ryan Clancy", "votes": 409, "color": "#E41A1C", "popup": "<div><strong>City of Milwaukee Ward 177</strong><div><strong>Representative to the Assembly, District 19</strong><table style='border-collapse:collapse;margin-top:4px;'><tr><th></th><th style='text-align:right;padding-right:8px;'>Votes</th><th style='text-align:right;'>Percent</th></tr><tr><td style='padding-right:8px;'>Ryan Clancy</td><td style='text-align:right;padding-right:8px;'>409</td><td style='text-align:right;'>50.8%</td></tr><tr><td style='padding-right:8px;'>Bridget Maniaci</td><td style='text-align:right;padding-right:8px;'>393</td><td style='text-align:right;'>48.8%</td></tr><tr><td style='padding-right:8px;'>write-in:</td><td style='text-align:right;padding-right:8px;'>3</td><td style='text-align:right;'>0.4%</td></tr></table></div>" }, "geometry": { "type": "Point", "coordinates": [ -87.893470609177754, 43.045208808165945 ] } },
{ "type": "Feature", "properties": { "ward": "City of Milwaukee Ward 175", "candidate": "Ryan Clancy", "votes": 413, "color": "#E41A1C", "popup": "<div><strong>City of Milwaukee Ward 175</strong><div><strong>Representative to the Assembly, District 19</strong><table style='border-collapse:collapse;margin-top:4px;'><tr><th></th><th style='text-align:right;padding-right:8px;'>Votes</th><th style='text-align:right;'>Percent</th></tr><tr><td style='padding-right:8px;'>Ryan Clancy</td><td style='text-align:right;padding-right:8px;'>413</td><td style='text-align:right;'>54.0%</td></tr><tr><td style='padding-right:8px;'>Bridget Maniaci</td><td style='text-align:right;padding-right:8px;'>350</td><td style='text-align:right;'>45.8%</td></tr><tr><td style='padding-right:8px;'>write-in:</td><td style='text-align:right;padding-right:8px;'>2</td><td style='text-align:right;'>0.3%</td></tr></table></div>" }, "geometry": { "type": "Point", "coordinates": [ -87.890011633417785, 43.056619900824593 ] } },
{ "type": "Feature", "properties": { "ward": "City of Milwaukee Ward 241", "candidate": "Ryan Clancy", "votes": 430, "color": "#E41A1C", "popup": "<div><strong>City of Milwaukee Ward 241</strong><div><strong>Representative to the Assembly, District 19</strong><table style='border-collapse:collapse;margin-top:4px;'><tr><th></th><th style='text-align:right;padding-right:8px;'>Votes</th><th style='text-align:right;'>Percent</th></tr><tr><td style='padding-right:8px;'>Ryan Clancy</td><td style='text-align:right;padding-right:8px;'>430</td><td style='text-align:right;'>71.8%</td></tr><tr><td style='padding-right:8px;'>Bridget Maniaci</td><td style='text-align:right;padding-right:8px;'>168</td><td style='text-align:right;'>28.0%</td></tr><tr><td style='padding-right:8px;'>write-in:</td><td style='text-align:right;padding-right:8px;'>1</td><td style='text-align:right;'>0.2%</td></tr></table></div>" }, "geometry": { "type": "Point", "coordinates": [ -87.903831430040071, 42.997960951648899 ] } },
{ "type": "Feature", "properties": { "ward": "City of Milwaukee Ward 239", "candidate": "Ryan Clancy", "votes": 532, "color": "#E41A1C", "popup": "<div><strong>City of Milwaukee Ward 239</strong><div><strong>Representative to the Assembly, District 19</strong><table style='border-collapse:collapse;margin-top:4px;'><tr><th></th><th style='text-align:right;padding-right:8px;'>Votes</th><th style='text-align:right;'>Percent</th></tr><tr><td style='padding-right:8px;'>Ryan Clancy</td><td style='text-align:right;padding-right:8px;'>532</td><td style='text-align:right;'>63.0%</td></tr><tr><td style='padding-right:8px;'>Bridget Maniaci</td><td style='text-align:right;padding-right:8px;'>310</td><td style='text-align:right;'>36.7%</td></tr><tr><td style='padding-right:8px;'>write-in:</td><td style='text-align:right;padding-right:8px;'>2</td><td style='text-align:right;'>0.2%</td></tr></table></div>" }, "geometry": { "type": "Point", "coordinates": [ -87.882540672140081, 42.991224070180579 ] } },
{ "type": "Feature", "properties": { "ward": "City of Milwaukee Ward 128", "candidate": "Bridget Maniaci", "votes": 547, "color": "#377EB8", "popup": "<div><strong>City of Milwaukee Ward 128</strong><div><strong>Representative to the Assembly, District 19</strong><table style='border-collapse:collapse;margin-top:4px;'><tr><th></th><th style='text-align:right;padding-right:8px;'>Votes</th><th style='text-align:right;'>Percent</th></tr><tr><td style='padding-right:8px;'>Ryan Clancy</td><td style='text-align:right;padding-right:8px;'>401</td><td style='text-align:right;'>42.3%</td></tr><tr><td style='padding-right:8px;'>Bridget Maniaci</td><td style='text-align:right;padding-right:8px;'>547</td><td style='text-align:right;'>57.7%</td></tr><tr><td style='padding-right:8px;'>write-in:</td><td style='text-align:right;padding-right:8px;'>0</td><td style='text-align:right;'>0.0%</td></tr></table></div>" }, "geometry": { "type": "Point", "coordinates": [ -87.872562971617683, 43.068750916440891 ] } }
]
}
